"STATION","DATE","REPORT_TYPE","SOURCE","AWND","BackupDirection","BackupDistance","BackupDistanceUnit","BackupElements","BackupElevation","BackupElevationUnit","BackupEquipment","BackupLatitude","BackupLongitude","BackupName","CDSD","CLDD","DSNW","DailyAverageDewPointTemperature","DailyAverageDryBulbTemperature","DailyAverageRelativeHumidity","DailyAverageSeaLevelPressure","DailyAverageStationPressure","DailyAverageWetBulbTemperature","DailyAverageWindSpeed","DailyCoolingDegreeDays","DailyDepartureFromNormalAverageTemperature","DailyHeatingDegreeDays","DailyMaximumDryBulbTemperature","DailyMinimumDryBulbTemperature","DailyPeakWindDirection","DailyPeakWindSpeed","DailyPrecipitation","DailySnowDepth","DailySnowfall","DailySustainedWindDirection","DailySustainedWindSpeed","DailyWeather","HDSD","HTDD","HeavyFog","HourlyAltimeterSetting","HourlyDewPointTemperature","HourlyDryBulbTemperature","HourlyPrecipitation","HourlyPresentWeatherType","HourlyPressureChange","HourlyPressureTendency","HourlyRelativeHumidity","HourlySeaLevelPressure","HourlySkyConditions","HourlyStationPressure","HourlyVisibility","HourlyWetBulbTemperature","HourlyWindDirection","HourlyWindGustSpeed","HourlyWindSpeed","MonthlyAverageRH","MonthlyDaysWithGT001Precip","MonthlyDaysWithGT010Precip","MonthlyDaysWithGT32Temp","MonthlyDaysWithGT90Temp","MonthlyDaysWithLT0Temp","MonthlyDaysWithLT32Temp","MonthlyDepartureFromNormalAverageTemperature","MonthlyDepartureFromNormalCoolingDegreeDays","MonthlyDepartureFromNormalHeatingDegreeDays","MonthlyDepartureFromNormalMaximumTemperature","MonthlyDepartureFromNormalMinimumTemperature","MonthlyDepartureFromNormalPrecipitation","MonthlyDewpointTemperature","MonthlyGreatestPrecip","MonthlyGreatestPrecipDate","MonthlyGreatestSnowDepth","MonthlyGreatestSnowDepthDate","MonthlyGreatestSnowfall","MonthlyGreatestSnowfallDate","MonthlyMaxSeaLevelPressureValue","MonthlyMaxSeaLevelPressureValueDate","MonthlyMaxSeaLevelPressureValueTime","MonthlyMaximumTemperature","MonthlyMeanTemperature","MonthlyMinSeaLevelPressureValue","MonthlyMinSeaLevelPressureValueDate","MonthlyMinSeaLevelPressureValueTime","MonthlyMinimumTemperature","MonthlySeaLevelPressure","MonthlyStationPressure","MonthlyTotalLiquidPrecipitation","MonthlyTotalSnowfall","MonthlyWetBulb","NormalsCoolingDegreeDay","NormalsHeatingDegreeDay","REM","REPORT_TYPE","SOURCE","ShortDurationEndDate005","ShortDurationEndDate010","ShortDurationEndDate015","ShortDurationEndDate020","ShortDurationEndDate030","ShortDurationEndDate045","ShortDurationEndDate060","ShortDurationEndDate080","ShortDurationEndDate100","ShortDurationEndDate120","ShortDurationEndDate150","ShortDurationEndDate180","ShortDurationPrecipitationValue005","ShortDurationPrecipitationValue010","ShortDurationPrecipitationValue015","ShortDurationPrecipitationValue020","ShortDurationPrecipitationValue030","ShortDurationPrecipitationValue045","ShortDurationPrecipitationValue060","ShortDurationPrecipitationValue080","ShortDurationPrecipitationValue100","ShortDurationPrecipitationValue120","ShortDurationPrecipitationValue150","ShortDurationPrecipitationValue180","Sunrise","Sunset","TStorms","WindEquipmentChangeDate"
"70362125516","2020-01-01T00:01:00","FM-16","7",,,,,,,,,,,,,,,,,,,,,,,,,,,,,,,,,,,,,,"28.98","5","10","T","-SN:03 |SN |",,,"80",,"BKN:07 15 OVC:08 24","28.95","1.00","9","190","25","14",,,,,,,,,,,,,,,,,,,,,,,,,,,,,,,,,,,,,"MET11201/01/20 00:01:02 SPECI PASO 010901Z 19012G22KT 1SM -SN BKN015 OVC024 M12/M15 A2898 RMK AO2 P0000 T11221150 TSNO","FM-16","7",,,,,,,,,,,,,,,,,,,,,,,,,,,,"2005-10-30"
"70362125516","2020-01-01T00:07:00","FM-16","7",,,,,,,,,,,,,,,,,,,,,,,,,,,,,,,,,,,,,,"28.99","5","10","T","-SN:03 |SN |",,,"80",,"VV:09 14","28.96","0.75","9","VRB","25","10",,,,,,,,,,,,,,,,,,,,,,,,,,,,,,,,,,,,,"MET10601/01/20 00:07:02 SPECI PASO 010907Z 20009G22KT 3/4SM -SN VV014 M12/M15 A2899 RMK AO2 P0000 T11221150 TSNO","FM-16","7",,,,,,,,,,,,,,,,,,,,,,,,,,,,"2005-10-30"
"70362125516","2020-01-01T00:14:00","FM-16","7",,,,,,,,,,,,,,,,,,,,,,,,,,,,,,,,,,,,,,"28.99","5","10","T","-SN:03 |SN |",,,"80",,"BKN:07 15 OVC:08 23","28.96","1.00","9","190","21","10",,,,,,,,,,,,,,,,,,,,,,,,,,,,,,,,,,,,,"MET11201/01/20 00:14:02 SPECI PASO 010914Z 19009G18KT 1SM -SN BKN015 OVC023 M12/M15 A2899 RMK AO2 P0000 T11221150 TSNO","FM-16","7",,,,,,,,,,,,,,,,,,,,,,,,,,,,"2005-10-30"
"70362125516","2020-01-01T00:38:00","FM-16","7",,,,,,,,,,,,,,,,,,,,,,,,,,,,,,,,,,,,,,"29.00","3","9","T","-SN:03 |SN |",,,"77",,"BKN:07 15 OVC:08 23","28.97","0.75","8","VRB","25","10",,,,,,,,,,,,,,,,,,,,,,,,,,,,,,,,,,,,,"MET11401/01/20 00:38:02 SPECI PASO 010938Z 20009G22KT 3/4SM -SN BKN015 OVC023 M13/M16 A2900 RMK AO2 P0000 T11281161 TSNO","FM-16","7",,,,,,,,,,,,,,,,,,,,,,,,,,,,"2005-10-30"
"70362125516","2020-01-01T00:46:00","FM-16","7",,,,,,,,,,,,,,,,,,,,,,,,,,,,,,,,,,,,,,"29.00","5","9","T","-SN:03 BR:1 |SN |",,,"84",,"BKN:07 13 OVC:08 22","28.97","0.75","8","190","22","10",,,,,,,,,,,,,,,,,,,,,,,,,,,,,,,,,,,,,"MET11701/01/20 00:46:02 SPECI PASO 010946Z 19009G19KT 3/4SM -SN BR BKN013 OVC022 M13/M15 A2900 RMK AO2 P0000 T11281150 TSNO","FM-16","7",,,,,,,,,,,,,,,,,,,,,,,,,,,,"2005-10-30"
"70362125516","2020-01-01T00:51:00","FM-16","6",,,,,,,,,,,,,,,,,,,,,,,,,,,,,,,,,,,,,,"29.00","3","9",,"-SN:03 |SN |",,,"78",,"BKN:07 13 OVC:08 22","28.97","1.00","8","180","22","11",,,,,,,,,,,,,,,,,,,,,,,,,,,,,,,,,,,,,"MET10701/01/20 00:51:02 SPECI PASO 010951Z 18010G19KT 1SM -SN BKN013 OVC022 M13/M16 A2900 RMK AO2 P0000 TSNO FIBI","FM-16","6",,,,,,,,,,,,,,,,,,,,,,,,,,,,"2005-10-30"
"70362125516","2020-01-01T00:53:00","FM-15","7",,,,,,,,,,,,,,,,,,,,,,,,,,,,,,,,,,,,,,"29.00","3","9","T","-SN:03 |SN |",,,"77","29.00","BKN:07 13 OVC:08 22","28.97","1.00","8","190","26","16",,,,,,,,,,,,,,,,,,,,,,,,,,,,,,,,,,,,,"MET11901/01/20 00:53:02 METAR PASO 010953Z 19014G23KT 1SM -SN BKN013 OVC022 M13/M16 A2900 RMK AO2 SLP821 P0000 T11281161 TSNO","FM-15","7",,,,,,,,,,,,,,,,,,,,,,,,,,,,"2005-10-30"
"70362125516","2020-01-01T01:02:00","FM-16","7",,,,,,,,,,,,,,,,,,,,,,,,,,,,,,,,,,,,,,"29.01","4","9","T","-SN:03 |SN |",,,"80",,"BKN:07 12 OVC:08 20","28.98","0.75","8","190","26","9",,,,,,,,,,,,,,,,,,,,,,,,,,,,,,,,,,,,,"MET11401/01/20 01:02:02 SPECI PASO 011002Z 19008G23KT 3/4SM -SN BKN012 OVC020 M13/M16 A2901 RMK AO2 P0000 T11281156 TSNO","FM-16","7",,,,,,,,,,,,,,,,,,,,,,,,,,,,"2005-10-30"
"70362125516","2020-01-01T01:11:00","FM-16","7",,,,,,,,,,,,,,,,,,,,,,,,,,,,,,,,,,,,,,"29.01","2","8","T","-SN:03 |SN |",,,"76",,"BKN:07 16 OVC:08 23","28.98","1.50","7","VRB","22","9",,,,,,,,,,,,,,,,,,,,,,,,,,,,,,,,,,,,,"MET11601/01/20 01:11:02 SPECI PASO 011011Z 21008G19KT 1 1/2SM -SN BKN016 OVC023 M13/M17 A2901 RMK AO2 P0000 T11331167 TSNO","FM-16","7",,,,,,,,,,,,,,,,,,,,,,,,,,,,"2005-10-30"
"70362125516","2020-01-01T01:49:00","FM-16","7",,,,,,,,,,,,,,,,,,,,,,,,,,,,,,,,,,,,,,"29.02","1","9","T","-SN:03 |SN |",,,"72",,"BKN:07 17 OVC:08 23","28.99","0.75","7","VRB","26","6",,,,,,,,,,,,,,,,,,,,,,,,,,,,,,,,,,,,,"MET10401/01/20 01:49:02 SPECI PASO 011049Z VRB05G23KT 3/4SM -SN BKN017 OVC023 M13/M17 A2902 RMK AO2 P0000 TSNO","FM-16","7",,,,,,,,,,,,,,,,,,,,,,,,,,,,"2005-10-30"
"70362125516","2020-01-01T01:53:00","FM-15","7",,,,,,,,,,,,,,,,,,,,,,,,,,,,,,,,,,,,,,"29.02","2","8","T","-SN:03 |SN |",,,"76","29.02","BKN:07 17 OVC:08 23","28.99","1.00","7","VRB","23","8",,,,,,,,,,,,,,,,,,,,,,,,,,,,,,,,,,,,,"MET11901/01/20 01:53:02 METAR PASO 011053Z 21007G20KT 1SM -SN BKN017 OVC023 M13/M17 A2902 RMK AO2 SLP826 P0000 T11331167 TSNO","FM-15","7",,,,,,,,,,,,,,,,,,,,,,,,,,,,"2005-10-30"
"70362125516","2020-01-01T02:04:00","FM-16","7",,,,,,,,,,,,,,,,,,,,,,,,,,,,,,,,,,,,,,"29.02","3","8","T","-SN:03 |SN |",,,"80",,"VV:09 14","28.99","0.75","7","200","23","15",,,,,,,,,,,,,,,,,,,,,,,,,,,,,,,,,,,,,"MET10601/01/20 02:04:02 SPECI PASO 011104Z 20013G20KT 3/4SM -SN VV014 M13/M16 A2902 RMK AO2 P0000 T11331161 TSNO","FM-16","7",,,,,,,,,,,,,,,,,,,,,,,,,,,,"2005-10-30"
"70362125516","2020-01-01T02:53:00","FM-15","7",,,,,,,,,,,,,,,,,,,,,,,,,,,,,,,,,,,,,,"29.03","2","7","T","-SN:03 |SN |","-0.03","2","80","29.03","VV:09 12","29.00","0.75","6","VRB","38","16",,,,,,,,,,,,,,,,,,,,,,,,,,,,,,,,,,,,,"MET16101/01/20 02:53:02 METAR PASO 011153Z 19014G33KT 3/4SM -SN VV012 M14/M17 A2903 RMK AO2 PK WND 19033/1146 SLP832 P0000 60000 70075 T11391167 11100 21139 52010 TSNO","FM-15","7",,,,,,,,,,,,,,,,,,,,,,,,,,,,"2005-10-30"
"70362125516","2020-01-01T03:38:00","FM-16","7",,,,,,,,,,,,,,,,,,,,,,,,,,,,,,,,,,,,,,"29.03","2","7","T","+SN:03 s |SN s |",,,"80",,"VV:09 8","29.00","0.25s","6","200","34","23",,,,,,,,,,,,,,,,,,,,,,,,,,,,,,,,,,,,,"MET12401/01/20 03:38:02 SPECI PASO 011238Z 20020G30KT 1/4SM +SN VV008 M14/M17 A2903 RMK AO2 PK WND 21030/1238 P0000 T11391167 TSNO","FM-16","7",,,,,,,,,,,,,,,,,,,,,,,,,,,,"2005-10-30"
"70362125516","2020-01-01T03:53:00","FM-15","4",,,,,,,,,,,,,,,,,,,,,,,,,,,,,,,,,,,,,,"29.03","3","7","T","|FG SN |",,,"84","29.03","7",,"0.25",,"VRB","29","16",,,,,,,,,,,,,,,,,,,,,,,,,,,,,,,,,,,,,"MET131METAR PASO 011253Z AUTO 20014G25KT 160V230 1/4SM SN FZFG VV007 M14/M16 A2903 RMK AO2 PK WND 21030/1238 SLP832 P0000 T11391161 TSNO=","FM-15","4",,,,,,,,,,,,,,,,,,,,,,,,,,,,"2005-10-30"
"70362125516","2020-01-01T04:10:00","FM-16","7",,,,,,,,,,,,,,,,,,,,,,,,,,,,,,,,,,,,,,"29.04","3","7","T","SN:03 FZ:8 FG:2 |FG SN |",,,"84",,"VV:09 7","29.01","0.50","6","VRB","21","10",,,,,,,,,,,,,,,,,,,,,,,,,,,,,,,,,,,,,"MET11001/01/20 04:10:02 SPECI PASO 011310Z 19009G18KT 1/2SM SN FZFG VV007 M14/M16 A2904 RMK AO2 P0000 T11391161 TSNO","FM-16","7",,,,,,,,,,,,,,,,,,,,,,,,,,,,"2005-10-30"
"70362125516","2020-01-01T04:53:00","FM-15","7",,,,,,,,,,,,,,,,,,,,,,,,,,,,,,,,,,,,,,"29.06","2","7","T","SN:03 s |SN s |s",,,"80","29.06","VV:09 9","29.03","0.50s","6","200","24","14",,,,,,,,,,,,,,,,,,,,,,,,,,,,,,,,,,,,,"MET11201/01/20 04:53:02 METAR PASO 011353Z 20012G21KT 1/2SM SN VV009 M14/M17 A2906 RMK AO2 SLP840 P0000 T11391167 TSNO","FM-15","7",,,,,,,,,,,,,,,,,,,,,,,,,,,,"2005-10-30"
"70362125516","2020-01-01T05:01:00","FM-16","7",,,,,,,,,,,,,,,,,,,,,,,,,,,,,,,,,,,,,,"29.06","1","7","T","-SN:03 |SN |",,,"76",,"VV:09 11","29.03","0.75","6","190","25","11",,,,,,,,,,,,,,,,,,,,,,,,,,,,,,,,,,,,,"MET10601/01/20 05:01:02 SPECI PASO 011401Z 19010G22KT 3/4SM -SN VV011 M14/M17 A2906 RMK AO2 P0000 T11391172 TSNO","FM-16","7",,,,,,,,,,,,,,,,,,,,,,,,,,,,"2005-10-30"
"70362125516","2020-01-01T05:21:00","FM-16","7",,,,,,,,,,,,,,,,,,,,,,,,,,,,,,,,,,,,,,"29.06","1","6","T","-SN:03 |SN |",,,"79",,"VV:09 15","29.03","1.00","5","VRB","20","7",,,,,,,,,,,,,,,,,,,,,,,,,,,,,,,,,,,,,"MET10401/01/20 05:21:02 SPECI PASO 011421Z VRB06G17KT 1SM -SN VV015 M14/M17 A2906 RMK AO2 P0000 T11441172 TSNO","FM-16","7",,,,,,,,,,,,,,,,,,,,,,,,,,,,"2005-10-30"
"70362125516","2020-01-01T05:53:00","FM-15","4",,,,,,,,,,,,,,,,,,,,,,,,,,,,,,,,,,,,,,"29.07","0","6","T","|SN |","0.04","9","76","29.07",,,"1.50",,"190","18","9",,,,,,,,,,,,,,,,,,,,,,,,,,,,,,,,,,,,,"MET123METAR PASO 011453Z AUTO 19008G16KT 1 1/2SM -SN BKN019 OVC025 M14/M18 A2907 RMK AO2 SLP844 P0000 60000 T11441178 51012 TSNO=","FM-15","4",,,,,,,,,,,,,,,,,,,,,,,,,,,,"2005-10-30"
"70362125516","2020-01-01T06:53:00","FM-15","7",,,,,,,,,,,,,,,,,,,,,,,,,,,,,,,,,,,,,,"29.09","0","6","T","-SN:03 |SN |",,,"76","29.09","OVC:08 21","29.06","1.25","5","190","21","10",,,,,,,,,,,,,,,,,,,,,,,,,,,,,,,,,,,,,"MET11601/01/20 06:53:02 METAR PASO 011553Z 19009G18KT 1 1/4SM -SN OVC021 M14/M18 A2909 RMK AO2 SLP852 P0000 T11441178 TSNO","FM-15","7",,,,,,,,,,,,,,,,,,,,,,,,,,,,"2005-10-30"
"70362125516","2020-01-01T07:53:00","FM-15","7",,,,,,,,,,,,,,,,,,,,,,,,,,,,,,,,,,,,,,"29.11","0","6","T","-SN:03 |SN |",,,"76","29.11","OVC:08 17","29.08","1.25","5","VRB","20","11",,,,,,,,,,,,,,,,,,,,,,,,,,,,,,,,,,,,,"MET11601/01/20 07:53:02 METAR PASO 011653Z 20010G17KT 1 1/4SM -SN OVC017 M14/M18 A2911 RMK AO2 SLP858 P0000 T11441178 TSNO","FM-15","7",,,,,,,,,,,,,,,,,,,,,,,,,,,,"2005-10-30"
"70362125516","2020-01-01T08:06:00","FM-16","7",,,,,,,,,,,,,,,,,,,,,,,,,,,,,,,,,,,,,,"29.12","0","6","T","-SN:03 |SN |",,,"76",,"VV:09 15","29.09","0.75","5","190","24","10",,,,,,,,,,,,,,,,,,,,,,,,,,,,,,,,,,,,,"MET10601/01/20 08:06:02 SPECI PASO 011706Z 19009G21KT 3/4SM -SN VV015 M14/M18 A2912 RMK AO2 P0000 T11441178 TSNO","FM-16","7",,,,,,,,,,,,,,,,,,,,,,,,,,,,"2005-10-30"
"70362125516","2020-01-01T08:28:00","FM-16","7",,,,,,,,,,,,,,,,,,,,,,,,,,,,,,,,,,,,,,"29.13","0","6","T","-SN:03 |SN |",,,"76",,"VV:09 14","29.10","0.75","5","VRB","23","9",,,,,,,,,,,,,,,,,,,,,,,,,,,,,,,,,,,,,"MET10601/01/20 08:28:02 SPECI PASO 011728Z 19008G20KT 3/4SM -SN VV014 M14/M18 A2913 RMK AO2 P0000 T11441178 TSNO","FM-16","7",,,,,,,,,,,,,,,,,,,,,,,,,,,,"2005-10-30"
"70362125516","2020-01-01T08:53:00","FM-15","7",,,,,,,,,,,,,,,,,,,,,,,,,,,,,,,,,,,,,,"29.14","1","6","T","-SN:03 |SN |","-0.05","1","79","29.14","VV:09 13","29.11","0.75","5","VRB","22","13",,,,,,,,,,,,,,,,,,,,,,,,,,,,,,,,,,,,,"MET13701/01/20 08:53:02 METAR PASO 011753Z 21011G19KT 3/4SM -SN VV013 M14/M17 A2914 RMK AO2 SLP869 P0000 60000 T11441172 11139 21144 51017 TSNO","FM-15","7",,,,,,,,,,,,,,,,,,,,,,,,,,,,"2005-10-30"
"70362125516","2020-01-01T09:53:00","FM-15","7",,,,,,,,,,,,,,,,,,,,,,,,,,,,,,,,,,,,,,"29.18","1","6","0.00","HZ:7 |FU |HZ",,,"79","29.18","VV:09 12","29.15","0.75","5","200",,"10",,,,,,,,,,,,,,,,,,,,,,,,,,,,,,,,,,,,,"MET13001/01/20 09:53:02 METAR PASO 011853Z 20009KT 3/4SM HZ VV012 M14/M17 A2918 RMK AO2 SNEMM SLP881 P0000 T11441172 PWINO FZRANO TSNO $","FM-15","7",,,,,,,,,,,,,,,,,,,,,,,,,,,,"2005-10-30"
"70362125516","2020-01-01T10:41:00","FM-16","7",,,,,,,,,,,,,,,,,,,,,,,,,,,,,,,,,,,,,,"29.20","0","5",,"HZ:7 |FU |HZ",,,"79",,"VV:09 12","29.17","1.00","4","210",,"8",,,,,,,,,,,,,,,,,,,,,,,,,,,,,,,,,,,,,"MET10901/01/20 10:41:02 SPECI PASO 011941Z 21007KT 1SM HZ VV012 M15/M18 A2920 RMK AO2 T11501178 PWINO FZRANO TSNO $","FM-16","7",,,,,,,,,,,,,,,,,,,,,,,,,,,,"2005-10-30"
"70362125516","2020-01-01T10:51:00","FM-16","6",,,,,,,,,,,,,,,,,,,,,,,,,,,,,,,,,,,,,,"29.21","0","5",,"HZ:7 ||HZ",,,"78",,"VV:09 12","29.18","0.75","4","180","20","10",,,,,,,,,,,,,,,,,,,,,,,,,,,,,,,,,,,,,"MET10901/01/20 10:51:02 SPECI PASO 011951Z 18009G17KT 3/4SM HZ VV012 M15/M18 A2921 RMK AO2 PWINO FZRANO TSNO $ FIBI","FM-16","6",,,,,,,,,,,,,,,,,,,,,,,,,,,,"2005-10-30"
"70362125516","2020-01-01T10:53:00","FM-15","7",,,,,,,,,,,,,,,,,,,,,,,,,,,,,,,,,,,,,,"29.21","-1","5","0.00","HZ:7 |FU |HZ",,,"76","29.21","VV:09 12","29.18","0.75","4","VRB","20","9",,,,,,,,,,,,,,,,,,,,,,,,,,,,,,,,,,,,,"MET12101/01/20 10:53:02 METAR PASO 011953Z 19008G17KT 3/4SM HZ VV012 M15/M18 A2921 RMK AO2 SLP892 T11501183 PWINO FZRANO TSNO $","FM-15","7",,,,,,,,,,,,,,,,,,,,,,,,,,,,"2005-10-30"
"70362125516","2020-01-01T11:53:00","FM-15","7",,,,,,,,,,,,,,,,,,,,,,,,,,,,,,,,,,,,,,"29.24","1","6","0.00","HZ:7 s |FU |HZ s","-0.09","1","79","29.24","VV:09 12","29.21","0.50s","5","190",,"9",,,,,,,,,,,,,,,,,,,,,,,,,,,,,,,,,,,,,"MET13001/01/20 11:53:02 METAR PASO 012053Z 19008KT 1/2SM HZ VV012 M14/M17 A2924 RMK AO2 SLP901 60000 T11441172 51032 PWINO FZRANO TSNO $","FM-15","7",,,,,,,,,,,,,,,,,,,,,,,,,,,,"2005-10-30"
"70362125516","2020-01-01T12:28:00","FM-16","7",,,,,,,,,,,,,,,,,,,,,,,,,,,,,,,,,,,,,,"29.26","2","6",,"FZ:8 FG:2 |FG |",,,"83",,"VV:09 11","29.23","0.25","5","180","22","11",,,,,,,,,,,,,,,,,,,,,,,,,,,,,,,,,,,,,"MET13401/01/20 12:28:02 SPECI PASO 012128Z 18010G19KT 1/4SM FZFG VV011 M14/M17 A2926 RMK AO2 PK WND 19026/2056 T11441167 PWINO FZRANO TSNO $","FM-16","7",,,,,,,,,,,,,,,,,,,,,,,,,,,,"2005-10-30"
"70362125516","2020-01-01T12:53:00","FM-15","7",,,,,,,,,,,,,,,,,,,,,,,,,,,,,,,,,,,,,,"29.27","1","6","0.00","HZ:7 s |FU |HZ s",,,"79","29.27","VV:09 10","29.24","0.25s","5","VRB","23","10",,,,,,,,,,,,,,,,,,,,,,,,,,,,,,,,,,,,,"MET13901/01/20 12:53:02 METAR PASO 012153Z 19009G20KT 1/4SM HZ VV010 M14/M17 A2927 RMK AO2 PK WND 19026/2056 SLP912 T11441172 PWINO FZRANO TSNO $","FM-15","7",,,,,,,,,,,,,,,,,,,,,,,,,,,,"2005-10-30"
"70362125516","2020-01-01T13:13:00","FM-16","7",,,,,,,,,,,,,,,,,,,,,,,,,,,,,,,,,,,,,,"29.28","2","6",,"FZ:8 FG:2 |FG |",,,"83",,"VV:09 9","29.25","0.25","5","VRB",,"6",,,,,,,,,,,,,,,,,,,,,,,,,,,,,,,,,,,,,"MET11301/01/20 13:13:02 SPECI PASO 012213Z VRB05KT 1/4SM FZFG VV009 M14/M17 A2928 RMK AO2 T11441167 PWINO FZRANO TSNO $","FM-16","7",,,,,,,,,,,,,,,,,,,,,,,,,,,,"2005-10-30"
"70362125516","2020-01-01T13:51:00","FM-16","6",,,,,,,,,,,,,,,,,,,,,,,,,,,,,,,,,,,,,,"29.30","1","7",,"HZ:7 s ||HZ s",,,"78",,"VV:09 10","29.27","0.25s","6","200","24","15",,,,,,,,,,,,,,,,,,,,,,,,,,,,,,,,,,,,,"MET10901/01/20 13:51:02 SPECI PASO 012251Z 20013G21KT 1/4SM HZ VV010 M14/M17 A2930 RMK AO2 PWINO FZRANO TSNO $ FIBI","FM-16","6",,,,,,,,,,,,,,,,,,,,,,,,,,,,"2005-10-30"
"70362125516","2020-01-01T13:53:00","FM-15","7",,,,,,,,,,,,,,,,,,,,,,,,,,,,,,,,,,,,,,"29.30","0","6","0.00","HZ:7 s |FU |HZ s",,,"76","29.30","VV:09 10","29.27","0.25s","5","210","24","10",,,,,,,,,,,,,,,,,,,,,,,,,,,,,,,,,,,,,"MET12101/01/20 13:53:02 METAR PASO 012253Z 21009G21KT 1/4SM HZ VV010 M14/M18 A2930 RMK AO2 SLP922 T11441178 PWINO FZRANO TSNO $","FM-15","7",,,,,,,,,,,,,,,,,,,,,,,,,,,,"2005-10-30"
"70362125516","2020-01-01T14:36:00","FM-16","7",,,,,,,,,,,,,,,,,,,,,,,,,,,,,,,,,,,,,,"29.31","1","6",,"HZ:7 s |FU |HZ s",,,"79",,"VV:09 11","29.28","0.50s","5","VRB","17","11",,,,,,,,,,,,,,,,,,,,,,,,,,,,,,,,,,,,,"MET11401/01/20 14:36:02 SPECI PASO 012336Z 20010G15KT 1/2SM HZ VV011 M14/M17 A2931 RMK AO2 T11441172 PWINO FZRANO TSNO $","FM-16","7",,,,,,,,,,,,,,,,,,,,,,,,,,,,"2005-10-30"
"70362125516","2020-01-01T14:53:00","FM-15","7",,,,,,,,,,,,,,,,,,,,,,,,,,,,,,,,,,,,,,"29.32","0","6","0.00","HZ:7 s |FU |HZ s","-0.08","1","76","29.32","VV:09 14","29.29","0.50s","5","190","21","10",,,,,,,,,,,,,,,,,,,,,,,,,,,,,,,,,,,,,"MET14501/01/20 14:53:02 METAR PASO 012353Z 19009G18KT 1/2SM HZ VV014 M14/M18 A2932 RMK AO2 SLP930 60000 T11441178 11144 21150 51028 PWINO FZRANO TSNO $","FM-15","7",,,,,,,,,,,,,,,,,,,,,,,,,,,,"2005-10-30"
"70362125516","2020-01-01T15:14:00","FM-16","7",,,,,,,,,,,,,,,,,,,,,,,,,,,,,,,,,,,,,,"29.33","0","6",,"HZ:7 |FU |HZ",,,"76",,"VV:09 16","29.30","1.00","5","170","17","11",,,,,,,,,,,,,,,,,,,,,,,,,,,,,,,,,,,,,"MET11201/01/20 15:14:01 SPECI PASO 020014Z 17010G15KT 1SM HZ VV016 M14/M18 A2933 RMK AO2 T11441178 PWINO FZRANO TSNO $","FM-16","7",,,,,,,,,,,,,,,,,,,,,,,,,,,,"2005-10-30"
"70362125516","2020-01-01T15:25:00","FM-16","7",,,,,,,,,,,,,,,,,,,,,,,,,,,,,,,,,,,,,,"29.34","0","6",,"HZ:7 s |FU |HZ s",,,"76",,"VV:09 15","29.31","0.50s","5","200","21","8",,,,,,,,,,,,,,,,,,,,,,,,,,,,,,,,,,,,,"MET11401/01/20 15:25:01 SPECI PASO 020025Z 20007G18KT 1/2SM HZ VV015 M14/M18 A2934 RMK AO2 T11441178 PWINO FZRANO TSNO $","FM-16","7",,,,,,,,,,,,,,,,,,,,,,,,,,,,"2005-10-30"
"70362125516","2020-01-01T15:50:00","FM-16","7",,,,,,,,,,,,,,,,,,,,,,,,,,,,,,,,,,,,,,"29.34","0","7",,"HZ:7 |FU |HZ",,,"72",,"VV:09 14","29.31","0.75","6","VRB","20","13",,,,,,,,,,,,,,,,,,,,,,,,,,,,,,,,,,,,,"MET10401/01/20 15:50:01 SPECI PASO 020050Z 20011G17KT 3/4SM HZ VV014 M14/M18 A2934 RMK AO2 PWINO FZRANO TSNO $","FM-16","7",,,,,,,,,,,,,,,,,,,,,,,,,,,,"2005-10-30"
"70362125516","2020-01-01T15:53:00","FM-15","7",,,,,,,,,,,,,,,,,,,,,,,,,,,,,,,,,,,,,,"29.34","0","6","0.00","HZ:7 |FU |HZ",,,"76","29.34","VV:09 14","29.31","1.00","5","VRB","20","10",,,,,,,,,,,,,,,,,,,,,,,,,,,,,,,,,,,,,"MET11901/01/20 15:53:01 METAR PASO 020053Z 19009G17KT 1SM HZ VV014 M14/M18 A2934 RMK AO2 SLP936 T11441178 PWINO FZRANO TSNO $","FM-15","7",,,,,,,,,,,,,,,,,,,,,,,,,,,,"2005-10-30"
"70362125516","2020-01-01T16:04:00","FM-16","7",,,,,,,,,,,,,,,,,,,,,,,,,,,,,,,,,,,,,,"29.35","0","6",,"HZ:7 |FU |HZ",,,"76",,"OVC:08 15","29.32","1.50","5","200","21","10",,,,,,,,,,,,,,,,,,,,,,,,,,,,,,,,,,,,,"MET11701/01/20 16:04:01 SPECI PASO 020104Z 20009G18KT 1 1/2SM HZ OVC015 M14/M18 A2935 RMK AO2 T11441178 PWINO FZRANO TSNO $","FM-16","7",,,,,,,,,,,,,,,,,,,,,,,,,,,,"2005-10-30"
"70362125516","2020-01-01T16:53:00","FM-15","7",,,,,,,,,,,,,,,,,,,,,,,,,,,,,,,,,,,,,,"29.37","0","6","0.00","HZ:7 |FU |HZ",,,"76","29.37","OVC:08 17","29.34","1.50","5","180",,"8",,,,,,,,,,,,,,,,,,,,,,,,,,,,,,,,,,,,,"MET12101/01/20 16:53:01 METAR PASO 020153Z 18007KT 1 1/2SM HZ OVC017 M14/M18 A2937 RMK AO2 SLP945 T11441178 PWINO FZRANO TSNO $","FM-15","7",,,,,,,,,,,,,,,,,,,,,,,,,,,,"2005-10-30"
"70362125516","2020-01-01T17:28:00","FM-16","7",,,,,,,,,,,,,,,,,,,,,,,,,,,,,,,,,,,,,,"29.38","0","6",,"HZ:7 |FU |HZ",,,"76",,"BKN:07 19 OVC:08 24","29.35","2.00","5","180",,"8",,,,,,,,,,,,,,,,,,,,,,,,,,,,,,,,,,,,,"MET11701/01/20 17:28:01 SPECI PASO 020228Z 18007KT 2SM HZ BKN019 OVC024 M14/M18 A2938 RMK AO2 T11441178 PWINO FZRANO TSNO $","FM-16","7",,,,,,,,,,,,,,,,,,,,,,,,,,,,"2005-10-30"
"70362125516","2020-01-01T17:39:00","FM-16","7",,,,,,,,,,,,,,,,,,,,,,,,,,,,,,,,,,,,,,"29.38","-1","6",,"HZ:7 |FU |HZ",,,"73",,"BKN:07 19 OVC:08 27","29.35","1.50","5","180",,"9",,,,,,,,,,,,,,,,,,,,,,,,,,,,,,,,,,,,,"MET12101/01/20 17:39:01 SPECI PASO 020239Z 18008KT 1 1/2SM HZ BKN019 OVC027 M14/M18 A2938 RMK AO2 T11441183 PWINO FZRANO TSNO $","FM-16","7",,,,,,,,,,,,,,,,,,,,,,,,,,,,"2005-10-30"
"70362125516","2020-01-01T17:53:00","FM-15","7",,,,,,,,,,,,,,,,,,,,,,,,,,,,,,,,,,,,,,"29.39","-1","6","0.00","HZ:7 |FU |HZ","-0.04","3","73","29.39","OVC:08 18","29.36","1.50","5","180",,"11",,,,,,,,,,,,,,,,,,,,,,,,,,,,,,,,,,,,,"MET12701/01/20 17:53:01 METAR PASO 020253Z 18010KT 1 1/2SM HZ OVC018 M14/M18 A2939 RMK AO2 SLP951 T11441183 53015 PWINO FZRANO TSNO $","FM-15","7",,,,,,,,,,,,,,,,,,,,,,,,,,,,"2005-10-30"
"70362125516","2020-01-01T18:05:00","FM-16","7",,,,,,,,,,,,,,,,,,,,,,,,,,,,,,,,,,,,,,"29.39","-1","6",,"HZ:7 |FU |HZ",,,"73",,"OVC:08 18","29.36","2.00","5","190",,"8",,,,,,,,,,,,,,,,,,,,,,,,,,,,,,,,,,,,,"MET11001/01/20 18:05:01 SPECI PASO 020305Z 19007KT 2SM HZ OVC018 M14/M18 A2939 RMK AO2 T11441183 PWINO FZRANO TSNO $","FM-16","7",,,,,,,,,,,,,,,,,,,,,,,,,,,,"2005-10-30"
"70362125516","2020-01-01T18:33:00","FM-16","7",,,,,,,,,,,,,,,,,,,,,,,,,,,,,,,,,,,,,,"29.40","0","6",,"HZ:7 |FU |HZ",,,"76",,"OVC:08 20","29.37","1.25","5","180",,"8",,,,,,,,,,,,,,,,,,,,,,,,,,,,,,,,,,,,,"MET11401/01/20 18:33:01 SPECI PASO 020333Z 18007KT 1 1/4SM HZ OVC020 M14/M18 A2940 RMK AO2 T11441178 PWINO FZRANO TSNO $","FM-16","7",,,,,,,,,,,,,,,,,,,,,,,,,,,,"2005-10-30"
"70362125516","2020-01-01T18:43:00","FM-16","7",,,,,,,,,,,,,,,,,,,,,,,,,,,,,,,,,,,,,,"29.40","-1","6",,"HZ:7 |FU |HZ",,,"73",,"BKN:07 22 OVC:08 37","29.37","3.00","5","VRB",,"7",,,,,,,,,,,,,,,,,,,,,,,,,,,,,,,,,,,,,"MET11701/01/20 18:43:01 SPECI PASO 020343Z VRB06KT 3SM HZ BKN022 OVC037 M14/M18 A2940 RMK AO2 T11441183 PWINO FZRANO TSNO $","FM-16","7",,,,,,,,,,,,,,,,,,,,,,,,,,,,"2005-10-30"
"70362125516","2020-01-01T18:51:00","FM-16","6",,,,,,,,,,,,,,,,,,,,,,,,,,,,,,,,,,,,,,"29.40","0","7",,"HZ:7 ||HZ",,,"72",,"BKN:07 20 OVC:08 35","29.37","2.50","6","180","22","13",,,,,,,,,,,,,,,,,,,,,,,,,,,,,,,,,,,,,"MET11901/01/20 18:51:03 SPECI PASO 020351Z 18011G19KT 2 1/2SM HZ BKN020 OVC035 M14/M18 A2940 RMK AO2 PWINO FZRANO TSNO $ FIBI","FM-16","6",,,,,,,,,,,,,,,,,,,,,,,,,,,,"2005-10-30"
"70362125516","2020-01-01T18:53:00","FM-15","7",,,,,,,,,,,,,,,,,,,,,,,,,,,,,,,,,,,,,,"29.40","-1","6","0.00","HZ:7 |FU |HZ",,,"73","29.40","BKN:07 20 OVC:08 35","29.37","2.50V","5","180","22","14",,,,,,,,,,,,,,,,,,,,,,,,,,,,,,,,,,,,,"MET14301/01/20 18:53:01 METAR PASO 020353Z 18012G19KT 2 1/2SM HZ BKN020 OVC035 M14/M18 A2940 RMK AO2 VIS 1 3/4V3 SLP957 T11441183 PWINO FZRANO TSNO $","FM-15","7",,,,,,,,,,,,,,,,,,,,,,,,,,,,"2005-10-30"
"70362125516","2020-01-01T19:05:00","FM-16","7",,,,,,,,,,,,,,,,,,,,,,,,,,,,,,,,,,,,,,"29.41","0","6",,"HZ:7 |FU |HZ",,,"76",,"OVC:08 20","29.38","1.75","5","200",,"7",,,,,,,,,,,,,,,,,,,,,,,,,,,,,,,,,,,,,"MET11401/01/20 19:05:01 SPECI PASO 020405Z 20006KT 1 3/4SM HZ OVC020 M14/M18 A2941 RMK AO2 T11441178 PWINO FZRANO TSNO $","FM-16","7",,,,,,,,,,,,,,,,,,,,,,,,,,,,"2005-10-30"
"70362125516","2020-01-01T19:13:00","FM-16","7",,,,,,,,,,,,,,,,,,,,,,,,,,,,,,,,,,,,,,"29.41","-1","6",,"HZ:7 |FU |HZ",,,"73",,"OVC:08 20","29.38","2.00","5","180","17","10",,,,,,,,,,,,,,,,,,,,,,,,,,,,,,,,,,,,,"MET11301/01/20 19:13:01 SPECI PASO 020413Z 18009G15KT 2SM HZ OVC020 M14/M18 A2941 RMK AO2 T11441183 PWINO FZRANO TSNO $","FM-16","7",,,,,,,,,,,,,,,,,,,,,,,,,,,,"2005-10-30"
"70362125516","2020-01-01T19:42:00","FM-16","7",,,,,,,,,,,,,,,,,,,,,,,,,,,,,,,,,,,,,,"29.42","-1","6",,"HZ:7 |FU |HZ",,,"73",,"BKN:07 22 OVC:08 33","29.39","3.00","5","180",,"7",,,,,,,,,,,,,,,,,,,,,,,,,,,,,,,,,,,,,"MET11701/01/20 19:42:02 SPECI PASO 020442Z 18006KT 3SM HZ BKN022 OVC033 M14/M18 A2942 RMK AO2 T11441183 PWINO FZRANO TSNO $","FM-16","7",,,,,,,,,,,,,,,,,,,,,,,,,,,,"2005-10-30"
"70362125516","2020-01-01T19:51:00","FM-16","7",,,,,,,,,,,,,,,,,,,,,,,,,,,,,,,,,,,,,,"29.42","0","7",,"HZ:7 |FU |HZ",,,"72",,"BKN:07 20 OVC:08 32","29.39","2.00","6","170",,"6",,,,,,,,,,,,,,,,,,,,,,,,,,,,,,,,,,,,,"MET10701/01/20 19:51:02 SPECI PASO 020451Z 17005KT 2SM HZ BKN020 OVC032 M14/M18 A2942 RMK AO2 PWINO FZRANO TSNO $","FM-16","7",,,,,,,,,,,,,,,,,,,,,,,,,,,,"2005-10-30"
"70362125516","2020-01-01T19:53:00","FM-15","7",,,,,,,,,,,,,,,,,,,,,,,,,,,,,,,,,,,,,,"29.42","0","6","0.00","HZ:7 |FU |HZ",,,"76","29.42","BKN:07 20 OVC:08 30","29.39","2.00","5","180",,"6",,,,,,,,,,,,,,,,,,,,,,,,,,,,,,,,,,,,,"MET12401/01/20 19:53:02 METAR PASO 020453Z 18005KT 2SM HZ BKN020 OVC030 M14/M18 A2942 RMK AO2 SLP963 T11441178 PWINO FZRANO TSNO $","FM-15","7",,,,,,,,,,,,,,,,,,,,,,,,,,,,"2005-10-30"
"70362125516","2020-01-01T20:08:00","FM-16","7",,,,,,,,,,,,,,,,,,,,,,,,,,,,,,,,,,,,,,"29.43","0","6",,"HZ:7 |FU |HZ",,,"76",,"BKN:07 22 OVC:08 30","29.40","4.00","5","180",,"7",,,,,,,,,,,,,,,,,,,,,,,,,,,,,,,,,,,,,"MET11701/01/20 20:08:02 SPECI PASO 020508Z 18006KT 4SM HZ BKN022 OVC030 M14/M18 A2943 RMK AO2 T11441178 PWINO FZRANO TSNO $","FM-16","7",,,,,,,,,,,,,,,,,,,,,,,,,,,,"2005-10-30"
"70362125516","2020-01-01T20:53:00","FM-15","7",,,,,,,,,,,,,,,,,,,,,,,,,,,,,,,,,,,,,,"29.44","0","6","0.00","HZ:7 |FU |HZ","-0.03","3","76","29.44","OVC:08 29","29.41","4.00","5","160",,"3",,,,,,,,,,,,,,,,,,,,,,,,,,,,,,,,,,,,,"MET13501/01/20 20:53:02 METAR PASO 020553Z 16003KT 4SM HZ OVC029 M14/M18 A2944 RMK AO2 SLP968 T11441178 11139 21144 53011 PWINO FZRANO TSNO $","FM-15","7",,,,,,,,,,,,,,,,,,,,,,,,,,,,"2005-10-30"
"70362125516","2020-01-01T21:10:00","FM-16","7",,,,,,,,,,,,,,,,,,,,,,,,,,,,,,,,,,,,,,"29.44","1","6",,"HZ:7 |FU |HZ",,,"79",,"BKN:07 27 OVC:08 33","29.41","2.00","5","170",,"6",,,,,,,,,,,,,,,,,,,,,,,,,,,,,,,,,,,,,"MET11701/01/20 21:10:02 SPECI PASO 020610Z 17005KT 2SM HZ BKN027 OVC033 M14/M17 A2944 RMK AO2 T11441172 PWINO FZRANO TSNO $","FM-16","7",,,,,,,,,,,,,,,,,,,,,,,,,,,,"2005-10-30"
"70362125516","2020-01-01T21:26:00","FM-16","7",,,,,,,,,,,,,,,,,,,,,,,,,,,,,,,,,,,,,,"29.45","1","7",,"HZ:7 |FU |HZ",,,"76",,"BKN:07 25 OVC:08 30","29.42","3.00","6","VRB",,"7",,,,,,,,,,,,,,,,,,,,,,,,,,,,,,,,,,,,,"MET11701/01/20 21:26:02 SPECI PASO 020626Z VRB06KT 3SM HZ BKN025 OVC030 M14/M17 A2945 RMK AO2 T11391172 PWINO FZRANO TSNO $","FM-16","7",,,,,,,,,,,,,,,,,,,,,,,,,,,,"2005-10-30"
"70362125516","2020-01-01T21:51:00","FM-16","7",,,,,,,,,,,,,,,,,,,,,,,,,,,,,,,,,,,,,,"29.46","0","7",,"HZ:7 |FU |HZ",,,"72",,"OVC:08 30","29.43","4.00","6","170",,"7",,,,,,,,,,,,,,,,,,,,,,,,,,,,,,,,,,,,,"MET10001/01/20 21:51:02 SPECI PASO 020651Z 17006KT 4SM HZ OVC030 M14/M18 A2946 RMK AO2 PWINO FZRANO TSNO $","FM-16","7",,,,,,,,,,,,,,,,,,,,,,,,,,,,"2005-10-30"
"70362125516","2020-01-01T21:53:00","FM-15","7",,,,,,,,,,,,,,,,,,,,,,,,,,,,,,,,,,,,,,"29.46","0","7","0.00","HZ:7 |FU |HZ",,,"73","29.46","OVC:08 30","29.43","4.00","6","190",,"7",,,,,,,,,,,,,,,,,,,,,,,,,,,,,,,,,,,,,"MET11701/01/20 21:53:02 METAR PASO 020653Z 19006KT 4SM HZ OVC030 M14/M18 A2946 RMK AO2 SLP977 T11391178 PWINO FZRANO TSNO $","FM-15","7",,,,,,,,,,,,,,,,,,,,,,,,,,,,"2005-10-30"
"70362125516","2020-01-01T22:21:00","FM-16","7",,,,,,,,,,,,,,,,,,,,,,,,,,,,,,,,,,,,,,"29.47","0","7",,"HZ:7 |FU |HZ",,,"73",,"OVC:08 29","29.44","4.00","6","180",,"5",,,,,,,,,,,,,,,,,,,,,,,,,,,,,,,,,,,,,"MET11001/01/20 22:21:02 SPECI PASO 020721Z 18004KT 4SM HZ OVC029 M14/M18 A2947 RMK AO2 T11391178 PWINO FZRANO TSNO $","FM-16","7",,,,,,,,,,,,,,,,,,,,,,,,,,,,"2005-10-30"
"70362125516","2020-01-01T22:32:00","FM-16","7",,,,,,,,,,,,,,,,,,,,,,,,,,,,,,,,,,,,,,"29.47","0","7",,"HZ:7 |FU |HZ",,,"73",,"OVC:08 30","29.44","5.00","6","170",,"6",,,,,,,,,,,,,,,,,,,,,,,,,,,,,,,,,,,,,"MET11001/01/20 22:32:02 SPECI PASO 020732Z 17005KT 5SM HZ OVC030 M14/M18 A2947 RMK AO2 T11391178 PWINO FZRANO TSNO $","FM-16","7",,,,,,,,,,,,,,,,,,,,,,,,,,,,"2005-10-30"
"70362125516","2020-01-01T22:53:00","FM-15","7",,,,,,,,,,,,,,,,,,,,,,,,,,,,,,,,,,,,,,"29.48","1","7","0.00","HZ:7 |FU |HZ",,,"76","29.47","BKN:07 22 OVC:08 32","29.45","2.00","6","VRB",,"5",,,,,,,,,,,,,,,,,,,,,,,,,,,,,,,,,,,,,"MET12401/01/20 22:53:02 METAR PASO 020753Z VRB04KT 2SM HZ BKN022 OVC032 M14/M17 A2948 RMK AO2 SLP981 T11391172 PWINO FZRANO TSNO $","FM-15","7",,,,,,,,,,,,,,,,,,,,,,,,,,,,"2005-10-30"
"70362125516","2020-01-01T23:46:00","FM-16","7",,,,,,,,,,,,,,,,,,,,,,,,,,,,,,,,,,,,,,"29.49","2","7",,"HZ:7 |FU |HZ",,,"80",,"BKN:07 23 OVC:08 36","29.46","3.00","6","170",,"6",,,,,,,,,,,,,,,,,,,,,,,,,,,,,,,,,,,,,"MET11701/01/20 23:46:02 SPECI PASO 020846Z 17005KT 3SM HZ BKN023 OVC036 M14/M17 A2949 RMK AO2 T11391167 PWINO FZRANO TSNO $","FM-16","7",,,,,,,,,,,,,,,,,,,,,,,,,,,,"2005-10-30"
"70362125516","2020-01-01T23:53:00","FM-15","7",,,,,,,,,,,,,,,,,,,,,,,,,,,,,,,,,,,,,,"29.50","2","7","0.00","HZ:7 |FU |HZ","-0.04","3","80","29.50","BKN:07 25 OVC:08 37","29.47","3.00","6","180",,"5",,,,,,,,,,,,,,,,,,,,,,,,,,,,,,,,,,,,,"MET14001/01/20 23:53:02 METAR PASO 020853Z 18004KT 3SM HZ BKN025 OVC037 M14/M17 A2950 RMK AO2 SLP989 T11391167 411221150 53013 PWINO FZRANO TSNO $","FM-15","7",,,,,,,,,,,,,,,,,,,,,,,,,,,,"2005-10-30"
"70362125516","2020-01-01T23:59:00","SOD  ","6",,,,,,,,,,,,,,,,"8",,,"29.22",,"9.6","0","-18.4","57","10","5","190","38","T",,,"200","23","SN FZFG BR HZ FG",,,,,,,,,,,,,,,,,,,,,,,,,,,,,,,,,,,,,,,,,,,,,,,,,,,,,,,,"SOD75324 HR PRECIPITATION (IN):T     WEATHER(CODE):2,8  24 HR MAX TEMP (F):10 24 HR MAX TEMP TIME (LST):0033 24 HR MIN TEMP (F):05 24 HR MIN TEMP TIME (LST):1120 AVERAGE STATION PRESSURE(D):29.221 MINIMUM SEA LEVEL PRESSURE:28.98 TIME OF OCCURRENCE:0001 PEAK WIND SPEED (MPH):38  PEAK WIND DIR (DEG):190 PEAK WIND TIME (LST):0246  FASTEST 2MIN SPEED (MPH):23 FASTEST 2MIN DIR (DEG):200 FASTEST 2MIN TIME (LST):0338 AVERAGE WIND SPEED (MPH): 9.6 24 HR AVG TEMP (F):8  HEATING DEGREE DAYS: 57 COOLING DEGREE DAYS:  0 LATEST DAY MAX TEMP (0700-1900 LST): 06 LATEST NIGHT MIN TEMP(1900-0800 LST):06 HOURLY INCREMENTAL PRECIPITATION VALUES (IN):    T    T    T    T    T    T    T    T     0.00 0.00 0.00 0.00 0.00 0.00 0.00 0.00 0.00 0.00 0.00 0.00 0.00 0.00 0.00","SOD  ","6",,,,,,,,,,,,,,,,,,,,,,,,,"1004","1617",,"2005-10-30"
"70362125516","2020-01-02T00:19:00","FM-16","7",,,,,,,,,,,,,,,,,,,,,,,,,,,,,,,,,,,,,,"29.51","1","7",,"HZ:7 |FU |HZ",,,"76",,"OVC:08 19","29.48","2.00","6","180",,"7",,,,,,,,,,,,,,,,,,,,,,,,,,,,,,,,,,,,,"MET11001/02/20 00:19:02 SPECI PASO 020919Z 18006KT 2SM HZ OVC019 M14/M17 A2951 RMK AO2 T11391172 PWINO FZRANO TSNO $","FM-16","7",,,,,,,,,,,,,,,,,,,,,,,,,,,,"2005-10-30"
"70362125516","2020-01-02T00:31:00","FM-16","7",,,,,,,,,,,,,,,,,,,,,,,,,,,,,,,,,,,,,,"29.51","1","7",,,,,"76",,"OVC:08 23","29.48","7.00","6","170",,"8",,,,,,,,,,,,,,,,,,,,,,,,,,,,,,,,,,,,,"MET10701/02/20 00:31:02 SPECI PASO 020931Z 17007KT 7SM OVC023 M14/M17 A2951 RMK AO2 T11391172 PWINO FZRANO TSNO $","FM-16","7",,,,,,,,,,,,,,,,,,,,,,,,,,,,"2005-10-30"
"70362125516","2020-01-02T00:53:00","FM-15","7",,,,,,,,,,,,,,,,,,,,,,,,,,,,,,,,,,,,,,"29.52","0","7","T",,,,"73","29.52","BKN:07 21 OVC:08 32","29.49","7.00","6","150",,"7",,,,,,,,,,,,,,,,,,,,,,,,,,,,,,,,,,,,,"MET12101/02/20 00:53:02 METAR PASO 020953Z 15006KT 7SM BKN021 OVC032 M14/M18 A2952 RMK AO2 SLP996 T11391178 PWINO FZRANO TSNO $","FM-15","7",,,,,,,,,,,,,,,,,,,,,,,,,,,,"2005-10-30"
"70362125516","2020-01-02T01:51:00","FM-16","6",,,,,,,,,,,,,,,,,,,,,,,,,,,,,,,,,,,,,,"29.52","1","7",,"-SN:03 |SN |",,,"78",,"SCT:04 26","29.49","9.00","6","000",,"0",,,,,,,,,,,,,,,,,,,,,,,,,,,,,,,,,,,,,"MET10701/02/20 01:51:02 SPECI PASO 021051Z 00000KT 9SM -SN SCT026 M14/M17 A2952 RMK AO2 SNB0958 P0000 TSNO $ FIBI","FM-16","6",,,,,,,,,,,,,,,,,,,,,,,,,,,,"2005-10-30"
"70362125516","2020-01-02T01:53:00","FM-15","7",,,,,,,,,,,,,,,,,,,,,,,,,,,,,,,,,,,,,,"29.52","1","6","T","-SN:03 |SN |",,,"79","29.52","SCT:04 25","29.49","9.00","5","000",,"0",,,,,,,,,,,,,,,,,,,,,,,,,,,,,,,,,,,,,"MET11901/02/20 01:53:02 METAR PASO 021053Z 00000KT 9SM -SN SCT025 M14/M17 A2952 RMK AO2 SNB0958 SLP997 P0000 T11441172 TSNO $","FM-15","7",,,,,,,,,,,,,,,,,,,,,,,,,,,,"2005-10-30"
"70362125516","2020-01-02T02:53:00","FM-15","7",,,,,,,,,,,,,,,,,,,,,,,,,,,,,,,,,,,,,,"29.54","0","6","T","UP:09 ||","-0.04","1","76","29.54","SCT:04 40 OVC:08 110","29.51","10.00","5","190",,"5",,,,,,,,,,,,,,,,,,,,,,,,,,,,,,,,,,,,,"MET17301/02/20 02:53:02 METAR PASO 021153Z 19004KT 10SM UP SCT040 OVC110 M14/M18 A2954 RMK AO2 UPB1058E1059B32SNE1058B1059E32 SLP003 P0000 60000 T11441178 11139 21150 51014 TSNO $","FM-15","7",,,,,,,,,,,,,,,,,,,,,,,,,,,,"2005-10-30"
"70362125516","2020-01-02T03:53:00","FM-15","7",,,,,,,,,,,,,,,,,,,,,,,,,,,,,,,,,,,,,,"29.54","1","4","T",,,,"88","29.54","FEW:02 37 BKN:07 95","29.51","10.00","3","000",,"0",,,,,,,,,,,,,,,,,,,,,,,,,,,,,,,,,,,,,"MET12101/02/20 03:53:02 METAR PASO 021253Z 00000KT 10SM FEW037 BKN095 M16/M17 A2954 RMK AO2 UPE50 SLP003 P0000 T11561172 TSNO $","FM-15","7",,,,,,,,,,,,,,,,,,,,,,,,,,,,"2005-10-30"
"70362125516","2020-01-02T04:53:00","FM-15","7",,,,,,,,,,,,,,,,,,,,,,,,,,,,,,,,,,,,,,"29.55","1","5","T","UP:09 ||",,,"83","29.54","OVC:08 46","29.52","10.00","4","000",,"0",,,,,,,,,,,,,,,,,,,,,,,,,,,,,,,,,,,,,"MET11701/02/20 04:53:02 METAR PASO 021353Z 00000KT 10SM UP OVC046 M15/M17 A2955 RMK AO2 UPB05 SLP005 P0000 T11501172 TSNO $","FM-15","7",,,,,,,,,,,,,,,,,,,,,,,,,,,,"2005-10-30"
"70362125516","2020-01-02T05:53:00","FM-15","7",,,,,,,,,,,,,,,,,,,,,,,,,,,,,,,,,,,,,,"29.54","-1","3","T",,"-0.01","0","83","29.54","CLR:00","29.51","10.00","2","000",,"0",,,,,,,,,,,,,,,,,,,,,,,,,,,,,,,,,,,,,"MET12301/02/20 05:53:02 METAR PASO 021453Z 00000KT 10SM CLR M16/M18 A2954 RMK AO2 UPE46 SLP005 P0000 60000 T11611183 50002 TSNO $","FM-15","7",,,,,,,,,,,,,,,,,,,,,,,,,,,,"2005-10-30"
"70362125516","2020-01-02T06:53:00","FM-15","7",,,,,,,,,,,,,,,,,,,,,,,,,,,,,,,,,,,,,,"29.55","-3","1","T","UP:09 ||",,,"83","29.55","CLR:00","29.52","10.00","0","000",,"0",,,,,,,,,,,,,,,,,,,,,,,,,,,,,,,,,,,,,"MET11801/02/20 06:53:02 METAR PASO 021553Z 00000KT 10SM UP CLR M17/M19 A2955 RMK AO2 UPB00 SLP007 P0000 I1000 T11721194 TSNO","FM-15","7",,,,,,,,,,,,,,,,,,,,,,,,,,,,"2005-10-30"
"70362125516","2020-01-02T07:53:00","FM-15","7",,,,,,,,,,,,,,,,,,,,,,,,,,,,,,,,,,,,,,"29.56","-3","2","T","UP:09 ||",,,"80","29.56","CLR:00","29.53","9.00","1","180",,"5",,,,,,,,,,,,,,,,,,,,,,,,,,,,,,,,,,,,,"MET11101/02/20 07:53:02 METAR PASO 021653Z 18004KT 9SM UP CLR M17/M19 A2956 RMK AO2 SLP009 P0000 I1000 T11671194 TSNO","FM-15","7",,,,,,,,,,,,,,,,,,,,,,,,,,,,"2005-10-30"
"70362125516","2020-01-02T08:53:00","FM-15","7",,,,,,,,,,,,,,,,,,,,,,,,,,,,,,,,,,,,,,"29.57","-3","1","T","UP:09 ||","-0.02","3","83","29.57","CLR:00","29.54","7.00","0","160",,"3",,,,,,,,,,,,,,,,,,,,,,,,,,,,,,,,,,,,,"MET14101/02/20 08:53:02 METAR PASO 021753Z 16003KT 7SM UP CLR M17/M19 A2957 RMK AO2 SLP012 P0000 60000 I1000 I6000 T11721194 11144 21172 53007 TSNO","FM-15","7",,,,,,,,,,,,,,,,,,,,,,,,,,,,"2005-10-30"
"70362125516","2020-01-02T09:53:00","FM-15","7",,,,,,,,,,,,,,,,,,,,,,,,,,,,,,,,,,,,,,"29.58","-4","1","T",,,,"79","29.58","CLR:00","29.55","8.00","0","000",,"0",,,,,,,,,,,,,,,,,,,,,,,,,,,,,,,,,,,,,"MET12001/02/20 09:53:02 METAR PASO 021853Z 00000KT 8SM CLR M17/M20 A2958 RMK AO2 UPE05B37E51 SLP017 P0000 I1000 T11721200 TSNO","FM-15","7",,,,,,,,,,,,,,,,,,,,,,,,,,,,"2005-10-30"
"70362125516","2020-01-02T10:53:00","FM-15","7",,,,,,,,,,,,,,,,,,,,,,,,,,,,,,,,,,,,,,"29.58","-3","1","T","UP:09 BR:1 ||",,,"83","29.58","CLR:00","29.55","4.00","0","180",,"3",,,,,,,,,,,,,,,,,,,,,,,,,,,,,,,,,,,,,"MET12001/02/20 10:53:02 METAR PASO 021953Z 18003KT 4SM UP BR CLR M17/M19 A2958 RMK AO2 UPB30 SLP018 P0000 I1000 T11721194 TSNO","FM-15","7",,,,,,,,,,,,,,,,,,,,,,,,,,,,"2005-10-30"
"70362125516","2020-01-02T11:53:00","FM-15","7",,,,,,,,,,,,,,,,,,,,,,,,,,,,,,,,,,,,,,"29.58","-1","2","T","UP:09 ||","-0.02","1","88","29.58","CLR:00","29.55","8.00","1","180",,"3",,,,,,,,,,,,,,,,,,,,,,,,,,,,,,,,,,,,,"MET13201/02/20 11:53:02 METAR PASO 022053Z 18003KT 8SM UP CLR M17/M18 A2958 RMK AO2 UPE00B16 SLP018 P0000 60000 I3000 T11671183 51006 TSNO","FM-15","7",,,,,,,,,,,,,,,,,,,,,,,,,,,,"2005-10-30"
"70362125516","2020-01-02T12:53:00","FM-15","7",,,,,,,,,,,,,,,,,,,,,,,,,,,,,,,,,,,,,,"29.60","2","6","T",,,,"83","29.59","SCT:04 65","29.57","10.00","5","000",,"0",,,,,,,,,,,,,,,,,,,,,,,,,,,,,,,,,,,,,"MET11201/02/20 12:53:02 METAR PASO 022153Z 00000KT 10SM SCT065 M14/M17 A2960 RMK AO2 UPE44 SLP022 P0000 T11441167 TSNO","FM-15","7",,,,,,,,,,,,,,,,,,,,,,,,,,,,"2005-10-30"
"70362125516","2020-01-02T13:53:00","FM-15","7",,,,,,,,,,,,,,,,,,,,,,,,,,,,,,,,,,,,,,"29.60","4","7","0.00",,,,"87","29.60","CLR:00","29.57","10.00","6","180",,"3",,,,,,,,,,,,,,,,,,,,,,,,,,,,,,,,,,,,,"MET09701/02/20 13:53:02 METAR PASO 022253Z 18003KT 10SM CLR M14/M16 A2960 RMK AO2 SLP023 T11391156 TSNO","FM-15","7",,,,,,,,,,,,,,,,,,,,,,,,,,,,"2005-10-30"
"70362125516","2020-01-02T14:53:00","FM-15","7",,,,,,,,,,,,,,,,,,,,,,,,,,,,,,,,,,,,,,"29.60","3","6","0.00",,"-0.02","1","87","29.60","FEW:02 70","29.57","10.00","5","190",,"3",,,,,,,,,,,,,,,,,,,,,,,,,,,,,,,,,,,,,"MET13001/02/20 14:53:02 METAR PASO 022353Z 19003KT 10SM FEW070 M14/M16 A2960 RMK AO2 SLP024 60000 I6000 T11441161 11133 21178 51006 TSNO","FM-15","7",,,,,,,,,,,,,,,,,,,,,,,,,,,,"2005-10-30"
"70362125516","2020-01-02T15:53:00","FM-15","7",,,,,,,,,,,,,,,,,,,,,,,,,,,,,,,,,,,,,,"29.60","2","6","0.00",,,,"83","29.60","OVC:08 70","29.57","10.00","5","200",,"3",,,,,,,,,,,,,,,,,,,,,,,,,,,,,,,,,,,,,"MET10001/02/20 15:53:01 METAR PASO 030053Z 20003KT 10SM OVC070 M14/M17 A2960 RMK AO2 SLP023 T11441167 TSNO","FM-15","7",,,,,,,,,,,,,,,,,,,,,,,,,,,,"2005-10-30"
"70362125516","2020-01-02T16:53:00","FM-15","7",,,,,,,,,,,,,,,,,,,,,,,,,,,,,,,,,,,,,,"29.60","3","8","0.00",,,,"80","29.59","BKN:07 44","29.57","10.00","7","000",,"0",,,,,,,,,,,,,,,,,,,,,,,,,,,,,,,,,,,,,"MET10001/02/20 16:53:01 METAR PASO 030153Z 00000KT 10SM BKN044 M13/M16 A2960 RMK AO2 SLP022 T11331161 TSNO","FM-15","7",,,,,,,,,,,,,,,,,,,,,,,,,,,,"2005-10-30"
"70362125516","2020-01-02T17:53:00","FM-15","7",,,,,,,,,,,,,,,,,,,,,,,,,,,,,,,,,,,,,,"29.60","2","6","0.00",,"+0.00","5","83","29.60","FEW:02 95","29.57","10.00","5","000",,"0",,,,,,,,,,,,,,,,,,,,,,,,,,,,,,,,,,,,,"MET11801/02/20 17:53:01 METAR PASO 030253Z 00000KT 10SM FEW095 M14/M17 A2960 RMK AO2 SLP024 I1000 I3000 T11441167 55000 TSNO","FM-15","7",,,,,,,,,,,,,,,,,,,,,,,,,,,,"2005-10-30"
"70362125516","2020-01-02T18:53:00","FM-15","7",,,,,,,,,,,,,,,,,,,,,,,,,,,,,,,,,,,,,,"29.60","2","6","0.00",,,,"83","29.59","BKN:07 100","29.57","10.00","5","000",,"0",,,,,,,,,,,,,,,,,,,,,,,,,,,,,,,,,,,,,"MET10601/02/20 18:53:01 METAR PASO 030353Z 00000KT 10SM BKN100 M14/M17 A2960 RMK AO2 SLP022 I1000 T11441167 TSNO","FM-15","7",,,,,,,,,,,,,,,,,,,,,,,,,,,,"2005-10-30"
"70362125516","2020-01-02T19:53:00","FM-15","7",,,,,,,,,,,,,,,,,,,,,,,,,,,,,,,,,,,,,,"29.59","2","5","0.00",,,,"87","29.59","FEW:02 55 BKN:07 95 BKN:07 120","29.56","10.00","4","000",,"0",,,,,,,,,,,,,,,,,,,,,,,,,,,,,,,,,,,,,"MET12001/02/20 19:53:02 METAR PASO 030453Z 00000KT 10SM FEW055 BKN095 BKN120 M15/M17 A2959 RMK AO2 SLP020 I1000 T11501167 TSNO","FM-15","7",,,,,,,,,,,,,,,,,,,,,,,,,,,,"2005-10-30"
"70362125516","2020-01-02T20:26:00","FM-16","7",,,,,,,,,,,,,,,,,,,,,,,,,,,,,,,,,,,,,,"29.61","4","8",,"BR:1 ||",,,"83",,"BKN:07 60 OVC:08 80","29.58","2.50","7","000",,"0",,,,,,,,,,,,,,,,,,,,,,,,,,,,,,,,,,,,,"MET10601/02/20 20:26:02 SPECI PASO 030526Z 00000KT 2 1/2SM BR BKN060 OVC080 M13/M16 A2961 RMK AO2 T11331156 TSNO","FM-16","7",,,,,,,,,,,,,,,,,,,,,,,,,,,,"2005-10-30"
"70362125516","2020-01-02T20:34:00","FM-16","7",,,,,,,,,,,,,,,,,,,,,,,,,,,,,,,,,,,,,,"29.61","3","7",,"BR:1 ||",,,"84",,"BKN:07 55 OVC:08 80","29.58","5.00","6","000",,"0",,,,,,,,,,,,,,,,,,,,,,,,,,,,,,,,,,,,,"MET10201/02/20 20:34:02 SPECI PASO 030534Z 00000KT 5SM BR BKN055 OVC080 M14/M16 A2961 RMK AO2 T11391161 TSNO","FM-16","7",,,,,,,,,,,,,,,,,,,,,,,,,,,,"2005-10-30"
"70362125516","2020-01-02T20:53:00","FM-15","7",,,,,,,,,,,,,,,,,,,,,,,,,,,,,,,,,,,,,,"29.60","2","7","0.00",,"+0.00","5","80","29.60","SCT:04 55","29.57","7.00","6","000",,"0",,,,,,,,,,,,,,,,,,,,,,,,,,,,,,,,,,,,,"MET12901/02/20 20:53:02 METAR PASO 030553Z 00000KT 7SM SCT055 M14/M17 A2960 RMK AO2 SLP024 I1000 I6000 T11391167 11122 21150 55000 TSNO","FM-15","7",,,,,,,,,,,,,,,,,,,,,,,,,,,,"2005-10-30"
"70362125516","2020-01-02T21:53:00","FM-15","7",,,,,,,,,,,,,,,,,,,,,,,,,,,,,,,,,,,,,,"29.60","1","5","0.00",,,,"83","29.60","BKN:07 70","29.57","9.00","4","000",,"0",,,,,,,,,,,,,,,,,,,,,,,,,,,,,,,,,,,,,"MET10501/02/20 21:53:02 METAR PASO 030653Z 00000KT 9SM BKN070 M15/M17 A2960 RMK AO2 SLP024 I1000 T11501172 TSNO","FM-15","7",,,,,,,,,,,,,,,,,,,,,,,,,,,,"2005-10-30"
"70362125516","2020-01-02T22:53:00","FM-15","7",,,,,,,,,,,,,,,,,,,,,,,,,,,,,,,,,,,,,,"29.60","4","7","0.00",,,,"87","29.60","OVC:08 60","29.57","10.00","6","000",,"0",,,,,,,,,,,,,,,,,,,,,,,,,,,,,,,,,,,,,"MET10001/02/20 22:53:02 METAR PASO 030753Z 00000KT 10SM OVC060 M14/M16 A2960 RMK AO2 SLP024 T11391156 TSNO","FM-15","7",,,,,,,,,,,,,,,,,,,,,,,,,,,,"2005-10-30"
"70362125516","2020-01-02T23:53:00","FM-15","7",,,,,,,,,,,,,,,,,,,,,,,,,,,,,,,,,,,,,,"29.59","6","8","0.00",,"+0.01","8","92","29.59","SCT:04 70 SCT:04 90 OVC:08 110","29.56","10.00","8","000",,"0",,,,,,,,,,,,,,,,,,,,,,,,,,,,,,,,,,,,,"MET13601/02/20 23:53:02 METAR PASO 030853Z 00000KT 10SM SCT070 SCT090 OVC110 M13/M14 A2959 RMK AO2 SLP020 I3000 T11331144 411221178 58004 TSNO","FM-15","7",,,,,,,,,,,,,,,,,,,,,,,,,,,,"2005-10-30"
"70362125516","2020-01-02T23:59:00","SOD  ","6",,,,,,,,,,,,,,,,"5",,,"29.54",,"1.5","0","-21.4","60","10","0","160","13","T",,,"160","9","SN BR UP HZ",,,,,,,,,,,,,,,,,,,,,,,,,,,,,,,,,,,,,,,,,,,,,,,,,,,,,,,,"SOD73024 HR PRECIPITATION (IN):T     24 HR MAX TEMP (F):10 24 HR MAX TEMP TIME (LST):1735 24 HR MIN TEMP (F):0  24 HR MIN TEMP TIME (LST):1058 AVERAGE STATION PRESSURE:29.540 MINIMUM SEA LEVEL PRESSURE:29.50 TIME OF OCCURRENCE:0005 PEAK WIND SPEED (MPH):13  PEAK WIND DIR (DEG):160 PEAK WIND TIME (LST):0049  FASTEST 2MIN SPEED (MPH):9  FASTEST 2MIN DIR (DEG):160 FASTEST 2MIN TIME (LST):0050 AVERAGE WIND SPEED (MPH):1.5  24 HR AVG TEMP (F):5  HEATING DEGREE DAYS:60  COOLING DEGREE DAYS:0   LATEST DAY MAX TEMP (0700-1900 LST):10  LATEST NIGHT MIN TEMP(1900-0800 LST):1  HOURLY INCREMENTAL PRECIPITATION VALUES (IN):    T    T    T    T    T    T    T    T    T    T    T    T    0.00 0.00 0.00 0.00 0.00 0.00 0.00 0.00 0.00 0.00 0.00","SOD  ","6",,,,,,,,,,,,,,,,,,,,,,,,,"1004","1619",,"2005-10-30"
"70362125516","2020-01-03T00:53:00","FM-15","7",,,,,,,,,,,,,,,,,,,,,,,,,,,,,,,,,,,,,,"29.58","6","10","0.00",,,,"84","29.58","BKN:07 55 OVC:08 70","29.55","10.00","9","000",,"0",,,,,,,,,,,,,,,,,,,,,,,,,,,,,,,,,,,,,"MET10701/03/20 00:53:02 METAR PASO 030953Z 00000KT 10SM BKN055 OVC070 M12/M14 A2958 RMK AO2 SLP016 T11221144 TSNO","FM-15","7",,,,,,,,,,,,,,,,,,,,,,,,,,,,"2005-10-30"
"70362125516","2020-01-03T01:19:00","FM-16","7",,,,,,,,,,,,,,,,,,,,,,,,,,,,,,,,,,,,,,"29.57","9","12","T","-SN:03 BR:1 |SN |",,,"87",,"OVC:08 30","29.54","1.75","11","000",,"0",,,,,,,,,,,,,,,,,,,,,,,,,,,,,,,,,,,,,"MET11501/03/20 01:19:02 SPECI PASO 031019Z 00000KT 1 3/4SM -SN BR OVC030 M11/M13 A2957 RMK AO2 SNB01 P0000 T11111128 TSNO","FM-16","7",,,,,,,,,,,,,,,,,,,,,,,,,,,,"2005-10-30"
"70362125516","2020-01-03T01:32:00","FM-16","7",,,,,,,,,,,,,,,,,,,,,,,,,,,,,,,,,,,,,,"29.57","9","12","T","-SN:03 BR:1 |SN |",,,"87",,"OVC:08 30","29.54","3.00","11","000",,"0",,,,,,,,,,,,,,,,,,,,,,,,,,,,,,,,,,,,,"MET11101/03/20 01:32:02 SPECI PASO 031032Z 00000KT 3SM -SN BR OVC030 M11/M13 A2957 RMK AO2 SNB01 P0000 T11111128 TSNO","FM-16","7",,,,,,,,,,,,,,,,,,,,,,,,,,,,"2005-10-30"
"70362125516","2020-01-03T01:37:00","FM-16","7",,,,,,,,,,,,,,,,,,,,,,,,,,,,,,,,,,,,,,"29.56","9","12","T","-SN:03 BR:1 |SN |",,,"87",,"OVC:08 28","29.53","2.50","11","VRB",,"3",,,,,,,,,,,,,,,,,,,,,,,,,,,,,,,,,,,,,"MET11501/03/20 01:37:02 SPECI PASO 031037Z VRB03KT 2 1/2SM -SN BR OVC028 M11/M13 A2956 RMK AO2 SNB01 P0000 T11111128 TSNO","FM-16","7",,,,,,,,,,,,,,,,,,,,,,,,,,,,"2005-10-30"
"70362125516","2020-01-03T01:51:00","FM-16","6",,,,,,,,,,,,,,,,,,,,,,,,,,,,,,,,,,,,,,"29.56","12","18",,"-SN:03 |SN |",,,"79",,"BKN:07 28 OVC:08 80","29.53","4.00","16","VRB",,"8",,,,,,,,,,,,,,,,,,,,,,,,,,,,,,,,,,,,,"MET11001/03/20 01:51:02 SPECI PASO 031051Z 01007KT 4SM -SN BKN028 OVC080 M08/M11 A2956 RMK AO2 SNB01 P0000 TSNO FIBI","FM-16","6",,,,,,,,,,,,,,,,,,,,,,,,,,,,"2005-10-30"
"70362125516","2020-01-03T01:53:00","FM-15","7",,,,,,,,,,,,,,,,,,,,,,,,,,,,,,,,,,,,,,"29.56","12","17","T","-SN:03 |SN |",,,"80","29.56","SCT:04 28 OVC:08 80","29.53","5.00","16","020","20","11",,,,,,,,,,,,,,,,,,,,,,,,,,,,,,,,,,,,,"MET12501/03/20 01:53:02 METAR PASO 031053Z 02010G17KT 5SM -SN SCT028 OVC080 M08/M11 A2956 RMK AO2 SNB01 SLP011 P0000 T10831111 TSNO","FM-15","7",,,,,,,,,,,,,,,,,,,,,,,,,,,,"2005-10-30"
"70362125516","2020-01-03T02:53:00","FM-15","7",,,,,,,,,,,,,,,,,,,,,,,,,,,,,,,,,,,,,,"29.55","13","19","0.00",,"+0.03","6","77","29.55","FEW:02 22 FEW:02 48 OVC:08 80","29.52","10.00","17","VRB",,"7",,,,,,,,,,,,,,,,,,,,,,,,,,,,,,,,,,,,,"MET15801/03/20 02:53:02 METAR PASO 031153Z VRB06KT 10SM FEW022 FEW048 OVC080 M07/M11 A2955 RMK AO2 SNE1056 SLP006 P0000 60000 I6000 T10721106 11072 21156 56009 TSNO","FM-15","7",,,,,,,,,,,,,,,,,,,,,,,,,,,,"2005-10-30"
"70362125516","2020-01-03T03:53:00","FM-15","7",,,,,,,,,,,,,,,,,,,,,,,,,,,,,,,,,,,,,,"29.52","12","19","0.00",,,,"74","29.52","OVC:08 80","29.49","10.00","17","VRB",,"7",,,,,,,,,,,,,,,,,,,,,,,,,,,,,,,,,,,,,"MET10001/03/20 03:53:02 METAR PASO 031253Z VRB06KT 10SM OVC080 M07/M11 A2952 RMK AO2 SLP997 T10721111 TSNO","FM-15","7",,,,,,,,,,,,,,,,,,,,,,,,,,,,"2005-10-30"
"70362125516","2020-01-03T04:53:00","FM-15","7",,,,,,,,,,,,,,,,,,,,,,,,,,,,,,,,,,,,,,"29.50","12","19","0.00",,,,"74","29.50","BKN:07 80","29.47","10.00","17","VRB",,"6",,,,,,,,,,,,,,,,,,,,,,,,,,,,,,,,,,,,,"MET10001/03/20 04:53:02 METAR PASO 031353Z VRB05KT 10SM BKN080 M07/M11 A2950 RMK AO2 SLP991 T10721111 TSNO","FM-15","7",,,,,,,,,,,,,,,,,,,,,,,,,,,,"2005-10-30"
"70362125516","2020-01-03T05:53:00","FM-15","7",,,,,,,,,,,,,,,,,,,,,,,,,,,,,,,,,,,,,,"29.48","14","20","0.00",,"+0.07","6","78","29.48","BKN:07 21 BKN:07 80","29.45","10.00","18","VRB",,"5",,,,,,,,,,,,,,,,,,,,,,,,,,,,,,,,,,,,,"MET11301/03/20 05:53:02 METAR PASO 031453Z VRB04KT 10SM BKN021 BKN080 M07/M10 A2948 RMK AO2 SLP982 T10671100 56024 TSNO","FM-15","7",,,,,,,,,,,,,,,,,,,,,,,,,,,,"2005-10-30"
"70362125516","2020-01-03T06:51:00","FM-16","6",,,,,,,,,,,,,,,,,,,,,,,,,,,,,,,,,,,,,,"29.46","14","19",,,,,"79",,"SCT:04 20 SCT:04 65 BKN:07 95","29.43","10.00","18","360",,"10",,,,,,,,,,,,,,,,,,,,,,,,,,,,,,,,,,,,,"MET10201/03/20 06:51:02 SPECI PASO 031551Z 36009KT 10SM SCT020 SCT065 BKN095 M07/M10 A2946 RMK AO2 TSNO FIBI","FM-16","6",,,,,,,,,,,,,,,,,,,,,,,,,,,,"2005-10-30"
"70362125516","2020-01-03T06:53:00","FM-15","7",,,,,,,,,,,,,,,,,,,,,,,,,,,,,,,,,,,,,,"29.46","14","20","0.00",,,,"78","29.46","SCT:04 20 SCT:04 65 SCT:04 95","29.43","10.00","18","360",,"8",,,,,,,,,,,,,,,,,,,,,,,,,,,,,,,,,,,,,"MET11401/03/20 06:53:02 METAR PASO 031553Z 36007KT 10SM SCT020 SCT065 SCT095 M07/M10 A2946 RMK AO2 SLP977 T10671100 TSNO","FM-15","7",,,,,,,,,,,,,,,,,,,,,,,,,,,,"2005-10-30"
"70362125516","2020-01-03T07:46:00","FM-16","7",,,,,,,,,,,,,,,,,,,,,,,,,,,,,,,,,,,,,,"29.45","15","21","T","-SN:03 |SN |",,,"78",,"OVC:08 29","29.42","2.50","19","010",,"6",,,,,,,,,,,,,,,,,,,,,,,,,,,,,,,,,,,,,"MET11201/03/20 07:46:02 SPECI PASO 031646Z 01005KT 2 1/2SM -SN OVC029 M06/M09 A2945 RMK AO2 SNB42 P0000 T10611094 TSNO","FM-16","7",,,,,,,,,,,,,,,,,,,,,,,,,,,,"2005-10-30"
"70362125516","2020-01-03T07:51:00","FM-16","6",,,,,,,,,,,,,,,,,,,,,,,,,,,,,,,,,,,,,,"29.45","16","21",,"-SN:03 |SN |",,,"80",,"OVC:08 23","29.42","1.25","20","360",,"7",,,,,,,,,,,,,,,,,,,,,,,,,,,,,,,,,,,,,"MET10701/03/20 07:51:02 SPECI PASO 031651Z 36006KT 1 1/4SM -SN OVC023 M06/M09 A2945 RMK AO2 SNB42 P0000 TSNO FIBI","FM-16","6",,,,,,,,,,,,,,,,,,,,,,,,,,,,"2005-10-30"
"70362125516","2020-01-03T07:53:00","FM-15","7",,,,,,,,,,,,,,,,,,,,,,,,,,,,,,,,,,,,,,"29.45","16","21","T","-SN:03 |SN |",,,"81","29.45","OVC:08 23","29.42","1.00","20","010",,"7",,,,,,,,,,,,,,,,,,,,,,,,,,,,,,,,,,,,,"MET11501/03/20 07:53:02 METAR PASO 031653Z 01006KT 1SM -SN OVC023 M06/M09 A2945 RMK AO2 SNB42 SLP972 P0000 T10611089 TSNO","FM-15","7",,,,,,,,,,,,,,,,,,,,,,,,,,,,"2005-10-30"
"70362125516","2020-01-03T08:08:00","FM-16","7",,,,,,,,,,,,,,,,,,,,,,,,,,,,,,,,,,,,,,"29.45","16","21","T","-SN:03 |SN |",,,"81",,"OVC:08 13","29.42","1.25","20","VRB","16","9",,,,,,,,,,,,,,,,,,,,,,,,,,,,,,,,,,,,,"MET10901/03/20 08:08:02 SPECI PASO 031708Z 03008G14KT 1 1/4SM -SN OVC013 M06/M09 A2945 RMK AO2 P0000 T10611089 TSNO","FM-16","7",,,,,,,,,,,,,,,,,,,,,,,,,,,,"2005-10-30"
"70362125516","2020-01-03T08:46:00","FM-16","7",,,,,,,,,,,,,,,,,,,,,,,,,,,,,,,,,,,,,,"29.45","16","21","T","-SN:03 |SN |",,,"81",,"OVC:08 16","29.42","2.00","20","VRB",,"6",,,,,,,,,,,,,,,,,,,,,,,,,,,,,,,,,,,,,"MET10201/03/20 08:46:02 SPECI PASO 031746Z VRB05KT 2SM -SN OVC016 M06/M09 A2945 RMK AO2 P0000 T10611089 TSNO","FM-16","7",,,,,,,,,,,,,,,,,,,,,,,,,,,,"2005-10-30"
"70362125516","2020-01-03T08:51:00","FM-16","6",,,,,,,,,,,,,,,,,,,,,,,,,,,,,,,,,,,,,,"29.45","16","21",,"-SN:03 |SN |",,,"80",,"OVC:08 16","29.42","3.00","20","VRB",,"9",,,,,,,,,,,,,,,,,,,,,,,,,,,,,,,,,,,,,"MET09701/03/20 08:51:02 SPECI PASO 031751Z 01008KT 3SM -SN OVC016 M06/M09 A2945 RMK AO2 P0000 TSNO FIBI","FM-16","6",,,,,,,,,,,,,,,,,,,,,,,,,,,,"2005-10-30"
"70362125516","2020-01-03T08:53:00","FM-15","7",,,,,,,,,,,,,,,,,,,,,,,,,,,,,,,,,,,,,,"29.45","16","21","T","-SN:03 |SN |","+0.03","6","81","29.44","OVC:08 18","29.42","3.00","20","020",,"8",,,,,,,,,,,,,,,,,,,,,,,,,,,,,,,,,,,,,"MET13301/03/20 08:53:02 METAR PASO 031753Z 02007KT 3SM -SN OVC018 M06/M09 A2945 RMK AO2 SLP971 P0000 60000 T10611089 11061 21083 56010 TSNO","FM-15","7",,,,,,,,,,,,,,,,,,,,,,,,,,,,"2005-10-30"
"70362125516","2020-01-03T09:05:00","FM-16","7",,,,,,,,,,,,,,,,,,,,,,,,,,,,,,,,,,,,,,"29.44","16","21","T","-SN:03 |SN |",,,"81",,"OVC:08 18","29.41","1.75","20","VRB",,"8",,,,,,,,,,,,,,,,,,,,,,,,,,,,,,,,,,,,,"MET10601/03/20 09:05:02 SPECI PASO 031805Z 01007KT 1 3/4SM -SN OVC018 M06/M09 A2944 RMK AO2 P0000 T10611089 TSNO","FM-16","7",,,,,,,,,,,,,,,,,,,,,,,,,,,,"2005-10-30"
"70362125516","2020-01-03T09:20:00","FM-16","7",,,,,,,,,,,,,,,,,,,,,,,,,,,,,,,,,,,,,,"29.44","16","21","T","-SN:03 |SN |",,,"81",,"OVC:08 17","29.41","2.00","20","VRB",,"5",,,,,,,,,,,,,,,,,,,,,,,,,,,,,,,,,,,,,"MET10201/03/20 09:20:02 SPECI PASO 031820Z VRB04KT 2SM -SN OVC017 M06/M09 A2944 RMK AO2 P0000 T10611089 TSNO","FM-16","7",,,,,,,,,,,,,,,,,,,,,,,,,,,,"2005-10-30"
"70362125516","2020-01-03T09:30:00","FM-16","7",,,,,,,,,,,,,,,,,,,,,,,,,,,,,,,,,,,,,,"29.44","16","21","T","-SN:03 |SN |",,,"81",,"OVC:08 17","29.41","1.75","20","VRB",,"5",,,,,,,,,,,,,,,,,,,,,,,,,,,,,,,,,,,,,"MET10601/03/20 09:30:02 SPECI PASO 031830Z VRB04KT 1 3/4SM -SN OVC017 M06/M09 A2944 RMK AO2 P0000 T10611089 TSNO","FM-16","7",,,,,,,,,,,,,,,,,,,,,,,,,,,,"2005-10-30"
"70362125516","2020-01-03T09:38:00","FM-16","7",,,,,,,,,,,,,,,,,,,,,,,,,,,,,,,,,,,,,,"29.44","16","21","T","-SN:03 |SN |",,,"81",,"OVC:08 19","29.41","2.50","20","VRB",,"3",,,,,,,,,,,,,,,,,,,,,,,,,,,,,,,,,,,,,"MET10601/03/20 09:38:02 SPECI PASO 031838Z VRB03KT 2 1/2SM -SN OVC019 M06/M09 A2944 RMK AO2 P0000 T10611089 TSNO","FM-16","7",,,,,,,,,,,,,,,,,,,,,,,,,,,,"2005-10-30"
"70362125516","2020-01-03T09:46:00","FM-16","7",,,,,,,,,,,,,,,,,,,,,,,,,,,,,,,,,,,,,,"29.44","16","20","T","-SN:03 BR:1 |SN |",,,"85",,"OVC:08 21","29.41","3.00","19","VRB",,"5",,,,,,,,,,,,,,,,,,,,,,,,,,,,,,,,,,,,,"MET10501/03/20 09:46:02 SPECI PASO 031846Z VRB04KT 3SM -SN BR OVC021 M07/M09 A2944 RMK AO2 P0000 T10671089 TSNO","FM-16","7",,,,,,,,,,,,,,,,,,,,,,,,,,,,"2005-10-30"
"70362125516","2020-01-03T09:51:00","FM-16","6",,,,,,,,,,,,,,,,,,,,,,,,,,,,,,,,,,,,,,"29.44","16","21",,"-SN:03 |SN |",,,"80",,"OVC:08 21","29.41","2.50","20","000",,"0",,,,,,,,,,,,,,,,,,,,,,,,,,,,,,,,,,,,,"MET10101/03/20 09:51:02 SPECI PASO 031851Z 00000KT 2 1/2SM -SN OVC021 M06/M09 A2944 RMK AO2 P0000 TSNO FIBI","FM-16","6",,,,,,,,,,,,,,,,,,,,,,,,,,,,"2005-10-30"
"70362125516","2020-01-03T09:53:00","FM-15","7",,,,,,,,,,,,,,,,,,,,,,,,,,,,,,,,,,,,,,"29.44","16","21","T","-SN:03 |SN |",,,"81","29.44","OVC:08 21","29.41","2.00","20","000",,"0",,,,,,,,,,,,,,,,,,,,,,,,,,,,,,,,,,,,,"MET10901/03/20 09:53:02 METAR PASO 031853Z 00000KT 2SM -SN OVC021 M06/M09 A2944 RMK AO2 SLP969 P0000 T10611089 TSNO","FM-15","7",,,,,,,,,,,,,,,,,,,,,,,,,,,,"2005-10-30"
"70362125516","2020-01-03T10:16:00","FM-16","7",,,,,,,,,,,,,,,,,,,,,,,,,,,,,,,,,,,,,,"29.44","17","20","T","-SN:03 BR:1 |SN |",,,"89",,"VV:09 16","29.41","1.00","19","180",,"3",,,,,,,,,,,,,,,,,,,,,,,,,,,,,,,,,,,,,"MET10401/03/20 10:16:02 SPECI PASO 031916Z 18003KT 1SM -SN BR VV016 M07/M08 A2944 RMK AO2 P0000 T10671083 TSNO","FM-16","7",,,,,,,,,,,,,,,,,,,,,,,,,,,,"2005-10-30"
"70362125516","2020-01-03T10:46:00","FM-16","7",,,,,,,,,,,,,,,,,,,,,,,,,,,,,,,,,,,,,,"29.44","17","20","T","SN:03 FZ:8 FG:2 |FG SN |",,,"89",,"VV:09 14","29.41","0.50","19","000",,"0",,,,,,,,,,,,,,,,,,,,,,,,,,,,,,,,,,,,,"MET10701/03/20 10:46:02 SPECI PASO 031946Z 00000KT 1/2SM SN FZFG VV014 M07/M08 A2944 RMK AO2 P0000 T10671083 TSNO","FM-16","7",,,,,,,,,,,,,,,,,,,,,,,,,,,,"2005-10-30"
"70362125516","2020-01-03T10:53:00","FM-15","7",,,,,,,,,,,,,,,,,,,,,,,,,,,,,,,,,,,,,,"29.43","17","20","T","SN:03 FZ:8 FG:2 |FG SN |",,,"89","29.43","VV:09 15","29.40","0.50","19","000",,"0",,,,,,,,,,,,,,,,,,,,,,,,,,,,,,,,,,,,,"MET11401/03/20 10:53:02 METAR PASO 031953Z 00000KT 1/2SM SN FZFG VV015 M07/M08 A2943 RMK AO2 SLP967 P0000 T10671083 TSNO","FM-15","7",,,,,,,,,,,,,,,,,,,,,,,,,,,,"2005-10-30"
"70362125516","2020-01-03T11:07:00","FM-16","7",,,,,,,,,,,,,,,,,,,,,,,,,,,,,,,,,,,,,,"29.43","16","21","T","-SN:03 |SN |",,,"81",,"OVC:08 18","29.40","1.25","20","000",,"0",,,,,,,,,,,,,,,,,,,,,,,,,,,,,,,,,,,,,"MET10601/03/20 11:07:02 SPECI PASO 032007Z 00000KT 1 1/4SM -SN OVC018 M06/M09 A2943 RMK AO2 P0000 T10611089 TSNO","FM-16","7",,,,,,,,,,,,,,,,,,,,,,,,,,,,"2005-10-30"
"70362125516","2020-01-03T11:21:00","FM-16","7",,,,,,,,,,,,,,,,,,,,,,,,,,,,,,,,,,,,,,"29.42","17","20","T","-SN:03 BR:1 |SN |",,,"89",,"OVC:08 24","29.39","2.50","19","000",,"0",,,,,,,,,,,,,,,,,,,,,,,,,,,,,,,,,,,,,"MET10901/03/20 11:21:02 SPECI PASO 032021Z 00000KT 2 1/2SM -SN BR OVC024 M07/M08 A2942 RMK AO2 P0000 T10671083 TSNO","FM-16","7",,,,,,,,,,,,,,,,,,,,,,,,,,,,"2005-10-30"
"70362125516","2020-01-03T11:32:00","FM-16","7",,,,,,,,,,,,,,,,,,,,,,,,,,,,,,,,,,,,,,"29.42","17","20","T","-SN:03 BR:1 |SN |",,,"89",,"OVC:08 22","29.39","1.00","19","000",,"0",,,,,,,,,,,,,,,,,,,,,,,,,,,,,,,,,,,,,"MET10501/03/20 11:32:02 SPECI PASO 032032Z 00000KT 1SM -SN BR OVC022 M07/M08 A2942 RMK AO2 P0000 T10671083 TSNO","FM-16","7",,,,,,,,,,,,,,,,,,,,,,,,,,,,"2005-10-30"
"70362125516","2020-01-03T11:40:00","FM-16","7",,,,,,,,,,,,,,,,,,,,,,,,,,,,,,,,,,,,,,"29.42","17","21","T","-SN:03 BR:1 |SN |",,,"85",,"VV:09 18","29.39","0.75","20","000",,"0",,,,,,,,,,,,,,,,,,,,,,,,,,,,,,,,,,,,,"MET10601/03/20 11:40:02 SPECI PASO 032040Z 00000KT 3/4SM -SN BR VV018 M06/M08 A2942 RMK AO2 P0000 T10611083 TSNO","FM-16","7",,,,,,,,,,,,,,,,,,,,,,,,,,,,"2005-10-30"
"70362125516","2020-01-03T11:51:00","FM-16","6",,,,,,,,,,,,,,,,,,,,,,,,,,,,,,,,,,,,,,"29.42","18","21",,"-SN:03 BR:1 |SN |",,,"86",,"OVC:08 19","29.39","1.50","20","150",,"3",,,,,,,,,,,,,,,,,,,,,,,,,,,,,,,,,,,,,"MET10401/03/20 11:51:02 SPECI PASO 032051Z 15003KT 1 1/2SM -SN BR OVC019 M06/M08 A2942 RMK AO2 P0000 TSNO FIBI","FM-16","6",,,,,,,,,,,,,,,,,,,,,,,,,,,,"2005-10-30"
"70362125516","2020-01-03T11:53:00","FM-15","7",,,,,,,,,,,,,,,,,,,,,,,,,,,,,,,,,,,,,,"29.42","17","20","T","-SN:03 BR:1 |SN |","+0.02","6","89","29.42","OVC:08 19","29.39","1.75","19","150",,"3",,,,,,,,,,,,,,,,,,,,,,,,,,,,,,,,,,,,,"MET12801/03/20 11:53:02 METAR PASO 032053Z 15003KT 1 3/4SM -SN BR OVC019 M07/M08 A2942 RMK AO2 SLP962 P0000 60000 T10671083 56007 TSNO","FM-15","7",,,,,,,,,,,,,,,,,,,,,,,,,,,,"2005-10-30"
"70362125516","2020-01-03T12:06:00","FM-16","7",,,,,,,,,,,,,,,,,,,,,,,,,,,,,,,,,,,,,,"29.42","17","21","T","SN:03 FZ:8 FG:2 |FG SN |",,,"85",,"VV:09 16","29.39","0.50","20","VRB",,"5",,,,,,,,,,,,,,,,,,,,,,,,,,,,,,,,,,,,,"MET10701/03/20 12:06:02 SPECI PASO 032106Z VRB04KT 1/2SM SN FZFG VV016 M06/M08 A2942 RMK AO2 P0000 T10611083 TSNO","FM-16","7",,,,,,,,,,,,,,,,,,,,,,,,,,,,"2005-10-30"
"70362125516","2020-01-03T12:12:00","FM-16","7",,,,,,,,,,,,,,,,,,,,,,,,,,,,,,,,,,,,,,"29.41","17","21","T","SN:03 FZ:8 FG:2 |FG SN |",,,"85",,"VV:09 14","29.38","0.25","20","VRB",,"3",,,,,,,,,,,,,,,,,,,,,,,,,,,,,,,,,,,,,"MET10701/03/20 12:12:02 SPECI PASO 032112Z VRB03KT 1/4SM SN FZFG VV014 M06/M08 A2941 RMK AO2 P0000 T10611083 TSNO","FM-16","7",,,,,,,,,,,,,,,,,,,,,,,,,,,,"2005-10-30"
"70362125516","2020-01-03T12:29:00","FM-16","7",,,,,,,,,,,,,,,,,,,,,,,,,,,,,,,,,,,,,,"29.41","17","21","T","SN:03 FZ:8 FG:2 |FG SN |",,,"85",,"VV:09 9","29.38","0.25","20","000",,"0",,,,,,,,,,,,,,,,,,,,,,,,,,,,,,,,,,,,,"MET10701/03/20 12:29:02 SPECI PASO 032129Z 00000KT 1/4SM SN FZFG VV009 M06/M08 A2941 RMK AO2 P0000 T10611083 TSNO","FM-16","7",,,,,,,,,,,,,,,,,,,,,,,,,,,,"2005-10-30"
"70362125516","2020-01-03T12:53:00","FM-15","7",,,,,,,,,,,,,,,,,,,,,,,,,,,,,,,,,,,,,,"29.40","17","20","T","SN:03 FZ:8 FG:2 |FG SN |",,,"89","29.40","VV:09 7","29.37","0.25","19","360",,"6",,,,,,,,,,,,,,,,,,,,,,,,,,,,,,,,,,,,,"MET11401/03/20 12:53:02 METAR PASO 032153Z 36005KT 1/4SM SN FZFG VV007 M07/M08 A2940 RMK AO2 SLP955 P0000 T10671083 TSNO","FM-15","7",,,,,,,,,,,,,,,,,,,,,,,,,,,,"2005-10-30"
"70362125516","2020-01-03T13:13:00","FM-16","7",,,,,,,,,,,,,,,,,,,,,,,,,,,,,,,,,,,,,,"29.39","18","21","T","-SN:03 BR:1 |SN |",,,"88",,"BKN:07 7 BKN:07 12 OVC:08 17","29.36","0.75","20","020",,"6",,,,,,,,,,,,,,,,,,,,,,,,,,,,,,,,,,,,,"MET12101/03/20 13:13:02 SPECI PASO 032213Z 02005KT 3/4SM -SN BR BKN007 BKN012 OVC017 M06/M08 A2939 RMK AO2 P0000 T10611078 TSNO","FM-16","7",,,,,,,,,,,,,,,,,,,,,,,,,,,,"2005-10-30"
"70362125516","2020-01-03T13:19:00","FM-16","7",,,,,,,,,,,,,,,,,,,,,,,,,,,,,,,,,,,,,,"29.39","18","21","T","-SN:03 BR:1 |SN |",,,"88",,"SCT:04 7 BKN:07 12 OVC:08 17","29.36","1.75","20","010",,"7",,,,,,,,,,,,,,,,,,,,,,,,,,,,,,,,,,,,,"MET12301/03/20 13:19:02 SPECI PASO 032219Z 01006KT 1 3/4SM -SN BR SCT007 BKN012 OVC017 M06/M08 A2939 RMK AO2 P0000 T10611078 TSNO","FM-16","7",,,,,,,,,,,,,,,,,,,,,,,,,,,,"2005-10-30"
"70362125516","2020-01-03T13:24:00","FM-16","7",,,,,,,,,,,,,,,,,,,,,,,,,,,,,,,,,,,,,,"29.39","18","21","T","-SN:03 BR:1 |SN |",,,"88",,"FEW:02 5 SCT:04 10 OVC:08 17","29.36","2.50","20","010",,"8",,,,,,,,,,,,,,,,,,,,,,,,,,,,,,,,,,,,,"MET12301/03/20 13:24:02 SPECI PASO 032224Z 01007KT 2 1/2SM -SN BR FEW005 SCT010 OVC017 M06/M08 A2939 RMK AO2 P0000 T10611078 TSNO","FM-16","7",,,,,,,,,,,,,,,,,,,,,,,,,,,,"2005-10-30"
"70362125516","2020-01-03T13:51:00","FM-16","6",,,,,,,,,,,,,,,,,,,,,,,,,,,,,,,,,,,,,,"29.39","18","21",,"-SN:03 |SN |",,,"86",,"OVC:08 23","29.36","5.00","20","020",,"6",,,,,,,,,,,,,,,,,,,,,,,,,,,,,,,,,,,,,"MET09701/03/20 13:51:02 SPECI PASO 032251Z 02005KT 5SM -SN OVC023 M06/M08 A2939 RMK AO2 P0000 TSNO FIBI","FM-16","6",,,,,,,,,,,,,,,,,,,,,,,,,,,,"2005-10-30"
"70362125516","2020-01-03T13:53:00","FM-15","7",,,,,,,,,,,,,,,,,,,,,,,,,,,,,,,,,,,,,,"29.39","17","22","T",,,,"82","29.39","OVC:08 23","29.36","7.00","20","020",,"8",,,,,,,,,,,,,,,,,,,,,,,,,,,,,,,,,,,,,"MET11101/03/20 13:53:02 METAR PASO 032253Z 02007KT 7SM OVC023 M06/M08 A2939 RMK AO2 SNE53 SLP951 P0000 T10561083 TSNO","FM-15","7",,,,,,,,,,,,,,,,,,,,,,,,,,,,"2005-10-30"
"70362125516","2020-01-03T14:41:00","FM-16","7",,,,,,,,,,,,,,,,,,,,,,,,,,,,,,,,,,,,,,"29.37","15","22",,,,,"75",,"SCT:04 27 OVC:08 70","29.34","10.00","20","010",,"5",,,,,,,,,,,,,,,,,,,,,,,,,,,,,,,,,,,,,"MET10001/03/20 14:41:02 SPECI PASO 032341Z 01004KT 10SM SCT027 OVC070 M06/M09 A2937 RMK AO2 T10561094 TSNO","FM-16","7",,,,,,,,,,,,,,,,,,,,,,,,,,,,"2005-10-30"
"70362125516","2020-01-03T14:53:00","FM-15","7",,,,,,,,,,,,,,,,,,,,,,,,,,,,,,,,,,,,,,"29.37","15","21","0.00",,"+0.03","8","78","29.37","OVC:08 70","29.34","10.00","19","010",,"6",,,,,,,,,,,,,,,,,,,,,,,,,,,,,,,,,,,,,"MET12401/03/20 14:53:02 METAR PASO 032353Z 01005KT 10SM OVC070 M06/M09 A2937 RMK AO2 SLP945 60000 T10611094 11050 21067 58010 TSNO","FM-15","7",,,,,,,,,,,,,,,,,,,,,,,,,,,,"2005-10-30"
"70362125516","2020-01-03T15:53:00","FM-15","7",,,,,,,,,,,,,,,,,,,,,,,,,,,,,,,,,,,,,,"29.36","14","21","0.00",,,,"74","29.36","BKN:07 65 OVC:08 80","29.33","10.00","19","010",,"7",,,,,,,,,,,,,,,,,,,,,,,,,,,,,,,,,,,,,"MET10701/03/20 15:53:01 METAR PASO 040053Z 01006KT 10SM BKN065 OVC080 M06/M10 A2936 RMK AO2 SLP942 T10611100 TSNO","FM-15","7",,,,,,,,,,,,,,,,,,,,,,,,,,,,"2005-10-30"
"70362125516","2020-01-03T16:53:00","FM-15","7",,,,,,,,,,,,,,,,,,,,,,,,,,,,,,,,,,,,,,"29.35","14","21","0.00",,,,"74","29.35","OVC:08 60","29.32","10.00","19","360",,"8",,,,,,,,,,,,,,,,,,,,,,,,,,,,,,,,,,,,,"MET10001/03/20 16:53:01 METAR PASO 040153Z 36007KT 10SM OVC060 M06/M10 A2935 RMK AO2 SLP939 T10611100 TSNO","FM-15","7",,,,,,,,,,,,,,,,,,,,,,,,,,,,"2005-10-30"
"70362125516","2020-01-03T17:53:00","FM-15","7",,,,,,,,,,,,,,,,,,,,,,,,,,,,,,,,,,,,,,"29.36","13","20","0.00",,"+0.01","5","74","29.36","OVC:08 70","29.33","10.00","18","VRB",,"5",,,,,,,,,,,,,,,,,,,,,,,,,,,,,,,,,,,,,"MET10601/03/20 17:53:01 METAR PASO 040253Z VRB04KT 10SM OVC070 M07/M11 A2936 RMK AO2 SLP941 T10671106 55004 TSNO","FM-15","7",,,,,,,,,,,,,,,,,,,,,,,,,,,,"2005-10-30"
"70362125516","2020-01-03T18:53:00","FM-15","7",,,,,,,,,,,,,,,,,,,,,,,,,,,,,,,,,,,,,,"29.35","13","20","0.00",,,,"74","29.35","OVC:08 65","29.32","10.00","18","350",,"9",,,,,,,,,,,,,,,,,,,,,,,,,,,,,,,,,,,,,"MET10001/03/20 18:53:01 METAR PASO 040353Z 35008KT 10SM OVC065 M07/M11 A2935 RMK AO2 SLP939 T10671106 TSNO","FM-15","7",,,,,,,,,,,,,,,,,,,,,,,,,,,,"2005-10-30"
"70362125516","2020-01-03T19:53:00","FM-15","7",,,,,,,,,,,,,,,,,,,,,,,,,,,,,,,,,,,,,,"29.36","15","20","T",,,,"81","29.36","SCT:04 19 OVC:08 44","29.33","10.00","19","360",,"8",,,,,,,,,,,,,,,,,,,,,,,,,,,,,,,,,,,,,"MET12201/03/20 19:53:02 METAR PASO 040453Z 36007KT 10SM SCT019 OVC044 M07/M09 A2936 RMK AO2 SNB15E46 SLP942 P0000 T10671094 TSNO","FM-15","7",,,,,,,,,,,,,,,,,,,,,,,,,,,,"2005-10-30"
"70362125516","2020-01-03T20:08:00","FM-16","7",,,,,,,,,,,,,,,,,,,,,,,,,,,,,,,,,,,,,,"29.36","15","20","T","-SN:03 |SN |",,,"81",,"BKN:07 19 OVC:08 46","29.33","9.00","19","360",,"8",,,,,,,,,,,,,,,,,,,,,,,,,,,,,,,,,,,,,"MET11501/03/20 20:08:02 SPECI PASO 040508Z 36007KT 9SM -SN BKN019 OVC046 M07/M09 A2936 RMK AO2 SNB07 P0000 T10671094 TSNO","FM-16","7",,,,,,,,,,,,,,,,,,,,,,,,,,,,"2005-10-30"
"70362125516","2020-01-03T20:36:00","FM-16","7",,,,,,,,,,,,,,,,,,,,,,,,,,,,,,,,,,,,,,"29.36","15","20","T","-SN:03 |SN |",,,"81",,"FEW:02 18 OVC:08 65","29.33","5.00","19","350",,"7",,,,,,,,,,,,,,,,,,,,,,,,,,,,,,,,,,,,,"MET11501/03/20 20:36:02 SPECI PASO 040536Z 35006KT 5SM -SN FEW018 OVC065 M07/M09 A2936 RMK AO2 SNB07 P0000 T10671094 TSNO","FM-16","7",,,,,,,,,,,,,,,,,,,,,,,,,,,,"2005-10-30"
"70362125516","2020-01-03T20:51:00","FM-16","6",,,,,,,,,,,,,,,,,,,,,,,,,,,,,,,,,,,,,,"29.36","16","19",,"-SN:03 BR:1 |SN |",,,"86",,"FEW:02 18 OVC:08 60","29.33","2.50","18","350",,"7",,,,,,,,,,,,,,,,,,,,,,,,,,,,,,,,,,,,,"MET11701/03/20 20:51:03 SPECI PASO 040551Z 35006KT 2 1/2SM -SN BR FEW018 OVC060 M07/M09 A2936 RMK AO2 SNB07 P0000 TSNO FIBI","FM-16","6",,,,,,,,,,,,,,,,,,,,,,,,,,,,"2005-10-30"
"70362125516","2020-01-03T20:53:00","FM-15","7",,,,,,,,,,,,,,,,,,,,,,,,,,,,,,,,,,,,,,"29.36","16","20","T","-SN:03 BR:1 |SN |","-0.01","3","85","29.36","FEW:02 18 OVC:08 60","29.33","2.50","19","360",,"7",,,,,,,,,,,,,,,,,,,,,,,,,,,,,,,,,,,,,"MET15301/03/20 20:53:02 METAR PASO 040553Z 36006KT 2 1/2SM -SN BR FEW018 OVC060 M07/M09 A2936 RMK AO2 SNB07 SLP942 P0000 60000 T10671089 11056 21067 53002 TSNO","FM-15","7",,,,,,,,,,,,,,,,,,,,,,,,,,,,"2005-10-30"
"70362125516","2020-01-03T21:04:00","FM-16","7",,,,,,,,,,,,,,,,,,,,,,,,,,,,,,,,,,,,,,"29.36","16","20","T","-SN:03 BR:1 |SN |",,,"85",,"FEW:02 23 OVC:08 65","29.33","3.00","19","VRB",,"5",,,,,,,,,,,,,,,,,,,,,,,,,,,,,,,,,,,,,"MET11201/03/20 21:04:02 SPECI PASO 040604Z VRB04KT 3SM -SN BR FEW023 OVC065 M07/M09 A2936 RMK AO2 P0000 T10671089 TSNO","FM-16","7",,,,,,,,,,,,,,,,,,,,,,,,,,,,"2005-10-30"
"70362125516","2020-01-03T21:16:00","FM-16","7",,,,,,,,,,,,,,,,,,,,,,,,,,,,,,,,,,,,,,"29.36","16","21","T","-SN:03 |SN |",,,"81",,"BKN:07 19 OVC:08 65","29.33","4.00","20","350",,"5",,,,,,,,,,,,,,,,,,,,,,,,,,,,,,,,,,,,,"MET10901/03/20 21:16:02 SPECI PASO 040616Z 35004KT 4SM -SN BKN019 OVC065 M06/M09 A2936 RMK AO2 P0000 T10611089 TSNO","FM-16","7",,,,,,,,,,,,,,,,,,,,,,,,,,,,"2005-10-30"
"70362125516","2020-01-03T21:53:00","FM-15","7",,,,,,,,,,,,,,,,,,,,,,,,,,,,,,,,,,,,,,"29.37","17","21","T","-SN:03 BR:1 |SN |",,,"85","29.37","BKN:07 20 OVC:08 26","29.34","4.00","20","360",,"6",,,,,,,,,,,,,,,,,,,,,,,,,,,,,,,,,,,,,"MET11901/03/20 21:53:02 METAR PASO 040653Z 36005KT 4SM -SN BR BKN020 OVC026 M06/M08 A2937 RMK AO2 SLP946 P0000 T10611083 TSNO","FM-15","7",,,,,,,,,,,,,,,,,,,,,,,,,,,,"2005-10-30"
"70362125516","2020-01-03T22:53:00","FM-15","7",,,,,,,,,,,,,,,,,,,,,,,,,,,,,,,,,,,,,,"29.38","17","21","T","-SN:03 BR:1 |SN |",,,"85","29.38","BKN:07 18 OVC:08 26","29.35","5.00","20","360",,"6",,,,,,,,,,,,,,,,,,,,,,,,,,,,,,,,,,,,,"MET11901/03/20 22:53:02 METAR PASO 040753Z 36005KT 5SM -SN BR BKN018 OVC026 M06/M08 A2938 RMK AO2 SLP949 P0000 T10611083 TSNO","FM-15","7",,,,,,,,,,,,,,,,,,,,,,,,,,,,"2005-10-30"
"70362125516","2020-01-03T23:53:00","FM-15","7",,,,,,,,,,,,,,,,,,,,,,,,,,,,,,,,,,,,,,"29.39","16","21","T",,"-0.03","1","81","29.39","OVC:08 16","29.36","10.00","20","010",,"7",,,,,,,,,,,,,,,,,,,,,,,,,,,,,,,,,,,,,"MET13401/03/20 23:53:02 METAR PASO 040853Z 01006KT 10SM OVC016 M06/M09 A2939 RMK AO2 SNE06 SLP951 P0000 60000 T10611089 410501133 51009 TSNO","FM-15","7",,,,,,,,,,,,,,,,,,,,,,,,,,,,"2005-10-30"
"70362125516","2020-01-03T23:59:00","SOD  ","6",,,,,,,,,,,,,,,,"16",,,"29.39",,"6.0","0","-10.3","49","23","8","010s","19s","T",,,"020","13","SN FZFG BR FG",,,,,,,,,,,,,,,,,,,,,,,,,,,,,,,,,,,,,,,,,,,,,,,,,,,,,,,,"SOD72724 HR PRECIPITATION (IN):T     24 HR MAX TEMP (F):23 24 HR MAX TEMP TIME (LST):1418 24 HR MIN TEMP (F):8  24 HR MIN TEMP TIME (LST):0000 AVERAGE STATION PRESSURE:29.395 MINIMUM SEA LEVEL PRESSURE:29.35 TIME OF OCCURRENCE:1944 PEAK WIND SPEED (MPH):19  PEAK WIND DIR (DEG):10  PEAK WIND TIME (LST):0153  FASTEST 2MIN SPEED (MPH):13 FASTEST 2MIN DIR (DEG):20  FASTEST 2MIN TIME (LST):0227 AVERAGE WIND SPEED (MPH):6.0  24 HR AVG TEMP (F):16 HEATING DEGREE DAYS:49  COOLING DEGREE DAYS:0   LATEST DAY MAX TEMP (0700-1900 LST):23  LATEST NIGHT MIN TEMP(1900-0800 LST):4  HOURLY INCREMENTAL PRECIPITATION VALUES (IN):.00 T    0.00 0.00 0.00 0.00 0.00 T    T    T    T    T    T    T    0.00 0.00 0.00 0.00 0.00 T    T    T    T    T","SOD  ","6",,,,,,,,,,,,,,,,,,,,,,,,,"1003","1620",,"2005-10-30"
"70362125516","2020-01-04T00:53:00","FM-15","7",,,,,,,,,,,,,,,,,,,,,,,,,,,,,,,,,,,,,,"29.41","13","21","0.00",,,,"71","29.41","OVC:08 22","29.38","10.00","19","360",,"7",,,,,,,,,,,,,,,,,,,,,,,,,,,,,,,,,,,,,"MET10001/04/20 00:53:02 METAR PASO 040953Z 36006KT 10SM OVC022 M06/M11 A2941 RMK AO2 SLP958 T10611106 TSNO","FM-15","7",,,,,,,,,,,,,,,,,,,,,,,,,,,,"2005-10-30"
"70362125516","2020-01-04T01:53:00","FM-15","7",,,,,,,,,,,,,,,,,,,,,,,,,,,,,,,,,,,,,,"29.42","15","20","0.00",,,,"81","29.42","OVC:08 18","29.39","10.00","19","360",,"5",,,,,,,,,,,,,,,,,,,,,,,,,,,,,,,,,,,,,"MET10001/04/20 01:53:02 METAR PASO 041053Z 36004KT 10SM OVC018 M07/M09 A2942 RMK AO2 SLP964 T10671094 TSNO","FM-15","7",,,,,,,,,,,,,,,,,,,,,,,,,,,,"2005-10-30"
"70362125516","2020-01-04T02:53:00","FM-15","7",,,,,,,,,,,,,,,,,,,,,,,,,,,,,,,,,,,,,,"29.44","14","18","0.00",,"-0.06","1","84","29.44","BKN:07 24 BKN:07 55","29.41","10.00","17","000",,"0",,,,,,,,,,,,,,,,,,,,,,,,,,,,,,,,,,,,,"MET13101/04/20 02:53:02 METAR PASO 041153Z 00000KT 10SM BKN024 BKN055 M08/M10 A2944 RMK AO2 SLP970 60000 T10781100 11061 21078 51019 TSNO","FM-15","7",,,,,,,,,,,,,,,,,,,,,,,,,,,,"2005-10-30"
"70362125516","2020-01-04T03:07:00","FM-16","7",,,,,,,,,,,,,,,,,,,,,,,,,,,,,,,,,,,,,,"29.44","12","15",,,,,"88",,"SCT:04 27","29.41","10.00","14","000",,"0",,,,,,,,,,,,,,,,,,,,,,,,,,,,,,,,,,,,,"MET09301/04/20 03:07:02 SPECI PASO 041207Z 00000KT 10SM SCT027 M09/M11 A2944 RMK AO2 T10941111 TSNO","FM-16","7",,,,,,,,,,,,,,,,,,,,,,,,,,,,"2005-10-30"
"70362125516","2020-01-04T03:53:00","FM-15","7",,,,,,,,,,,,,,,,,,,,,,,,,,,,,,,,,,,,,,"29.46","10","14","0.00",,,,"84","29.46","CLR:00","29.43","10.00","13","000",,"0",,,,,,,,,,,,,,,,,,,,,,,,,,,,,,,,,,,,,"MET09701/04/20 03:53:02 METAR PASO 041253Z 00000KT 10SM CLR M10/M12 A2946 RMK AO2 SLP975 T11001122 TSNO","FM-15","7",,,,,,,,,,,,,,,,,,,,,,,,,,,,"2005-10-30"
"70362125516","2020-01-04T04:53:00","FM-15","7",,,,,,,,,,,,,,,,,,,,,,,,,,,,,,,,,,,,,,"29.47","7","11","0.00",,,,"84","29.47","CLR:00","29.44","10.00","10","000",,"0",,,,,,,,,,,,,,,,,,,,,,,,,,,,,,,,,,,,,"MET10301/04/20 04:53:02 METAR PASO 041353Z 00000KT 10SM CLR M12/M14 A2947 RMK AO2 SLP980 I1001 T11171139 TSNO","FM-15","7",,,,,,,,,,,,,,,,,,,,,,,,,,,,"2005-10-30"
"70362125516","2020-01-04T05:45:00","FM-16","7",,,,,,,,,,,,,,,,,,,,,,,,,,,,,,,,,,,,,,"29.48","5","9",,"BR:1 ||",,,"84",,"CLR:00","29.45","2.50","8","000",,"0",,,,,,,,,,,,,,,,,,,,,,,,,,,,,,,,,,,,,"MET09601/04/20 05:45:02 SPECI PASO 041445Z 00000KT 2 1/2SM BR CLR M13/M15 A2948 RMK AO2 T11281150 TSNO","FM-16","7",,,,,,,,,,,,,,,,,,,,,,,,,,,,"2005-10-30"
"70362125516","2020-01-04T05:51:00","FM-16","6",,,,,,,,,,,,,,,,,,,,,,,,,,,,,,,,,,,,,,"29.48","5","9",,"BR:1 ||",,,"85",,"CLR:00","29.45","6.00","8","000",,"0",,,,,,,,,,,,,,,,,,,,,,,,,,,,,,,,,,,,,"MET08701/04/20 05:51:02 SPECI PASO 041451Z 00000KT 6SM BR CLR M13/M15 A2948 RMK AO2 TSNO FIBI","FM-16","6",,,,,,,,,,,,,,,,,,,,,,,,,,,,"2005-10-30"
"70362125516","2020-01-04T05:53:00","FM-15","7",,,,,,,,,,,,,,,,,,,,,,,,,,,,,,,,,,,,,,"29.48","5","9","0.00","BR:1 ||","-0.04","1","84","29.48","CLR:00","29.45","6.00","8","000",,"0",,,,,,,,,,,,,,,,,,,,,,,,,,,,,,,,,,,,,"MET11101/04/20 05:53:02 METAR PASO 041453Z 00000KT 6SM BR CLR M13/M15 A2948 RMK AO2 SLP983 I3001 T11281150 51014 TSNO","FM-15","7",,,,,,,,,,,,,,,,,,,,,,,,,,,,"2005-10-30"
"70362125516","2020-01-04T06:53:00","FM-15","7",,,,,,,,,,,,,,,,,,,,,,,,,,,,,,,,,,,,,,"29.50","4","8","0.00","BR:1 ||",,,"83","29.49","CLR:00","29.47","5.00","7","000",,"0",,,,,,,,,,,,,,,,,,,,,,,,,,,,,,,,,,,,,"MET10501/04/20 06:53:02 METAR PASO 041553Z 00000KT 5SM BR CLR M13/M16 A2950 RMK AO2 SLP988 I1000 T11331156 TSNO","FM-15","7",,,,,,,,,,,,,,,,,,,,,,,,,,,,"2005-10-30"
"70362125516","2020-01-04T07:42:00","FM-16","7",,,,,,,,,,,,,,,,,,,,,,,,,,,,,,,,,,,,,,"29.52","4","8",,"BR:1 ||",,,"83",,"CLR:00","29.49","1.75V","7","000",,"0",,,,,,,,,,,,,,,,,,,,,,,,,,,,,,,,,,,,,"MET11201/04/20 07:42:02 SPECI PASO 041642Z 00000KT 1 3/4SM BR CLR M13/M16 A2952 RMK AO2 VIS 1/2V5 I1000 T11331156 TSNO","FM-16","7",,,,,,,,,,,,,,,,,,,,,,,,,,,,"2005-10-30"
"70362125516","2020-01-04T07:53:00","FM-15","7",,,,,,,,,,,,,,,,,,,,,,,,,,,,,,,,,,,,,,"29.52","3","8","0.00","HZ:7 |FU |HZ",,,"80","29.52","CLR:00","29.49","2.50","7","000",,"0",,,,,,,,,,,,,,,,,,,,,,,,,,,,,,,,,,,,,"MET10901/04/20 07:53:02 METAR PASO 041653Z 00000KT 2 1/2SM HZ CLR M13/M16 A2952 RMK AO2 SLP995 I1000 T11331161 TSNO","FM-15","7",,,,,,,,,,,,,,,,,,,,,,,,,,,,"2005-10-30"
"70362125516","2020-01-04T08:02:00","FM-16","7",,,,,,,,,,,,,,,,,,,,,,,,,,,,,,,,,,,,,,"29.52","4","9",,"HZ:7 |FU |HZ",,,"80",,"VV:09 2","29.49","1.00","8","000",,"0",,,,,,,,,,,,,,,,,,,,,,,,,,,,,,,,,,,,,"MET09401/04/20 08:02:02 SPECI PASO 041702Z 00000KT 1SM HZ VV002 M13/M16 A2952 RMK AO2 T11281156 TSNO","FM-16","7",,,,,,,,,,,,,,,,,,,,,,,,,,,,"2005-10-30"
"70362125516","2020-01-04T08:09:00","FM-16","7",,,,,,,,,,,,,,,,,,,,,,,,,,,,,,,,,,,,,,"29.52","4","9",,"HZ:7 s |FU |HZ s",,,"80",,"VV:09 2","29.49","0.50s","8","000",,"0",,,,,,,,,,,,,,,,,,,,,,,,,,,,,,,,,,,,,"MET09601/04/20 08:09:02 SPECI PASO 041709Z 00000KT 1/2SM HZ VV002 M13/M16 A2952 RMK AO2 T11281156 TSNO","FM-16","7",,,,,,,,,,,,,,,,,,,,,,,,,,,,"2005-10-30"
"70362125516","2020-01-04T08:17:00","FM-16","7",,,,,,,,,,,,,,,,,,,,,,,,,,,,,,,,,,,,,,"29.52","5","9",,"BR:1 ||",,,"84",,"SCT:04 2","29.49","1.25V","8","000",,"0",,,,,,,,,,,,,,,,,,,,,,,,,,,,,,,,,,,,,"MET10901/04/20 08:17:02 SPECI PASO 041717Z 00000KT 1 1/4SM BR SCT002 M13/M15 A2952 RMK AO2 VIS 1/2V5 T11281150 TSNO","FM-16","7",,,,,,,,,,,,,,,,,,,,,,,,,,,,"2005-10-30"
"70362125516","2020-01-04T08:20:00","FM-16","7",,,,,,,,,,,,,,,,,,,,,,,,,,,,,,,,,,,,,,"29.52","5","9",,"BR:1 ||",,,"84",,"VV:09 2","29.49","0.75V","8","000",,"0",,,,,,,,,,,,,,,,,,,,,,,,,,,,,,,,,,,,,"MET10601/04/20 08:20:02 SPECI PASO 041720Z 00000KT 3/4SM BR VV002 M13/M15 A2952 RMK AO2 VIS 1/4V5 T11281150 TSNO","FM-16","7",,,,,,,,,,,,,,,,,,,,,,,,,,,,"2005-10-30"
"70362125516","2020-01-04T08:27:00","FM-16","7",,,,,,,,,,,,,,,,,,,,,,,,,,,,,,,,,,,,,,"29.52","5","8",,"FZ:8 FG:2 |FG |",,,"87",,"VV:09 1","29.49","0.25","7","000",,"0",,,,,,,,,,,,,,,,,,,,,,,,,,,,,,,,,,,,,"MET09801/04/20 08:27:02 SPECI PASO 041727Z 00000KT 1/4SM FZFG VV001 M13/M15 A2952 RMK AO2 T11331150 TSNO","FM-16","7",,,,,,,,,,,,,,,,,,,,,,,,,,,,"2005-10-30"
"70362125516","2020-01-04T08:39:00","FM-16","6",,,,,,,,,,,,,,,,,,,,,,,,,,,,,,,,,,,,,,"29.53","5","8",,"FZ:8 FG:2 |FG |",,,"87",,"VV:09 1","29.50","0.50","7","000",,"0",,,,,,,,,,,,,,,,,,,,,,,,,,,,,,,,,,,,,"MET09801/04/20 08:39:02 SPECI PASO 041739Z 00000KT 1/2SM FZFG VV001 M13/M15 A2953 RMK AO2 T11331150 TSNO","FM-16","6",,,,,,,,,,,,,,,,,,,,,,,,,,,,"2005-10-30"
"70362125516","2020-01-04T08:50:00","FM-16","7",,,,,,,,,,,,,,,,,,,,,,,,,,,,,,,,,,,,,,"29.53","3","9",,"BR:1 ||",,,"78",,"BKN:07 1","29.50","3.00","8","000",,"0",,,,,,,,,,,,,,,,,,,,,,,,,,,,,,,,,,,,,"MET08501/04/20 08:50:02 SPECI PASO 041750Z 00000KT 3SM BR BKN001 M13/M16 A2953 RMK AO2 TSNO","FM-16","7",,,,,,,,,,,,,,,,,,,,,,,,,,,,"2005-10-30"
"70362125516","2020-01-04T08:53:00","FM-15","7",,,,,,,,,,,,,,,,,,,,,,,,,,,,,,,,,,,,,,"29.53","5","8","0.00","BR:1 ||","-0.05","3","87","29.53","BKN:07 1","29.50","3.00","7","000",,"0",,,,,,,,,,,,,,,,,,,,,,,,,,,,,,,,,,,,,"MET12601/04/20 08:53:02 METAR PASO 041753Z 00000KT 3SM BR BKN001 M13/M15 A2953 RMK AO2 SLP000 I6001 T11331150 11078 21133 53017 TSNO","FM-15","7",,,,,,,,,,,,,,,,,,,,,,,,,,,,"2005-10-30"
"70362125516","2020-01-04T09:06:00","FM-16","7",,,,,,,,,,,,,,,,,,,,,,,,,,,,,,,,,,,,,,"29.54","4","8",,,,,"83",,"FEW:02 2","29.51","9.00","7","000",,"0",,,,,,,,,,,,,,,,,,,,,,,,,,,,,,,,,,,,,"MET09201/04/20 09:06:02 SPECI PASO 041806Z 00000KT 9SM FEW002 M13/M16 A2954 RMK AO2 T11331156 TSNO","FM-16","7",,,,,,,,,,,,,,,,,,,,,,,,,,,,"2005-10-30"
"70362125516","2020-01-04T09:53:00","FM-15","7",,,,,,,,,,,,,,,,,,,,,,,,,,,,,,,,,,,,,,"29.55","5","9","0.00",,,,"84","29.55","CLR:00","29.52","10.00","8","000",,"0",,,,,,,,,,,,,,,,,,,,,,,,,,,,,,,,,,,,,"MET09701/04/20 09:53:02 METAR PASO 041853Z 00000KT 10SM CLR M13/M15 A2955 RMK AO2 SLP006 T11281150 TSNO","FM-15","7",,,,,,,,,,,,,,,,,,,,,,,,,,,,"2005-10-30"
"70362125516","2020-01-04T10:53:00","FM-15","7",,,,,,,,,,,,,,,,,,,,,,,,,,,,,,,,,,,,,,"29.57","4","9","0.00",,,,"80","29.57","CLR:00","29.54","10.00","8","000",,"0",,,,,,,,,,,,,,,,,,,,,,,,,,,,,,,,,,,,,"MET09701/04/20 10:53:02 METAR PASO 041953Z 00000KT 10SM CLR M13/M16 A2957 RMK AO2 SLP014 T11281156 TSNO","FM-15","7",,,,,,,,,,,,,,,,,,,,,,,,,,,,"2005-10-30"
"70362125516","2020-01-04T11:53:00","FM-15","7",,,,,,,,,,,,,,,,,,,,,,,,,,,,,,,,,,,,,,"29.58","6","10","0.00",,"-0.05","1","84","29.58","CLR:00","29.55","10.00","9","000",,"0",,,,,,,,,,,,,,,,,,,,,,,,,,,,,,,,,,,,,"MET10301/04/20 11:53:02 METAR PASO 042053Z 00000KT 10SM CLR M12/M14 A2958 RMK AO2 SLP017 T11221144 51017 TSNO","FM-15","7",,,,,,,,,,,,,,,,,,,,,,,,,,,,"2005-10-30"
"70362125516","2020-01-04T12:53:00","FM-15","7",,,,,,,,,,,,,,,,,,,,,,,,,,,,,,,,,,,,,,"29.59","12","13","0.00",,,,"96","29.59","CLR:00","29.56","10.00","13","000",,"0",,,,,,,,,,,,,,,,,,,,,,,,,,,,,,,,,,,,,"MET09901/04/20 12:53:02 METAR PASO 042153Z 00000KT 10SM CLR M11/M11 A2959 RMK AO2 SLP020 T11061111 TSNO $","FM-15","7",,,,,,,,,,,,,,,,,,,,,,,,,,,,"2005-10-30"
"70362125516","2020-01-04T13:53:00","FM-15","7",,,,,,,,,,,,,,,,,,,,,,,,,,,,,,,,,,,,,,"29.61","10","13","0.00",,,,"88","29.61","CLR:00","29.58","10.00","12","000",,"0",,,,,,,,,,,,,,,,,,,,,,,,,,,,,,,,,,,,,"MET09901/04/20 13:53:02 METAR PASO 042253Z 00000KT 10SM CLR M11/M12 A2961 RMK AO2 SLP027 T11061122 TSNO $","FM-15","7",,,,,,,,,,,,,,,,,,,,,,,,,,,,"2005-10-30"
"70362125516","2020-01-04T14:53:00","FM-15","7",,,,,,,,,,,,,,,,,,,,,,,,,,,,,,,,,,,,,,"29.62","9","13","0.00",,,,"84","29.62","CLR:00","29.59","8.00","12","000",,"0",,,,,,,,,,,,,,,,,,,,,,,,,,,,,,,,,,,,,"MET11001/04/20 14:53:02 METAR PASO 042353Z 00000KT 8SM CLR M11/M13 A2962 RMK AO2 SLP029 T11061128 11100 21133 TSNO $","FM-15","7",,,,,,,,,,,,,,,,,,,,,,,,,,,,"2005-10-30"
"70362125516","2020-01-04T15:53:00","FM-15","7",,,,,,,,,,,,,,,,,,,,,,,,,,,,,,,,,,,,,,"29.63","6","11","0.00",,,,"81","29.63","CLR:00","29.60","10.00","10","000",,"0",,,,,,,,,,,,,,,,,,,,,,,,,,,,,,,,,,,,,"MET09901/04/20 15:53:01 METAR PASO 050053Z 00000KT 10SM CLR M12/M14 A2963 RMK AO2 SLP033 T11171144 TSNO $","FM-15","7",,,,,,,,,,,,,,,,,,,,,,,,,,,,"2005-10-30"
"70362125516","2020-01-04T16:53:00","FM-15","7",,,,,,,,,,,,,,,,,,,,,,,,,,,,,,,,,,,,,,"29.64","5","9","0.00",,,,"84","29.64","CLR:00","29.61","10.00","8","000",,"0",,,,,,,,,,,,,,,,,,,,,,,,,,,,,,,,,,,,,"MET10501/04/20 16:53:01 METAR PASO 050153Z 00000KT 10SM CLR M13/M15 A2964 RMK AO2 SLP037 I1000 T11281150 TSNO $","FM-15","7",,,,,,,,,,,,,,,,,,,,,,,,,,,,"2005-10-30"
"70362125516","2020-01-04T17:53:00","FM-15","7",,,,,,,,,,,,,,,,,,,,,,,,,,,,,,,,,,,,,,"29.65","3","8","0.00",,"-0.03","1","80","29.65","CLR:00","29.62","9.00","7","000",,"0",,,,,,,,,,,,,,,,,,,,,,,,,,,,,,,,,,,,,"MET11601/04/20 17:53:01 METAR PASO 050253Z 00000KT 9SM CLR M13/M16 A2965 RMK AO2 SLP039 I1000 I3000 T11331161 51010 TSNO $","FM-15","7",,,,,,,,,,,,,,,,,,,,,,,,,,,,"2005-10-30"
"70362125516","2020-01-04T18:53:00","FM-15","7",,,,,,,,,,,,,,,,,,,,,,,,,,,,,,,,,,,,,,"29.65","3","7","0.00",,,,"84","29.65","CLR:00","29.62","10.00","6","000",,"0",,,,,,,,,,,,,,,,,,,,,,,,,,,,,,,,,,,,,"MET10501/04/20 18:53:01 METAR PASO 050353Z 00000KT 10SM CLR M14/M16 A2965 RMK AO2 SLP042 I1000 T11391161 TSNO $","FM-15","7",,,,,,,,,,,,,,,,,,,,,,,,,,,,"2005-10-30"
"70362125516","2020-01-04T19:53:00","FM-15","7",,,,,,,,,,,,,,,,,,,,,,,,,,,,,,,,,,,,,,"29.67","2","7","0.00",,,,"80","29.67","CLR:00","29.64","9.00","6","000",,"0",,,,,,,,,,,,,,,,,,,,,,,,,,,,,,,,,,,,,"MET10401/04/20 19:53:02 METAR PASO 050453Z 00000KT 9SM CLR M14/M17 A2967 RMK AO2 SLP048 I1000 T11391167 TSNO $","FM-15","7",,,,,,,,,,,,,,,,,,,,,,,,,,,,"2005-10-30"
"70362125516","2020-01-04T20:53:00","FM-15","7",,,,,,,,,,,,,,,,,,,,,,,,,,,,,,,,,,,,,,"29.69","2","6","0.00",,"-0.04","3","83","29.69","CLR:00","29.66","10.00","5","000",,"0",,,,,,,,,,,,,,,,,,,,,,,,,,,,,,,,,,,,,"MET12301/04/20 20:53:02 METAR PASO 050553Z 00000KT 10SM CLR M14/M17 A2969 RMK AO2 SLP054 I6000 T11441167 11106 21144 53014 TSNO $","FM-15","7",,,,,,,,,,,,,,,,,,,,,,,,,,,,"2005-10-30"
"70362125516","2020-01-04T21:53:00","FM-15","7",,,,,,,,,,,,,,,,,,,,,,,,,,,,,,,,,,,,,,"29.68","3","7","0.00",,,,"84","29.68","SCT:04 36","29.65","10.00","6","000",,"0",,,,,,,,,,,,,,,,,,,,,,,,,,,,,,,,,,,,,"MET10201/04/20 21:53:02 METAR PASO 050653Z 00000KT 10SM SCT036 M14/M16 A2968 RMK AO2 SLP052 T11391161 TSNO $","FM-15","7",,,,,,,,,,,,,,,,,,,,,,,,,,,,"2005-10-30"
"70362125516","2020-01-04T22:53:00","FM-15","7",,,,,,,,,,,,,,,,,,,,,,,,,,,,,,,,,,,,,,"29.69","2","6","0.00",,,,"83","29.69","CLR:00","29.66","10.00","5","000",,"0",,,,,,,,,,,,,,,,,,,,,,,,,,,,,,,,,,,,,"MET09901/04/20 22:53:02 METAR PASO 050753Z 00000KT 10SM CLR M14/M17 A2969 RMK AO2 SLP055 T11441167 TSNO $","FM-15","7",,,,,,,,,,,,,,,,,,,,,,,,,,,,"2005-10-30"
"70362125516","2020-01-04T23:53:00","FM-15","7",,,,,,,,,,,,,,,,,,,,,,,,,,,,,,,,,,,,,,"29.70","1","5","0.00",,"-0.01","3","83","29.70","CLR:00","29.67","10.00","4","000",,"0",,,,,,,,,,,,,,,,,,,,,,,,,,,,,,,,,,,,,"MET11501/04/20 23:53:02 METAR PASO 050853Z 00000KT 10SM CLR M15/M17 A2970 RMK AO2 SLP057 T11501172 410611150 53003 TSNO $","FM-15","7",,,,,,,,,,,,,,,,,,,,,,,,,,,,"2005-10-30"
"70362125516","2020-01-04T23:59:00","SOD  ","6",,,,,,,,,,,,,,,,"13",,,"29.54",,"0.5","0","-13.2","52","21","5","020","12","0.00",,,"010","10","FZFG BR HZ FG",,,,,,,,,,,,,,,,,,,,,,,,,,,,,,,,,,,,,,,,,,,,,,,,,,,,,,,,"SOD73024 HR PRECIPITATION (IN):0.00  24 HR MAX TEMP (F):21 24 HR MAX TEMP TIME (LST):0113 24 HR MIN TEMP (F):5  24 HR MIN TEMP TIME (LST):2359 AVERAGE STATION PRESSURE:29.535 MINIMUM SEA LEVEL PRESSURE:29.39 TIME OF OCCURRENCE:0036 PEAK WIND SPEED (MPH):12  PEAK WIND DIR (DEG):20  PEAK WIND TIME (LST):0000  FASTEST 2MIN SPEED (MPH):10 FASTEST 2MIN DIR (DEG):10  FASTEST 2MIN TIME (LST):0000 AVERAGE WIND SPEED (MPH):0.5  24 HR AVG TEMP (F):13 HEATING DEGREE DAYS:52  COOLING DEGREE DAYS:0   LATEST DAY MAX TEMP (0700-1900 LST):14  LATEST NIGHT MIN TEMP(1900-0800 LST):8  HOURLY INCREMENTAL PRECIPITATION VALUES (IN):.00 0.00 0.00 0.00 0.00 0.00 0.00 0.00 0.00 0.00 0.00 0.00 0.00 0.00 0.00 0.00 0.00 0.00 0.00 0.00 0.00 0.00 0.00 0.00","SOD  ","6",,,,,,,,,,,,,,,,,,,,,,,,,"1003","1622",,"2005-10-30"
"70362125516","2020-01-05T00:53:00","FM-15","7",,,,,,,,,,,,,,,,,,,,,,,,,,,,,,,,,,,,,,"29.71","1","5","0.00",,,,"83","29.70","FEW:02 36","29.68","10.00","4","000",,"0",,,,,,,,,,,,,,,,,,,,,,,,,,,,,,,,,,,,,"MET10201/05/20 00:53:02 METAR PASO 050953Z 00000KT 10SM FEW036 M15/M17 A2971 RMK AO2 SLP059 T11501172 TSNO $","FM-15","7",,,,,,,,,,,,,,,,,,,,,,,,,,,,"2005-10-30"
"70362125516","2020-01-05T01:53:00","FM-15","7",,,,,,,,,,,,,,,,,,,,,,,,,,,,,,,,,,,,,,"29.71","3","7","0.00",,,,"84","29.70","SCT:04 40","29.68","10.00","6","000",,"0",,,,,,,,,,,,,,,,,,,,,,,,,,,,,,,,,,,,,"MET10201/05/20 01:53:02 METAR PASO 051053Z 00000KT 10SM SCT040 M14/M16 A2971 RMK AO2 SLP059 T11391161 TSNO $","FM-15","7",,,,,,,,,,,,,,,,,,,,,,,,,,,,"2005-10-30"
"70362125516","2020-01-05T02:53:00","FM-15","7",,,,,,,,,,,,,,,,,,,,,,,,,,,,,,,,,,,,,,"29.71","1","5","0.00",,"-0.01","3","83","29.71","FEW:02 29","29.68","9.00","4","190",,"3",,,,,,,,,,,,,,,,,,,,,,,,,,,,,,,,,,,,,"MET11901/05/20 02:53:02 METAR PASO 051153Z 19003KT 9SM FEW029 M15/M17 A2971 RMK AO2 SLP062 T11501172 11133 21150 53005 TSNO $","FM-15","7",,,,,,,,,,,,,,,,,,,,,,,,,,,,"2005-10-30"
"70362125516","2020-01-05T03:53:00","FM-15","7",,,,,,,,,,,,,,,,,,,,,,,,,,,,,,,,,,,,,,"29.72","2","6","0.00",,,,"83","29.72","OVC:08 33","29.69","10.00","5","000",,"0",,,,,,,,,,,,,,,,,,,,,,,,,,,,,,,,,,,,,"MET10201/05/20 03:53:02 METAR PASO 051253Z 00000KT 10SM OVC033 M14/M17 A2972 RMK AO2 SLP063 T11441167 TSNO $","FM-15","7",,,,,,,,,,,,,,,,,,,,,,,,,,,,"2005-10-30"
"70362125516","2020-01-05T04:53:00","FM-15","7",,,,,,,,,,,,,,,,,,,,,,,,,,,,,,,,,,,,,,"29.72","7","10","T","-SN:03 BR:1 |SN |",,,"87","29.72","BKN:07 25 OVC:08 31","29.69","3.00","9","000",,"0",,,,,,,,,,,,,,,,,,,,,,,,,,,,,,,,,,,,,"MET12701/05/20 04:53:02 METAR PASO 051353Z 00000KT 3SM -SN BR BKN025 OVC031 M12/M14 A2972 RMK AO2 SNB40 SLP063 P0000 T11221139 TSNO $","FM-15","7",,,,,,,,,,,,,,,,,,,,,,,,,,,,"2005-10-30"
"70362125516","2020-01-05T05:53:00","FM-15","7",,,,,,,,,,,,,,,,,,,,,,,,,,,,,,,,,,,,,,"29.70","9","12","T",,"+0.01","8","87","29.70","OVC:08 24","29.67","10.00","11","000",,"0",,,,,,,,,,,,,,,,,,,,,,,,,,,,,,,,,,,,,"MET12601/05/20 05:53:02 METAR PASO 051453Z 00000KT 10SM OVC024 M11/M13 A2970 RMK AO2 SNE28 SLP058 P0000 60000 T11111128 58004 TSNO $","FM-15","7",,,,,,,,,,,,,,,,,,,,,,,,,,,,"2005-10-30"
"70362125516","2020-01-05T06:53:00","FM-15","7",,,,,,,,,,,,,,,,,,,,,,,,,,,,,,,,,,,,,,"29.70","11","14","0.00",,,,"88","29.70","OVC:08 26","29.67","10.00","13","000",,"0",,,,,,,,,,,,,,,,,,,,,,,,,,,,,,,,,,,,,"MET10201/05/20 06:53:02 METAR PASO 051553Z 00000KT 10SM OVC026 M10/M12 A2970 RMK AO2 SLP058 T11001117 TSNO $","FM-15","7",,,,,,,,,,,,,,,,,,,,,,,,,,,,"2005-10-30"
"70362125516","2020-01-05T07:53:00","FM-15","7",,,,,,,,,,,,,,,,,,,,,,,,,,,,,,,,,,,,,,"29.70","13","16","T",,,,"88","29.70","BKN:07 19 OVC:08 24","29.67","9.00","15","000",,"0",,,,,,,,,,,,,,,,,,,,,,,,,,,,,,,,,,,,,"MET12301/05/20 07:53:02 METAR PASO 051653Z 00000KT 9SM BKN019 OVC024 M09/M11 A2970 RMK AO2 SNB36E53 SLP059 P0000 T10891106 TSNO $","FM-15","7",,,,,,,,,,,,,,,,,,,,,,,,,,,,"2005-10-30"
"70362125516","2020-01-05T08:53:00","FM-15","7",,,,,,,,,,,,,,,,,,,,,,,,,,,,,,,,,,,,,,"29.72","13","17","T",,"-0.02","3","84","29.72","SCT:04 23 OVC:08 29","29.69","10.00","16","000",,"0",,,,,,,,,,,,,,,,,,,,,,,,,,,,,,,,,,,,,"MET14801/05/20 08:53:02 METAR PASO 051753Z 00000KT 10SM SCT023 OVC029 M08/M11 A2972 RMK AO2 SNB02E41 SLP065 P0000 60000 T10831106 11083 21150 53006 TSNO $","FM-15","7",,,,,,,,,,,,,,,,,,,,,,,,,,,,"2005-10-30"
"70362125516","2020-01-05T09:33:00","FM-16","7",,,,,,,,,,,,,,,,,,,,,,,,,,,,,,,,,,,,,,"29.73","14","17",,,,,"88",,"OVC:08 30","29.70","10.00","16","000",,"0",,,,,,,,,,,,,,,,,,,,,,,,,,,,,,,,,,,,,"MET09501/05/20 09:33:02 SPECI PASO 051833Z 00000KT 10SM OVC030 M08/M10 A2973 RMK AO2 T10831100 TSNO $","FM-16","7",,,,,,,,,,,,,,,,,,,,,,,,,,,,"2005-10-30"
"70362125516","2020-01-05T09:53:00","FM-15","7",,,,,,,,,,,,,,,,,,,,,,,,,,,,,,,,,,,,,,"29.73","14","17","0.00",,,,"88","29.73","OVC:08 30","29.70","10.00","16","000",,"0",,,,,,,,,,,,,,,,,,,,,,,,,,,,,,,,,,,,,"MET10201/05/20 09:53:02 METAR PASO 051853Z 00000KT 10SM OVC030 M08/M10 A2973 RMK AO2 SLP067 T10831100 TSNO $","FM-15","7",,,,,,,,,,,,,,,,,,,,,,,,,,,,"2005-10-30"
"70362125516","2020-01-05T10:24:00","FM-16","7",,,,,,,,,,,,,,,,,,,,,,,,,,,,,,,,,,,,,,"29.74","14","17","T","-SN:03 BR:1 |SN |",,,"88",,"BKN:07 26 OVC:08 32","29.71","2.50","16","000",,"0",,,,,,,,,,,,,,,,,,,,,,,,,,,,,,,,,,,,,"MET12401/05/20 10:24:02 SPECI PASO 051924Z 00000KT 2 1/2SM -SN BR BKN026 OVC032 M08/M10 A2974 RMK AO2 SNB01 P0000 T10831100 TSNO $","FM-16","7",,,,,,,,,,,,,,,,,,,,,,,,,,,,"2005-10-30"
"70362125516","2020-01-05T10:34:00","FM-16","7",,,,,,,,,,,,,,,,,,,,,,,,,,,,,,,,,,,,,,"29.74","15","18","T","-SN:03 BR:1 |SN |",,,"88",,"OVC:08 26","29.71","1.25","17","000",,"0",,,,,,,,,,,,,,,,,,,,,,,,,,,,,,,,,,,,,"MET11701/05/20 10:34:02 SPECI PASO 051934Z 00000KT 1 1/4SM -SN BR OVC026 M08/M09 A2974 RMK AO2 SNB01 P0000 T10781094 TSNO $","FM-16","7",,,,,,,,,,,,,,,,,,,,,,,,,,,,"2005-10-30"
"70362125516","2020-01-05T10:51:00","FM-16","7",,,,,,,,,,,,,,,,,,,,,,,,,,,,,,,,,,,,,,"29.74","16","18","T","-SN:03 BR:1 |SN |",,,"93",,"OVC:08 27","29.71","3.00","17","000",,"0",,,,,,,,,,,,,,,,,,,,,,,,,,,,,,,,,,,,,"MET10301/05/20 10:51:02 SPECI PASO 051951Z 00000KT 3SM -SN BR OVC027 M08/M09 A2974 RMK AO2 SNB01 P0000 TSNO $","FM-16","7",,,,,,,,,,,,,,,,,,,,,,,,,,,,"2005-10-30"
"70362125516","2020-01-05T10:53:00","FM-15","7",,,,,,,,,,,,,,,,,,,,,,,,,,,,,,,,,,,,,,"29.74","15","18","T","-SN:03 BR:1 |SN |",,,"88","29.74","OVC:08 26","29.71","3.00","17","000",,"0",,,,,,,,,,,,,,,,,,,,,,,,,,,,,,,,,,,,,"MET12001/05/20 10:53:02 METAR PASO 051953Z 00000KT 3SM -SN BR OVC026 M08/M09 A2974 RMK AO2 SNB01 SLP072 P0000 T10781094 TSNO $","FM-15","7",,,,,,,,,,,,,,,,,,,,,,,,,,,,"2005-10-30"
"70362125516","2020-01-05T11:53:00","FM-15","7",,,,,,,,,,,,,,,,,,,,,,,,,,,,,,,,,,,,,,"29.75","17","19","T",,"-0.02","1","92","29.75","OVC:08 29","29.72","10.00","18","170",,"3",,,,,,,,,,,,,,,,,,,,,,,,,,,,,,,,,,,,,"MET12601/05/20 11:53:02 METAR PASO 052053Z 17003KT 10SM OVC029 M07/M08 A2975 RMK AO2 SNE10 SLP075 P0000 60000 T10721083 51008 TSNO $","FM-15","7",,,,,,,,,,,,,,,,,,,,,,,,,,,,"2005-10-30"
"70362125516","2020-01-05T12:07:00","FM-16","7",,,,,,,,,,,,,,,,,,,,,,,,,,,,,,,,,,,,,,"29.75","17","19",,,,,"92",,"BKN:07 31 OVC:08 110","29.72","10.00","18","180",,"6",,,,,,,,,,,,,,,,,,,,,,,,,,,,,,,,,,,,,"MET10201/05/20 12:07:02 SPECI PASO 052107Z 18005KT 10SM BKN031 OVC110 M07/M08 A2975 RMK AO2 T10721083 TSNO $","FM-16","7",,,,,,,,,,,,,,,,,,,,,,,,,,,,"2005-10-30"
"70362125516","2020-01-05T12:53:00","FM-15","7",,,,,,,,,,,,,,,,,,,,,,,,,,,,,,,,,,,,,,"29.75","16","18","0.00",,,,"92","29.75","BKN:07 33","29.72","10.00","17","190",,"5",,,,,,,,,,,,,,,,,,,,,,,,,,,,,,,,,,,,,"MET10201/05/20 12:53:02 METAR PASO 052153Z 19004KT 10SM BKN033 M08/M09 A2975 RMK AO2 SLP076 T10781089 TSNO $","FM-15","7",,,,,,,,,,,,,,,,,,,,,,,,,,,,"2005-10-30"
"70362125516","2020-01-05T13:53:00","FM-15","7",,,,,,,,,,,,,,,,,,,,,,,,,,,,,,,,,,,,,,"29.76","16","19","0.00",,,,"88","29.76","OVC:08 34","29.73","10.00","18","200",,"5",,,,,,,,,,,,,,,,,,,,,,,,,,,,,,,,,,,,,"MET10201/05/20 13:53:02 METAR PASO 052253Z 20004KT 10SM OVC034 M07/M09 A2976 RMK AO2 SLP078 T10721089 TSNO $","FM-15","7",,,,,,,,,,,,,,,,,,,,,,,,,,,,"2005-10-30"
"70362125516","2020-01-05T14:26:00","FM-16","7",,,,,,,,,,,,,,,,,,,,,,,,,,,,,,,,,,,,,,"29.76","15","20",,,,,"81",,"BKN:07 29 BKN:07 35 OVC:08 43","29.73","10.00","19","180",,"3",,,,,,,,,,,,,,,,,,,,,,,,,,,,,,,,,,,,,"MET10901/05/20 14:26:02 SPECI PASO 052326Z 18003KT 10SM BKN029 BKN035 OVC043 M07/M09 A2976 RMK AO2 T10671094 TSNO $","FM-16","7",,,,,,,,,,,,,,,,,,,,,,,,,,,,"2005-10-30"
"70362125516","2020-01-05T14:51:00","FM-16","6",,,,,,,,,,,,,,,,,,,,,,,,,,,,,,,,,,,,,,"29.77","16","19",,,,,"86",,"BKN:07 30 BKN:07 36 OVC:08 43","29.74","10.00","18","VRB",,"3",,,,,,,,,,,,,,,,,,,,,,,,,,,,,,,,,,,,,"MET10401/05/20 14:51:02 SPECI PASO 052351Z VRB03KT 10SM BKN030 BKN036 OVC043 M07/M09 A2977 RMK AO2 TSNO $ FIBI","FM-16","6",,,,,,,,,,,,,,,,,,,,,,,,,,,,"2005-10-30"
"70362125516","2020-01-05T14:53:00","FM-15","7",,,,,,,,,,,,,,,,,,,,,,,,,,,,,,,,,,,,,,"29.77","16","21","0.00",,"-0.02","3","81","29.77","BKN:07 30 OVC:08 40","29.74","10.00","20","000",,"0",,,,,,,,,,,,,,,,,,,,,,,,,,,,,,,,,,,,,"MET13301/05/20 14:53:02 METAR PASO 052353Z 00000KT 10SM BKN030 OVC040 M06/M09 A2977 RMK AO2 SLP081 60000 T10611089 11061 21083 53006 TSNO $","FM-15","7",,,,,,,,,,,,,,,,,,,,,,,,,,,,"2005-10-30"
"70362125516","2020-01-05T15:12:00","FM-16","7",,,,,,,,,,,,,,,,,,,,,,,,,,,,,,,,,,,,,,"29.77","17","21",,,,,"85",,"BKN:07 28 OVC:08 38","29.74","10.00","20","180",,"3",,,,,,,,,,,,,,,,,,,,,,,,,,,,,,,,,,,,,"MET10201/05/20 15:12:01 SPECI PASO 060012Z 18003KT 10SM BKN028 OVC038 M06/M08 A2977 RMK AO2 T10611083 TSNO $","FM-16","7",,,,,,,,,,,,,,,,,,,,,,,,,,,,"2005-10-30"
"70362125516","2020-01-05T15:53:00","FM-15","7",,,,,,,,,,,,,,,,,,,,,,,,,,,,,,,,,,,,,,"29.78","17","21","0.00",,,,"85","29.78","BKN:07 28 OVC:08 34","29.75","10.00","20","000",,"0",,,,,,,,,,,,,,,,,,,,,,,,,,,,,,,,,,,,,"MET10901/05/20 15:53:01 METAR PASO 060053Z 00000KT 10SM BKN028 OVC034 M06/M08 A2978 RMK AO2 SLP084 T10611083 TSNO $","FM-15","7",,,,,,,,,,,,,,,,,,,,,,,,,,,,"2005-10-30"
"70362125516","2020-01-05T16:53:00","FM-15","7",,,,,,,,,,,,,,,,,,,,,,,,,,,,,,,,,,,,,,"29.79","16","19","0.00",,,,"88","29.79","BKN:07 30 OVC:08 37","29.76","10.00","18","000",,"0",,,,,,,,,,,,,,,,,,,,,,,,,,,,,,,,,,,,,"MET10901/05/20 16:53:01 METAR PASO 060153Z 00000KT 10SM BKN030 OVC037 M07/M09 A2979 RMK AO2 SLP089 T10721089 TSNO $","FM-15","7",,,,,,,,,,,,,,,,,,,,,,,,,,,,"2005-10-30"
"70362125516","2020-01-05T17:06:00","FM-16","7",,,,,,,,,,,,,,,,,,,,,,,,,,,,,,,,,,,,,,"29.80","16","19",,,,,"88",,"BKN:07 26 OVC:08 35","29.77","10.00","18","000",,"0",,,,,,,,,,,,,,,,,,,,,,,,,,,,,,,,,,,,,"MET10201/05/20 17:06:01 SPECI PASO 060206Z 00000KT 10SM BKN026 OVC035 M07/M09 A2980 RMK AO2 T10721089 TSNO $","FM-16","7",,,,,,,,,,,,,,,,,,,,,,,,,,,,"2005-10-30"
"70362125516","2020-01-05T17:15:00","FM-16","7",,,,,,,,,,,,,,,,,,,,,,,,,,,,,,,,,,,,,,"29.80","16","19",,,,,"88",,"FEW:02 24 SCT:04 30 OVC:08 37","29.77","10.00","18","000",,"0",,,,,,,,,,,,,,,,,,,,,,,,,,,,,,,,,,,,,"MET10901/05/20 17:15:01 SPECI PASO 060215Z 00000KT 10SM FEW024 SCT030 OVC037 M07/M09 A2980 RMK AO2 T10721089 TSNO $","FM-16","7",,,,,,,,,,,,,,,,,,,,,,,,,,,,"2005-10-30"
"70362125516","2020-01-05T17:53:00","FM-15","7",,,,,,,,,,,,,,,,,,,,,,,,,,,,,,,,,,,,,,"29.80","15","18","0.00",,"-0.03","1","88","29.80","BKN:07 35 BKN:07 42","29.77","10.00","17","000",,"0",,,,,,,,,,,,,,,,,,,,,,,,,,,,,,,,,,,,,"MET11501/05/20 17:53:01 METAR PASO 060253Z 00000KT 10SM BKN035 BKN042 M08/M09 A2980 RMK AO2 SLP090 T10781094 51009 TSNO $","FM-15","7",,,,,,,,,,,,,,,,,,,,,,,,,,,,"2005-10-30"
"70362125516","2020-01-05T18:26:00","FM-16","7",,,,,,,,,,,,,,,,,,,,,,,,,,,,,,,,,,,,,,"29.80","16","19",,,,,"88",,"BKN:07 28 OVC:08 35","29.77","10.00","18","000",,"0",,,,,,,,,,,,,,,,,,,,,,,,,,,,,,,,,,,,,"MET10201/05/20 18:26:01 SPECI PASO 060326Z 00000KT 10SM BKN028 OVC035 M07/M09 A2980 RMK AO2 T10721089 TSNO $","FM-16","7",,,,,,,,,,,,,,,,,,,,,,,,,,,,"2005-10-30"
"70362125516","2020-01-05T18:53:00","FM-15","7",,,,,,,,,,,,,,,,,,,,,,,,,,,,,,,,,,,,,,"29.80","16","19","0.00",,,,"88","29.80","BKN:07 28 OVC:08 34","29.77","10.00","18","000",,"0",,,,,,,,,,,,,,,,,,,,,,,,,,,,,,,,,,,,,"MET10901/05/20 18:53:01 METAR PASO 060353Z 00000KT 10SM BKN028 OVC034 M07/M09 A2980 RMK AO2 SLP092 T10721089 TSNO $","FM-15","7",,,,,,,,,,,,,,,,,,,,,,,,,,,,"2005-10-30"
"70362125516","2020-01-05T19:03:00","FM-16","7",,,,,,,,,,,,,,,,,,,,,,,,,,,,,,,,,,,,,,"29.80","16","19",,,,,"88",,"BKN:07 30 OVC:08 36","29.77","10.00","18","000",,"0",,,,,,,,,,,,,,,,,,,,,,,,,,,,,,,,,,,,,"MET10201/05/20 19:03:01 SPECI PASO 060403Z 00000KT 10SM BKN030 OVC036 M07/M09 A2980 RMK AO2 T10721089 TSNO $","FM-16","7",,,,,,,,,,,,,,,,,,,,,,,,,,,,"2005-10-30"
"70362125516","2020-01-05T19:53:00","FM-15","7",,,,,,,,,,,,,,,,,,,,,,,,,,,,,,,,,,,,,,"29.80","15","19","0.00",,,,"84","29.80","OVC:08 34","29.77","10.00","18","000",,"0",,,,,,,,,,,,,,,,,,,,,,,,,,,,,,,,,,,,,"MET10201/05/20 19:53:02 METAR PASO 060453Z 00000KT 10SM OVC034 M07/M09 A2980 RMK AO2 SLP092 T10721094 TSNO $","FM-15","7",,,,,,,,,,,,,,,,,,,,,,,,,,,,"2005-10-30"
"70362125516","2020-01-05T20:53:00","FM-15","7",,,,,,,,,,,,,,,,,,,,,,,,,,,,,,,,,,,,,,"29.81","15","18","0.00",,"-0.02","3","88","29.81","OVC:08 34","29.78","10.00","17","000",,"0",,,,,,,,,,,,,,,,,,,,,,,,,,,,,,,,,,,,,"MET12001/05/20 20:53:02 METAR PASO 060553Z 00000KT 10SM OVC034 M08/M09 A2981 RMK AO2 SLP096 T10781094 11061 21083 53006 TSNO $","FM-15","7",,,,,,,,,,,,,,,,,,,,,,,,,,,,"2005-10-30"
"70362125516","2020-01-05T21:22:00","FM-16","7",,,,,,,,,,,,,,,,,,,,,,,,,,,,,,,,,,,,,,"29.81","15","19",,,,,"84",,"BKN:07 27 OVC:08 34","29.78","10.00","18","000",,"0",,,,,,,,,,,,,,,,,,,,,,,,,,,,,,,,,,,,,"MET10201/05/20 21:22:02 SPECI PASO 060622Z 00000KT 10SM BKN027 OVC034 M07/M09 A2981 RMK AO2 T10721094 TSNO $","FM-16","7",,,,,,,,,,,,,,,,,,,,,,,,,,,,"2005-10-30"
"70362125516","2020-01-05T21:53:00","FM-15","7",,,,,,,,,,,,,,,,,,,,,,,,,,,,,,,,,,,,,,"29.82","15","20","0.00",,,,"81","29.81","BKN:07 29 OVC:08 34","29.79","10.00","19","010",,"8",,,,,,,,,,,,,,,,,,,,,,,,,,,,,,,,,,,,,"MET10901/05/20 21:53:02 METAR PASO 060653Z 01007KT 10SM BKN029 OVC034 M07/M09 A2982 RMK AO2 SLP096 T10671094 TSNO $","FM-15","7",,,,,,,,,,,,,,,,,,,,,,,,,,,,"2005-10-30"
"70362125516","2020-01-05T22:01:00","FM-16","7",,,,,,,,,,,,,,,,,,,,,,,,,,,,,,,,,,,,,,"29.82","14","20",,,,,"78",,"FEW:02 28 OVC:08 36","29.79","10.00","18","010",,"8",,,,,,,,,,,,,,,,,,,,,,,,,,,,,,,,,,,,,"MET10201/05/20 22:01:02 SPECI PASO 060701Z 01007KT 10SM FEW028 OVC036 M07/M10 A2982 RMK AO2 T10671100 TSNO $","FM-16","7",,,,,,,,,,,,,,,,,,,,,,,,,,,,"2005-10-30"
"70362125516","2020-01-05T22:28:00","FM-16","7",,,,,,,,,,,,,,,,,,,,,,,,,,,,,,,,,,,,,,"29.83","13","19",,,,,"77",,"BKN:07 25 OVC:08 36","29.80","10.00","17","010",,"10",,,,,,,,,,,,,,,,,,,,,,,,,,,,,,,,,,,,,"MET10201/05/20 22:28:02 SPECI PASO 060728Z 01009KT 10SM BKN025 OVC036 M07/M11 A2983 RMK AO2 T10721106 TSNO $","FM-16","7",,,,,,,,,,,,,,,,,,,,,,,,,,,,"2005-10-30"
"70362125516","2020-01-05T22:53:00","FM-15","7",,,,,,,,,,,,,,,,,,,,,,,,,,,,,,,,,,,,,,"29.83","12","19","0.00",,,,"74","29.83","BKN:07 26 OVC:08 35","29.80","10.00","17","360","17","9",,,,,,,,,,,,,,,,,,,,,,,,,,,,,,,,,,,,,"MET11201/05/20 22:53:02 METAR PASO 060753Z 36008G15KT 10SM BKN026 OVC035 M07/M11 A2983 RMK AO2 SLP101 T10721111 TSNO $","FM-15","7",,,,,,,,,,,,,,,,,,,,,,,,,,,,"2005-10-30"
"70362125516","2020-01-05T23:15:00","FM-16","7",,,,,,,,,,,,,,,,,,,,,,,,,,,,,,,,,,,,,,"29.83","13","18",,,,,"81",,"FEW:02 24 BKN:07 32 OVC:08 41","29.80","10.00","17","010",,"9",,,,,,,,,,,,,,,,,,,,,,,,,,,,,,,,,,,,,"MET10901/05/20 23:15:02 SPECI PASO 060815Z 01008KT 10SM FEW024 BKN032 OVC041 M08/M11 A2983 RMK AO2 T10781106 TSNO $","FM-16","7",,,,,,,,,,,,,,,,,,,,,,,,,,,,"2005-10-30"
"70362125516","2020-01-05T23:53:00","FM-15","7",,,,,,,,,,,,,,,,,,,,,,,,,,,,,,,,,,,,,,"29.83","12","18","0.00",,"-0.01","2","77","29.83","SCT:04 23 OVC:08 41","29.80","10.00","16","010",,"6",,,,,,,,,,,,,,,,,,,,,,,,,,,,,,,,,,,,,"MET13401/05/20 23:53:02 METAR PASO 060853Z 01005KT 10SM SCT023 OVC041 M08/M11 A2983 RMK SLP101 T10781111 410611150 52005 TSNO $ VIA AUTODIAL","FM-15","7",,,,,,,,,,,,,,,,,,,,,,,,,,,,"2005-10-30"
"70362125516","2020-01-05T23:59:00","SOD  ","6",,,,,,,,,,,,,,,,"13",,,"29.72",,"1.6","0","-13.1","52","21","5","030","17","T",,,"010","13","SN BR",,,,,,,,,,,,,,,,,,,,,,,,,,,,,,,,,,,,,,,,,,,,,,,,,,,,,,,,"SOD73024 HR PRECIPITATION (IN):T     24 HR MAX TEMP (F):21 24 HR MAX TEMP TIME (LST):1603 24 HR MIN TEMP (F):5  24 HR MIN TEMP TIME (LST):0341 AVERAGE STATION PRESSURE:29.720 MINIMUM SEA LEVEL PRESSURE:29.70 TIME OF OCCURRENCE:0804 PEAK WIND SPEED (MPH):17  PEAK WIND DIR (DEG):30  PEAK WIND TIME (LST):2245  FASTEST 2MIN SPEED (MPH):13 FASTEST 2MIN DIR (DEG):10  FASTEST 2MIN TIME (LST):2304 AVERAGE WIND SPEED (MPH):1.6  24 HR AVG TEMP (F):13 HEATING DEGREE DAYS:52  COOLING DEGREE DAYS:0   LATEST DAY MAX TEMP (0700-1900 LST):21  LATEST NIGHT MIN TEMP(1900-0800 LST):5  HOURLY INCREMENTAL PRECIPITATION VALUES (IN):.00 0.00 0.00 0.00 T    T    0.00 T    T    0.00 T    T    0.00 0.00 0.00 0.00 0.00 0.00 0.00 0.00 0.00 0.00 0.00 0.00","SOD  ","6",,,,,,,,,,,,,,,,,,,,,,,,,"1002","1624",,"2005-10-30"
"70362125516","2020-01-06T00:09:00","FM-16","7",,,,,,,,,,,,,,,,,,,,,,,,,,,,,,,,,,,,,,"29.83","12","19",,,,,"74",,"BKN:07 23 OVC:08 39","29.80","10.00","17","010",,"9",,,,,,,,,,,,,,,,,,,,,,,,,,,,,,,,,,,,,"MET10201/06/20 00:09:02 SPECI PASO 060909Z 01008KT 10SM BKN023 OVC039 M07/M11 A2983 RMK AO2 T10721111 TSNO $","FM-16","7",,,,,,,,,,,,,,,,,,,,,,,,,,,,"2005-10-30"
"70362125516","2020-01-06T00:53:00","FM-15","7",,,,,,,,,,,,,,,,,,,,,,,,,,,,,,,,,,,,,,"29.84","13","18","0.00",,,,"81","29.84","BKN:07 23 OVC:08 35","29.81","10.00","17","360",,"5",,,,,,,,,,,,,,,,,,,,,,,,,,,,,,,,,,,,,"MET10901/06/20 00:53:02 METAR PASO 060953Z 36004KT 10SM BKN023 OVC035 M08/M11 A2984 RMK AO2 SLP105 T10781106 TSNO $","FM-15","7",,,,,,,,,,,,,,,,,,,,,,,,,,,,"2005-10-30"
"70362125516","2020-01-06T01:53:00","FM-15","7",,,,,,,,,,,,,,,,,,,,,,,,,,,,,,,,,,,,,,"29.86","11","18","0.00",,,,"74","29.85","BKN:07 25 OVC:08 32","29.83","10.00","16","020",,"11",,,,,,,,,,,,,,,,,,,,,,,,,,,,,,,,,,,,,"MET10901/06/20 01:53:02 METAR PASO 061053Z 02010KT 10SM BKN025 OVC032 M08/M12 A2986 RMK AO2 SLP110 T10781117 TSNO $","FM-15","7",,,,,,,,,,,,,,,,,,,,,,,,,,,,"2005-10-30"
"70362125516","2020-01-06T02:01:00","FM-16","7",,,,,,,,,,,,,,,,,,,,,,,,,,,,,,,,,,,,,,"29.86","11","18",,,,,"74",,"SCT:04 26 BKN:07 32 OVC:08 44","29.83","10.00","16","010",,"10",,,,,,,,,,,,,,,,,,,,,,,,,,,,,,,,,,,,,"MET10901/06/20 02:01:02 SPECI PASO 061101Z 01009KT 10SM SCT026 BKN032 OVC044 M08/M12 A2986 RMK AO2 T10781117 TSNO $","FM-16","7",,,,,,,,,,,,,,,,,,,,,,,,,,,,"2005-10-30"
"70362125516","2020-01-06T02:30:00","FM-16","7",,,,,,,,,,,,,,,,,,,,,,,,,,,,,,,,,,,,,,"29.87","11","17",,,,,"77",,"SCT:04 22 BKN:07 29 OVC:08 42","29.84","10.00","15","010",,"9",,,,,,,,,,,,,,,,,,,,,,,,,,,,,,,,,,,,,"MET10901/06/20 02:30:02 SPECI PASO 061130Z 01008KT 10SM SCT022 BKN029 OVC042 M08/M12 A2987 RMK AO2 T10831117 TSNO $","FM-16","7",,,,,,,,,,,,,,,,,,,,,,,,,,,,"2005-10-30"
"70362125516","2020-01-06T02:53:00","FM-15","7",,,,,,,,,,,,,,,,,,,,,,,,,,,,,,,,,,,,,,"29.88","11","17","0.00",,"-0.05","3","77","29.88","BKN:07 22 BKN:07 29 OVC:08 36","29.85","10.00","15","010",,"10",,,,,,,,,,,,,,,,,,,,,,,,,,,,,,,,,,,,,"MET13401/06/20 02:53:02 METAR PASO 061153Z 01009KT 10SM BKN022 BKN029 OVC036 M08/M12 A2988 RMK AO2 SLP117 T10831117 11067 21083 53016 TSNO $","FM-15","7",,,,,,,,,,,,,,,,,,,,,,,,,,,,"2005-10-30"
"70362125516","2020-01-06T03:05:00","FM-16","7",,,,,,,,,,,,,,,,,,,,,,,,,,,,,,,,,,,,,,"29.88","11","17",,,,,"77",,"SCT:04 22 BKN:07 30 OVC:08 36","29.85","10.00","15","010",,"8",,,,,,,,,,,,,,,,,,,,,,,,,,,,,,,,,,,,,"MET10901/06/20 03:05:02 SPECI PASO 061205Z 01007KT 10SM SCT022 BKN030 OVC036 M08/M12 A2988 RMK AO2 T10831117 TSNO $","FM-16","7",,,,,,,,,,,,,,,,,,,,,,,,,,,,"2005-10-30"
"70362125516","2020-01-06T03:53:00","FM-15","7",,,,,,,,,,,,,,,,,,,,,,,,,,,,,,,,,,,,,,"29.89","10","17","0.00",,,,"74","29.89","FEW:02 22 OVC:08 33","29.86","10.00","15","010",,"9",,,,,,,,,,,,,,,,,,,,,,,,,,,,,,,,,,,,,"MET10901/06/20 03:53:02 METAR PASO 061253Z 01008KT 10SM FEW022 OVC033 M08/M12 A2989 RMK AO2 SLP122 T10831122 TSNO $","FM-15","7",,,,,,,,,,,,,,,,,,,,,,,,,,,,"2005-10-30"
"70362125516","2020-01-06T04:24:00","FM-16","7",,,,,,,,,,,,,,,,,,,,,,,,,,,,,,,,,,,,,,"29.89","10","17",,,,,"74",,"FEW:02 24 OVC:08 29","29.86","10.00","15","020",,"8",,,,,,,,,,,,,,,,,,,,,,,,,,,,,,,,,,,,,"MET10201/06/20 04:24:02 SPECI PASO 061324Z 02007KT 10SM FEW024 OVC029 M08/M12 A2989 RMK AO2 T10831122 TSNO $","FM-16","7",,,,,,,,,,,,,,,,,,,,,,,,,,,,"2005-10-30"
"70362125516","2020-01-06T04:53:00","FM-15","7",,,,,,,,,,,,,,,,,,,,,,,,,,,,,,,,,,,,,,"29.90","10","16","0.00",,,,"77","29.90","SCT:04 21 OVC:08 28","29.87","10.00","14","010",,"11",,,,,,,,,,,,,,,,,,,,,,,,,,,,,,,,,,,,,"MET10901/06/20 04:53:02 METAR PASO 061353Z 01010KT 10SM SCT021 OVC028 M09/M12 A2990 RMK AO2 SLP124 T10891122 TSNO $","FM-15","7",,,,,,,,,,,,,,,,,,,,,,,,,,,,"2005-10-30"
"70362125516","2020-01-06T05:53:00","FM-15","7",,,,,,,,,,,,,,,,,,,,,,,,,,,,,,,,,,,,,,"29.91","9","15","0.00",,"-0.04","1","77","29.91","OVC:08 22","29.88","10.00","14","020",,"8",,,,,,,,,,,,,,,,,,,,,,,,,,,,,,,,,,,,,"MET10801/06/20 05:53:02 METAR PASO 061453Z 02007KT 10SM OVC022 M09/M13 A2991 RMK AO2 SLP128 T10941128 51012 TSNO $","FM-15","7",,,,,,,,,,,,,,,,,,,,,,,,,,,,"2005-10-30"
"70362125516","2020-01-06T06:53:00","FM-15","7",,,,,,,,,,,,,,,,,,,,,,,,,,,,,,,,,,,,,,"29.91","8","14","0.00",,,,"77","29.91","OVC:08 23","29.88","10.00","13","010",,"9",,,,,,,,,,,,,,,,,,,,,,,,,,,,,,,,,,,,,"MET10201/06/20 06:53:02 METAR PASO 061553Z 01008KT 10SM OVC023 M10/M13 A2991 RMK AO2 SLP128 T11001133 TSNO $","FM-15","7",,,,,,,,,,,,,,,,,,,,,,,,,,,,"2005-10-30"
"70362125516","2020-01-06T07:53:00","FM-15","7",,,,,,,,,,,,,,,,,,,,,,,,,,,,,,,,,,,,,,"29.92","8","15","0.00",,,,"74","29.92","OVC:08 22","29.89","10.00","13","020",,"6",,,,,,,,,,,,,,,,,,,,,,,,,,,,,,,,,,,,,"MET10201/06/20 07:53:02 METAR PASO 061653Z 02005KT 10SM OVC022 M09/M13 A2992 RMK AO2 SLP133 T10941133 TSNO $","FM-15","7",,,,,,,,,,,,,,,,,,,,,,,,,,,,"2005-10-30"
"70362125516","2020-01-06T08:53:00","FM-15","7",,,,,,,,,,,,,,,,,,,,,,,,,,,,,,,,,,,,,,"29.93","6","14","0.00",,"-0.02","3","71","29.93","OVC:08 27","29.90","10.00","12","010",,"7",,,,,,,,,,,,,,,,,,,,,,,,,,,,,,,,,,,,,"MET11801/06/20 08:53:02 METAR PASO 061753Z 01006KT 10SM OVC027 M10/M14 A2993 RMK AO2 SLP136 T11001144 11083 21100 53007 TSNO","FM-15","7",,,,,,,,,,,,,,,,,,,,,,,,,,,,"2005-10-30"
"70362125516","2020-01-06T09:25:00","FM-16","7",,,,,,,,,,,,,,,,,,,,,,,,,,,,,,,,,,,,,,"29.94","6","13",,,,,"74",,"FEW:02 23 BKN:07 30","29.91","10.00","11","020",,"7",,,,,,,,,,,,,,,,,,,,,,,,,,,,,,,,,,,,,"MET10001/06/20 09:25:02 SPECI PASO 061825Z 02006KT 10SM FEW023 BKN030 M11/M14 A2994 RMK AO2 T11061144 TSNO","FM-16","7",,,,,,,,,,,,,,,,,,,,,,,,,,,,"2005-10-30"
"70362125516","2020-01-06T09:53:00","FM-15","7",,,,,,,,,,,,,,,,,,,,,,,,,,,,,,,,,,,,,,"29.94","7","13","0.00",,,,"77","29.94","FEW:02 24","29.91","10.00","12","020",,"5",,,,,,,,,,,,,,,,,,,,,,,,,,,,,,,,,,,,,"MET10001/06/20 09:53:02 METAR PASO 061853Z 02004KT 10SM FEW024 M11/M14 A2994 RMK AO2 SLP139 T11061139 TSNO","FM-15","7",,,,,,,,,,,,,,,,,,,,,,,,,,,,"2005-10-30"
"70362125516","2020-01-06T10:53:00","FM-15","7",,,,,,,,,,,,,,,,,,,,,,,,,,,,,,,,,,,,,,"29.95","8","14","0.00",,,,"77","29.95","BKN:07 30 OVC:08 35","29.92","10.00","13","020",,"6",,,,,,,,,,,,,,,,,,,,,,,,,,,,,,,,,,,,,"MET10701/06/20 10:53:02 METAR PASO 061953Z 02005KT 10SM BKN030 OVC035 M10/M13 A2995 RMK AO2 SLP141 T11001133 TSNO","FM-15","7",,,,,,,,,,,,,,,,,,,,,,,,,,,,"2005-10-30"
"70362125516","2020-01-06T11:04:00","FM-16","7",,,,,,,,,,,,,,,,,,,,,,,,,,,,,,,,,,,,,,"29.95","8","14",,,,,"77",,"BKN:07 29 OVC:08 35","29.92","10.00","13","010",,"7",,,,,,,,,,,,,,,,,,,,,,,,,,,,,,,,,,,,,"MET10001/06/20 11:04:02 SPECI PASO 062004Z 01006KT 10SM BKN029 OVC035 M10/M13 A2995 RMK AO2 T11001133 TSNO","FM-16","7",,,,,,,,,,,,,,,,,,,,,,,,,,,,"2005-10-30"
"70362125516","2020-01-06T11:28:00","FM-16","7",,,,,,,,,,,,,,,,,,,,,,,,,,,,,,,,,,,,,,"29.96","7","14",,,,,"73",,"FEW:02 21 OVC:08 31","29.93","10.00","12","VRB",,"3",,,,,,,,,,,,,,,,,,,,,,,,,,,,,,,,,,,,,"MET10001/06/20 11:28:02 SPECI PASO 062028Z VRB03KT 10SM FEW021 OVC031 M10/M14 A2996 RMK AO2 T11001139 TSNO","FM-16","7",,,,,,,,,,,,,,,,,,,,,,,,,,,,"2005-10-30"
"70362125516","2020-01-06T11:53:00","FM-15","7",,,,,,,,,,,,,,,,,,,,,,,,,,,,,,,,,,,,,,"29.96","6","14","0.00",,"-0.02","3","71","29.96","OVC:08 34","29.93","10.00","12","010",,"8",,,,,,,,,,,,,,,,,,,,,,,,,,,,,,,,,,,,,"MET10601/06/20 11:53:02 METAR PASO 062053Z 01007KT 10SM OVC034 M10/M14 A2996 RMK AO2 SLP145 T11001144 53008 TSNO","FM-15","7",,,,,,,,,,,,,,,,,,,,,,,,,,,,"2005-10-30"
"70362125516","2020-01-06T12:53:00","FM-15","7",,,,,,,,,,,,,,,,,,,,,,,,,,,,,,,,,,,,,,"29.96","6","14","0.00",,,,"71","29.96","CLR:00","29.93","10.00","12","020",,"11",,,,,,,,,,,,,,,,,,,,,,,,,,,,,,,,,,,,,"MET09701/06/20 12:53:02 METAR PASO 062153Z 02010KT 10SM CLR M10/M14 A2996 RMK AO2 SLP147 T11001144 TSNO","FM-15","7",,,,,,,,,,,,,,,,,,,,,,,,,,,,"2005-10-30"
"70362125516","2020-01-06T13:53:00","FM-15","7",,,,,,,,,,,,,,,,,,,,,,,,,,,,,,,,,,,,,,"29.97","8","14","0.00",,,,"77","29.96","FEW:02 25 OVC:08 30","29.94","10.00","13","020",,"8",,,,,,,,,,,,,,,,,,,,,,,,,,,,,,,,,,,,,"MET10701/06/20 13:53:02 METAR PASO 062253Z 02007KT 10SM FEW025 OVC030 M10/M13 A2997 RMK AO2 SLP147 T11001133 TSNO","FM-15","7",,,,,,,,,,,,,,,,,,,,,,,,,,,,"2005-10-30"
"70362125516","2020-01-06T14:21:00","FM-16","7",,,,,,,,,,,,,,,,,,,,,,,,,,,,,,,,,,,,,,"29.96","7","14",,,,,"73",,"OVC:08 28","29.93","10.00","12","010",,"8",,,,,,,,,,,,,,,,,,,,,,,,,,,,,,,,,,,,,"MET09301/06/20 14:21:02 SPECI PASO 062321Z 01007KT 10SM OVC028 M10/M14 A2996 RMK AO2 T11001139 TSNO","FM-16","7",,,,,,,,,,,,,,,,,,,,,,,,,,,,"2005-10-30"
"70362125516","2020-01-06T14:53:00","FM-15","7",,,,,,,,,,,,,,,,,,,,,,,,,,,,,,,,,,,,,,"29.96","7","14","0.00",,"-0.00","0","73","29.96","OVC:08 28","29.93","10.00","12","010",,"5",,,,,,,,,,,,,,,,,,,,,,,,,,,,,,,,,,,,,"MET11801/06/20 14:53:02 METAR PASO 062353Z 01004KT 10SM OVC028 M10/M14 A2996 RMK AO2 SLP145 T11001139 11094 21117 50000 TSNO","FM-15","7",,,,,,,,,,,,,,,,,,,,,,,,,,,,"2005-10-30"
"70362125516","2020-01-06T15:53:00","FM-15","7",,,,,,,,,,,,,,,,,,,,,,,,,,,,,,,,,,,,,,"29.96","9","15","0.00",,,,"77","29.96","OVC:08 26","29.93","10.00","14","010",,"5",,,,,,,,,,,,,,,,,,,,,,,,,,,,,,,,,,,,,"MET10001/06/20 15:53:01 METAR PASO 070053Z 01004KT 10SM OVC026 M09/M13 A2996 RMK AO2 SLP147 T10941128 TSNO","FM-15","7",,,,,,,,,,,,,,,,,,,,,,,,,,,,"2005-10-30"
"70362125516","2020-01-06T16:53:00","FM-15","7",,,,,,,,,,,,,,,,,,,,,,,,,,,,,,,,,,,,,,"29.97","8","14","0.00",,,,"77","29.97","OVC:08 27","29.94","10.00","13","180",,"3",,,,,,,,,,,,,,,,,,,,,,,,,,,,,,,,,,,,,"MET10001/06/20 16:53:01 METAR PASO 070153Z 18003KT 10SM OVC027 M10/M13 A2997 RMK AO2 SLP148 T11001133 TSNO","FM-15","7",,,,,,,,,,,,,,,,,,,,,,,,,,,,"2005-10-30"
"70362125516","2020-01-06T17:53:00","FM-15","7",,,,,,,,,,,,,,,,,,,,,,,,,,,,,,,,,,,,,,"29.96","10","16","0.00",,"-0.00","0","77","29.96","OVC:08 22","29.93","10.00","14","020",,"9",,,,,,,,,,,,,,,,,,,,,,,,,,,,,,,,,,,,,"MET10601/06/20 17:53:01 METAR PASO 070253Z 02008KT 10SM OVC022 M09/M12 A2996 RMK AO2 SLP145 T10891122 50000 TSNO","FM-15","7",,,,,,,,,,,,,,,,,,,,,,,,,,,,"2005-10-30"
"70362125516","2020-01-06T18:53:00","FM-15","7",,,,,,,,,,,,,,,,,,,,,,,,,,,,,,,,,,,,,,"29.97","11","16","0.00",,,,"80","29.96","OVC:08 21","29.94","10.00","15","020",,"8",,,,,,,,,,,,,,,,,,,,,,,,,,,,,,,,,,,,,"MET10001/06/20 18:53:01 METAR PASO 070353Z 02007KT 10SM OVC021 M09/M12 A2997 RMK AO2 SLP147 T10891117 TSNO","FM-15","7",,,,,,,,,,,,,,,,,,,,,,,,,,,,"2005-10-30"
"70362125516","2020-01-06T19:53:00","FM-15","7",,,,,,,,,,,,,,,,,,,,,,,,,,,,,,,,,,,,,,"29.98","11","16","0.00",,,,"80","29.98","OVC:08 25","29.95","10.00","15","010",,"13",,,,,,,,,,,,,,,,,,,,,,,,,,,,,,,,,,,,,"MET10001/06/20 19:53:02 METAR PASO 070453Z 01011KT 10SM OVC025 M09/M12 A2998 RMK AO2 SLP153 T10891117 TSNO","FM-15","7",,,,,,,,,,,,,,,,,,,,,,,,,,,,"2005-10-30"
"70362125516","2020-01-06T20:53:00","FM-15","7",,,,,,,,,,,,,,,,,,,,,,,,,,,,,,,,,,,,,,"29.99","11","16","0.00",,"-0.04","3","80","29.99","OVC:08 22","29.96","10.00","15","020",,"7",,,,,,,,,,,,,,,,,,,,,,,,,,,,,,,,,,,,,"MET11801/06/20 20:53:02 METAR PASO 070553Z 02006KT 10SM OVC022 M09/M12 A2999 RMK AO2 SLP156 T10891117 11083 21100 53012 TSNO","FM-15","7",,,,,,,,,,,,,,,,,,,,,,,,,,,,"2005-10-30"
"70362125516","2020-01-06T21:53:00","FM-15","7",,,,,,,,,,,,,,,,,,,,,,,,,,,,,,,,,,,,,,"30.00","9","15","0.00",,,,"77","29.99","OVC:08 24","29.97","10.00","14","010",,"7",,,,,,,,,,,,,,,,,,,,,,,,,,,,,,,,,,,,,"MET10001/06/20 21:53:02 METAR PASO 070653Z 01006KT 10SM OVC024 M09/M13 A3000 RMK AO2 SLP157 T10941128 TSNO","FM-15","7",,,,,,,,,,,,,,,,,,,,,,,,,,,,"2005-10-30"
"70362125516","2020-01-06T22:53:00","FM-15","7",,,,,,,,,,,,,,,,,,,,,,,,,,,,,,,,,,,,,,"29.99","9","15","0.00",,,,"77","29.98","OVC:08 24","29.96","10.00","14","010",,"7",,,,,,,,,,,,,,,,,,,,,,,,,,,,,,,,,,,,,"MET10001/06/20 22:53:02 METAR PASO 070753Z 01006KT 10SM OVC024 M09/M13 A2999 RMK AO2 SLP154 T10941128 TSNO","FM-15","7",,,,,,,,,,,,,,,,,,,,,,,,,,,,"2005-10-30"
"70362125516","2020-01-06T23:53:00","FM-15","7",,,,,,,,,,,,,,,,,,,,,,,,,,,,,,,,,,,,,,"29.99","10","16","0.00",,"-0.00","3","77","29.99","OVC:08 27","29.96","10.00","14","040",,"8",,,,,,,,,,,,,,,,,,,,,,,,,,,,,,,,,,,,,"MET11601/06/20 23:53:02 METAR PASO 070853Z 04007KT 10SM OVC027 M09/M12 A2999 RMK AO2 SLP157 T10891122 410721117 53000 TSNO","FM-15","7",,,,,,,,,,,,,,,,,,,,,,,,,,,,"2005-10-30"
"70362125516","2020-01-06T23:59:00","SOD  ","6",,,,,,,,,,,,,,,,"15",,,"29.91",,"7.8","0","-11.1","50","19","11","020","19","0.00",,,"010","14",,,,,,,,,,,,,,,,,,,,,,,,,,,,,,,,,,,,,,,,,,,,,,,,,,,,,,,,,"SOD73024 HR PRECIPITATION (IN):0.00  24 HR MAX TEMP (F):19 24 HR MAX TEMP TIME (LST):0126 24 HR MIN TEMP (F):11 24 HR MIN TEMP TIME (LST):1028 AVERAGE STATION PRESSURE:29.905 MINIMUM SEA LEVEL PRESSURE:29.83 TIME OF OCCURRENCE:0012 PEAK WIND SPEED (MPH):19  PEAK WIND DIR (DEG):20  PEAK WIND TIME (LST):2256  FASTEST 2MIN SPEED (MPH):14 FASTEST 2MIN DIR (DEG):10  FASTEST 2MIN TIME (LST):0624 AVERAGE WIND SPEED (MPH):7.8  24 HR AVG TEMP (F):15 HEATING DEGREE DAYS:50  COOLING DEGREE DAYS:0   LATEST DAY MAX TEMP (0700-1900 LST):17  LATEST NIGHT MIN TEMP(1900-0800 LST):14 HOURLY INCREMENTAL PRECIPITATION VALUES (IN):.00 0.00 0.00 0.00 0.00 0.00 0.00 0.00 0.00 0.00 0.00 0.00 0.00 0.00 0.00 0.00 0.00 0.00 0.00 0.00 0.00 0.00 0.00 0.00","SOD  ","6",,,,,,,,,,,,,,,,,,,,,,,,,"1001","1625",,"2005-10-30"
"70362125516","2020-01-07T00:53:00","FM-15","7",,,,,,,,,,,,,,,,,,,,,,,,,,,,,,,,,,,,,,"30.00","9","16","0.00",,,,"74","30.00","OVC:08 28","29.97","10.00","14","010",,"3",,,,,,,,,,,,,,,,,,,,,,,,,,,,,,,,,,,,,"MET10001/07/20 00:53:02 METAR PASO 070953Z 01003KT 10SM OVC028 M09/M13 A3000 RMK AO2 SLP159 T10891128 TSNO","FM-15","7",,,,,,,,,,,,,,,,,,,,,,,,,,,,"2005-10-30"
"70362125516","2020-01-07T01:53:00","FM-15","7",,,,,,,,,,,,,,,,,,,,,,,,,,,,,,,,,,,,,,"30.00","9","16","0.00",,,,"74","30.00","OVC:08 25","29.97","10.00","14","010",,"7",,,,,,,,,,,,,,,,,,,,,,,,,,,,,,,,,,,,,"MET10001/07/20 01:53:02 METAR PASO 071053Z 01006KT 10SM OVC025 M09/M13 A3000 RMK AO2 SLP160 T10891128 TSNO","FM-15","7",,,,,,,,,,,,,,,,,,,,,,,,,,,,"2005-10-30"
"70362125516","2020-01-07T02:53:00","FM-15","7",,,,,,,,,,,,,,,,,,,,,,,,,,,,,,,,,,,,,,"30.00","10","16","0.00",,"-0.00","0","77","29.99","BKN:07 25 OVC:08 30","29.97","10.00","14","010",,"7",,,,,,,,,,,,,,,,,,,,,,,,,,,,,,,,,,,,,"MET12501/07/20 02:53:02 METAR PASO 071153Z 01006KT 10SM BKN025 OVC030 M09/M12 A3000 RMK AO2 SLP157 T10891122 11089 21094 50001 TSNO","FM-15","7",,,,,,,,,,,,,,,,,,,,,,,,,,,,"2005-10-30"
"70362125516","2020-01-07T03:51:00","FM-16","6",,,,,,,,,,,,,,,,,,,,,,,,,,,,,,,,,,,,,,"30.00","9","16",,,,,"73",,"FEW:02 20 SCT:04 24 OVC:08 31","29.97","10.00","14","360",,"5",,,,,,,,,,,,,,,,,,,,,,,,,,,,,,,,,,,,,"MET10201/07/20 03:51:02 SPECI PASO 071251Z 36004KT 10SM FEW020 SCT024 OVC031 M09/M13 A3000 RMK AO2 TSNO FIBI","FM-16","6",,,,,,,,,,,,,,,,,,,,,,,,,,,,"2005-10-30"
"70362125516","2020-01-07T03:53:00","FM-15","7",,,,,,,,,,,,,,,,,,,,,,,,,,,,,,,,,,,,,,"30.00","8","15","0.00",,,,"74","30.00","FEW:02 20 SCT:04 24 OVC:08 31","29.97","10.00","13","360",,"6",,,,,,,,,,,,,,,,,,,,,,,,,,,,,,,,,,,,,"MET11401/07/20 03:53:02 METAR PASO 071253Z 36005KT 10SM FEW020 SCT024 OVC031 M09/M13 A3000 RMK AO2 SLP160 T10941133 TSNO","FM-15","7",,,,,,,,,,,,,,,,,,,,,,,,,,,,"2005-10-30"
"70362125516","2020-01-07T04:53:00","FM-15","7",,,,,,,,,,,,,,,,,,,,,,,,,,,,,,,,,,,,,,"29.99","7","15","0.00",,,,"70","29.99","OVC:08 35","29.96","10.00","13","360",,"8",,,,,,,,,,,,,,,,,,,,,,,,,,,,,,,,,,,,,"MET10001/07/20 04:53:02 METAR PASO 071353Z 36007KT 10SM OVC035 M09/M14 A2999 RMK AO2 SLP157 T10941139 TSNO","FM-15","7",,,,,,,,,,,,,,,,,,,,,,,,,,,,"2005-10-30"
"70362125516","2020-01-07T05:25:00","FM-16","6",,,,,,,,,,,,,,,,,,,,,,,,,,,,,,,,,,,,,,"29.99","8","14",,,,,"77",,"OVC:08 29","29.96","10.00","13","VRB",,"3",,,,,,,,,,,,,,,,,,,,,,,,,,,,,,,,,,,,,"MET09301/07/20 05:25:02 SPECI PASO 071425Z VRB03KT 10SM OVC029 M10/M13 A2999 RMK AO2 T11001133 TSNO","FM-16","6",,,,,,,,,,,,,,,,,,,,,,,,,,,,"2005-10-30"
"70362125516","2020-01-07T05:53:00","FM-15","7",,,,,,,,,,,,,,,,,,,,,,,,,,,,,,,,,,,,,,"29.97","9","15","0.00",,"+0.02","8","77","29.97","OVC:08 27","29.94","10.00","14",,,,,,,,,,,,,,,,,,,,,,,,,,,,,,,,,,,,,,,,"MET10601/07/20 05:53:02 METAR PASO 071453Z      KT 10SM OVC027 M09/M13 A2997 RMK AO2 SLP150 T10941128 58007 TSNO","FM-15","7",,,,,,,,,,,,,,,,,,,,,,,,,,,,"2005-10-30"
"70362125516","2020-01-07T06:53:00","FM-15","7",,,,,,,,,,,,,,,,,,,,,,,,,,,,,,,,,,,,,,"29.96","6","15","0.00",,,,"67","29.96","OVC:08 26","29.93","10.00","13","VRB",,"7",,,,,,,,,,,,,,,,,,,,,,,,,,,,,,,,,,,,,"MET10001/07/20 06:53:02 METAR PASO 071553Z VRB06KT 10SM OVC026 M09/M14 A2996 RMK AO2 SLP147 T10941144 TSNO","FM-15","7",,,,,,,,,,,,,,,,,,,,,,,,,,,,"2005-10-30"
"70362125516","2020-01-07T07:53:00","FM-15","7",,,,,,,,,,,,,,,,,,,,,,,,,,,,,,,,,,,,,,"29.96","6","15","0.00",,,,"67","29.96","OVC:08 28","29.93","10.00","13","VRB",,"6",,,,,,,,,,,,,,,,,,,,,,,,,,,,,,,,,,,,,"MET10001/07/20 07:53:02 METAR PASO 071653Z VRB05KT 10SM OVC028 M09/M14 A2996 RMK AO2 SLP146 T10941144 TSNO","FM-15","7",,,,,,,,,,,,,,,,,,,,,,,,,,,,"2005-10-30"
"70362125516","2020-01-07T08:53:00","FM-15","7",,,,,,,,,,,,,,,,,,,,,,,,,,,,,,,,,,,,,,"29.96","9","15","0.00",,"+0.01","6","77","29.96","OVC:08 27","29.93","10.00","14","010",,"6",,,,,,,,,,,,,,,,,,,,,,,,,,,,,,,,,,,,,"MET11801/07/20 08:53:02 METAR PASO 071753Z 01005KT 10SM OVC027 M09/M13 A2996 RMK AO2 SLP146 T10941128 11089 21100 56004 TSNO","FM-15","7",,,,,,,,,,,,,,,,,,,,,,,,,,,,"2005-10-30"
"70362125516","2020-01-07T09:53:00","FM-15","7",,,,,,,,,,,,,,,,,,,,,,,,,,,,,,,,,,,,,,"29.96","8","15","0.00",,,,"74","29.96","OVC:08 27","29.93","10.00","13","030",,"3",,,,,,,,,,,,,,,,,,,,,,,,,,,,,,,,,,,,,"MET10001/07/20 09:53:02 METAR PASO 071853Z 03003KT 10SM OVC027 M09/M13 A2996 RMK AO2 SLP146 T10941133 TSNO","FM-15","7",,,,,,,,,,,,,,,,,,,,,,,,,,,,"2005-10-30"
"70362125516","2020-01-07T10:16:00","FM-16","7",,,,,,,,,,,,,,,,,,,,,,,,,,,,,,,,,,,,,,"29.96","8","15",,,,,"74",,"OVC:08 31","29.93","10.00","13","000",,"0",,,,,,,,,,,,,,,,,,,,,,,,,,,,,,,,,,,,,"MET09301/07/20 10:16:02 SPECI PASO 071916Z 00000KT 10SM OVC031 M09/M13 A2996 RMK AO2 T10941133 TSNO","FM-16","7",,,,,,,,,,,,,,,,,,,,,,,,,,,,"2005-10-30"
"70362125516","2020-01-07T10:35:00","FM-16","7",,,,,,,,,,,,,,,,,,,,,,,,,,,,,,,,,,,,,,"29.96","10","16",,,,,"77",,"BKN:07 20 BKN:07 25 OVC:08 30","29.93","10.00","14","020",,"9",,,,,,,,,,,,,,,,,,,,,,,,,,,,,,,,,,,,,"MET10701/07/20 10:35:02 SPECI PASO 071935Z 02008KT 10SM BKN020 BKN025 OVC030 M09/M12 A2996 RMK AO2 T10891122 TSNO","FM-16","7",,,,,,,,,,,,,,,,,,,,,,,,,,,,"2005-10-30"
"70362125516","2020-01-07T10:53:00","FM-15","7",,,,,,,,,,,,,,,,,,,,,,,,,,,,,,,,,,,,,,"29.95","11","16","0.00",,,,"80","29.95","OVC:08 21","29.92","10.00","15","020",,"7",,,,,,,,,,,,,,,,,,,,,,,,,,,,,,,,,,,,,"MET10001/07/20 10:53:02 METAR PASO 071953Z 02006KT 10SM OVC021 M09/M12 A2995 RMK AO2 SLP142 T10891117 TSNO","FM-15","7",,,,,,,,,,,,,,,,,,,,,,,,,,,,"2005-10-30"
"70362125516","2020-01-07T11:53:00","FM-15","7",,,,,,,,,,,,,,,,,,,,,,,,,,,,,,,,,,,,,,"29.95","8","15","0.00",,"+0.01","8","74","29.95","BKN:07 26","29.92","10.00","13","020",,"7",,,,,,,,,,,,,,,,,,,,,,,,,,,,,,,,,,,,,"MET10601/07/20 11:53:02 METAR PASO 072053Z 02006KT 10SM BKN026 M09/M13 A2995 RMK AO2 SLP142 T10941133 58004 TSNO","FM-15","7",,,,,,,,,,,,,,,,,,,,,,,,,,,,"2005-10-30"
"70362125516","2020-01-07T12:14:00","FM-16","7",,,,,,,,,,,,,,,,,,,,,,,,,,,,,,,,,,,,,,"29.95","8","14",,,,,"77",,"FEW:02 26","29.92","10.00","13","030",,"6",,,,,,,,,,,,,,,,,,,,,,,,,,,,,,,,,,,,,"MET09301/07/20 12:14:02 SPECI PASO 072114Z 03005KT 10SM FEW026 M10/M13 A2995 RMK AO2 T11001133 TSNO","FM-16","7",,,,,,,,,,,,,,,,,,,,,,,,,,,,"2005-10-30"
"70362125516","2020-01-07T12:53:00","FM-15","7",,,,,,,,,,,,,,,,,,,,,,,,,,,,,,,,,,,,,,"29.94","7","13","0.00",,,,"77","29.94","CLR:00","29.91","10.00","12","030",,"3",,,,,,,,,,,,,,,,,,,,,,,,,,,,,,,,,,,,,"MET09701/07/20 12:53:02 METAR PASO 072153Z 03003KT 10SM CLR M11/M14 A2994 RMK AO2 SLP140 T11061139 TSNO","FM-15","7",,,,,,,,,,,,,,,,,,,,,,,,,,,,"2005-10-30"
"70362125516","2020-01-07T13:26:00","FM-16","7",,,,,,,,,,,,,,,,,,,,,,,,,,,,,,,,,,,,,,"29.93","7","15",,,,,"70",,"BKN:07 26","29.90","10.00","13","030",,"6",,,,,,,,,,,,,,,,,,,,,,,,,,,,,,,,,,,,,"MET09301/07/20 13:26:02 SPECI PASO 072226Z 03005KT 10SM BKN026 M09/M14 A2993 RMK AO2 T10941139 TSNO","FM-16","7",,,,,,,,,,,,,,,,,,,,,,,,,,,,"2005-10-30"
"70362125516","2020-01-07T13:42:00","FM-16","7",,,,,,,,,,,,,,,,,,,,,,,,,,,,,,,,,,,,,,"29.94","7","14",,,,,"73",,"FEW:02 26","29.91","10.00","12","020",,"7",,,,,,,,,,,,,,,,,,,,,,,,,,,,,,,,,,,,,"MET09301/07/20 13:42:02 SPECI PASO 072242Z 02006KT 10SM FEW026 M10/M14 A2994 RMK AO2 T11001139 TSNO","FM-16","7",,,,,,,,,,,,,,,,,,,,,,,,,,,,"2005-10-30"
"70362125516","2020-01-07T13:53:00","FM-15","7",,,,,,,,,,,,,,,,,,,,,,,,,,,,,,,,,,,,,,"29.94","7","14","0.00",,,,"73","29.94","FEW:02 26","29.91","10.00","12","030",,"6",,,,,,,,,,,,,,,,,,,,,,,,,,,,,,,,,,,,,"MET10001/07/20 13:53:02 METAR PASO 072253Z 03005KT 10SM FEW026 M10/M14 A2994 RMK AO2 SLP138 T11001139 TSNO","FM-15","7",,,,,,,,,,,,,,,,,,,,,,,,,,,,"2005-10-30"
"70362125516","2020-01-07T14:53:00","FM-15","7",,,,,,,,,,,,,,,,,,,,,,,,,,,,,,,,,,,,,,"29.93","7","14","0.00",,"+0.02","8","73","29.93","CLR:00","29.90","10.00","12","020",,"5",,,,,,,,,,,,,,,,,,,,,,,,,,,,,,,,,,,,,"MET11501/07/20 14:53:02 METAR PASO 072353Z 02004KT 10SM CLR M10/M14 A2993 RMK AO2 SLP135 T11001139 11089 21106 58007 TSNO","FM-15","7",,,,,,,,,,,,,,,,,,,,,,,,,,,,"2005-10-30"
"70362125516","2020-01-07T15:53:00","FM-15","7",,,,,,,,,,,,,,,,,,,,,,,,,,,,,,,,,,,,,,"29.92","5","13","0.00",,,,"70","29.92","FEW:02 24 FEW:02 29","29.89","10.00","11","040",,"7",,,,,,,,,,,,,,,,,,,,,,,,,,,,,,,,,,,,,"MET10701/07/20 15:53:01 METAR PASO 080053Z 04006KT 10SM FEW024 FEW029 M11/M15 A2992 RMK AO2 SLP132 T11061150 TSNO","FM-15","7",,,,,,,,,,,,,,,,,,,,,,,,,,,,"2005-10-30"
"70362125516","2020-01-07T16:53:00","FM-15","7",,,,,,,,,,,,,,,,,,,,,,,,,,,,,,,,,,,,,,"29.91","5","12","0.00",,,,"73","29.91","CLR:00","29.88","10.00","10","VRB",,"5",,,,,,,,,,,,,,,,,,,,,,,,,,,,,,,,,,,,,"MET09701/07/20 16:53:01 METAR PASO 080153Z VRB04KT 10SM CLR M11/M15 A2991 RMK AO2 SLP129 T11111150 TSNO","FM-15","7",,,,,,,,,,,,,,,,,,,,,,,,,,,,"2005-10-30"
"70362125516","2020-01-07T17:53:00","FM-15","7",,,,,,,,,,,,,,,,,,,,,,,,,,,,,,,,,,,,,,"29.92","5","9","0.00",,"+0.01","5","84","29.91","FEW:02 29","29.89","10.00","8","000",,"0",,,,,,,,,,,,,,,,,,,,,,,,,,,,,,,,,,,,,"MET10601/07/20 17:53:01 METAR PASO 080253Z 00000KT 10SM FEW029 M13/M15 A2992 RMK AO2 SLP130 T11281150 55005 TSNO","FM-15","7",,,,,,,,,,,,,,,,,,,,,,,,,,,,"2005-10-30"
"70362125516","2020-01-07T18:53:00","FM-15","7",,,,,,,,,,,,,,,,,,,,,,,,,,,,,,,,,,,,,,"29.91","5","10","0.00",,,,"80","29.91","SCT:04 25","29.88","10.00","9","000",,"0",,,,,,,,,,,,,,,,,,,,,,,,,,,,,,,,,,,,,"MET10001/07/20 18:53:01 METAR PASO 080353Z 00000KT 10SM SCT025 M12/M15 A2991 RMK AO2 SLP129 T11221150 TSNO","FM-15","7",,,,,,,,,,,,,,,,,,,,,,,,,,,,"2005-10-30"
"70362125516","2020-01-07T19:53:00","FM-15","7",,,,,,,,,,,,,,,,,,,,,,,,,,,,,,,,,,,,,,"29.91","4","8","0.00",,,,"83","29.91","FEW:02 28","29.88","10.00","7","000",,"0",,,,,,,,,,,,,,,,,,,,,,,,,,,,,,,,,,,,,"MET10001/07/20 19:53:02 METAR PASO 080453Z 00000KT 10SM FEW028 M13/M16 A2991 RMK AO2 SLP128 T11331156 TSNO","FM-15","7",,,,,,,,,,,,,,,,,,,,,,,,,,,,"2005-10-30"
"70362125516","2020-01-07T20:53:00","FM-15","7",,,,,,,,,,,,,,,,,,,,,,,,,,,,,,,,,,,,,,"29.91","1","6","0.00",,"+0.01","5","79","29.91","CLR:00","29.88","9.00","5","000",,"0",,,,,,,,,,,,,,,,,,,,,,,,,,,,,,,,,,,,,"MET12601/07/20 20:53:02 METAR PASO 080553Z 00000KT 9SM CLR M14/M17 A2991 RMK AO2 SLP128 I1000 I6000 T11441172 11100 21150 55002 TSNO","FM-15","7",,,,,,,,,,,,,,,,,,,,,,,,,,,,"2005-10-30"
"70362125516","2020-01-07T21:53:00","FM-15","7",,,,,,,,,,,,,,,,,,,,,,,,,,,,,,,,,,,,,,"29.91","2","7","0.00",,,,"80","29.91","SCT:04 24","29.88","10.00","6","000",,"0",,,,,,,,,,,,,,,,,,,,,,,,,,,,,,,,,,,,,"MET10601/07/20 21:53:02 METAR PASO 080653Z 00000KT 10SM SCT024 M14/M17 A2991 RMK AO2 SLP128 I1000 T11391167 TSNO","FM-15","7",,,,,,,,,,,,,,,,,,,,,,,,,,,,"2005-10-30"
"70362125516","2020-01-07T22:13:00","FM-16","7",,,,,,,,,,,,,,,,,,,,,,,,,,,,,,,,,,,,,,"29.91","3","7",,,,,"84",,"BKN:07 25","29.88","10.00","6","000",,"0",,,,,,,,,,,,,,,,,,,,,,,,,,,,,,,,,,,,,"MET09301/07/20 22:13:02 SPECI PASO 080713Z 00000KT 10SM BKN025 M14/M16 A2991 RMK AO2 T11391161 TSNO","FM-16","7",,,,,,,,,,,,,,,,,,,,,,,,,,,,"2005-10-30"
"70362125516","2020-01-07T22:41:00","FM-16","7",,,,,,,,,,,,,,,,,,,,,,,,,,,,,,,,,,,,,,"29.92","2","7",,,,,"80",,"SCT:04 25","29.89","10.00","6","000",,"0",,,,,,,,,,,,,,,,,,,,,,,,,,,,,,,,,,,,,"MET09901/07/20 22:41:02 SPECI PASO 080741Z 00000KT 10SM SCT025 M14/M17 A2992 RMK AO2 I1000 T11391167 TSNO","FM-16","7",,,,,,,,,,,,,,,,,,,,,,,,,,,,"2005-10-30"
"70362125516","2020-01-07T22:53:00","FM-15","7",,,,,,,,,,,,,,,,,,,,,,,,,,,,,,,,,,,,,,"29.92","2","6","0.00",,,,"83","29.91","FEW:02 26","29.89","10.00","5","000",,"0",,,,,,,,,,,,,,,,,,,,,,,,,,,,,,,,,,,,,"MET10601/07/20 22:53:02 METAR PASO 080753Z 00000KT 10SM FEW026 M14/M17 A2992 RMK AO2 SLP130 I1000 T11441167 TSNO","FM-15","7",,,,,,,,,,,,,,,,,,,,,,,,,,,,"2005-10-30"
"70362125516","2020-01-07T23:53:00","FM-15","7",,,,,,,,,,,,,,,,,,,,,,,,,,,,,,,,,,,,,,"29.92","1","5","0.00",,"-0.01","3","83","29.92","FEW:02 25","29.89","10.00","4","000",,"0",,,,,,,,,,,,,,,,,,,,,,,,,,,,,,,,,,,,,"MET12801/07/20 23:53:02 METAR PASO 080853Z 00000KT 10SM FEW025 M15/M17 A2992 RMK AO2 SLP132 I1000 I3000 T11501172 410891150 53004 TSNO","FM-15","7",,,,,,,,,,,,,,,,,,,,,,,,,,,,"2005-10-30"
"70362125516","2020-01-07T23:59:00","SOD  ","6",,,,,,,,,,,,,,,,"11",,,"29.91",,"4.0","0","-15.0","54","16","5","360","15","0.00",,,"010","10",,,,,,,,,,,,,,,,,,,,,,,,,,,,,,,,,,,,,,,,,,,,,,,,,,,,,,,,,"SOD73024 HR PRECIPITATION (IN):0.00  24 HR MAX TEMP (F):16 24 HR MAX TEMP TIME (LST):1117 24 HR MIN TEMP (F):5  24 HR MIN TEMP TIME (LST):2353 AVERAGE STATION PRESSURE:29.915 MINIMUM SEA LEVEL PRESSURE:29.91 TIME OF OCCURRENCE:2342 PEAK WIND SPEED (MPH):15  PEAK WIND DIR (DEG):360 PEAK WIND TIME (LST):0027  FASTEST 2MIN SPEED (MPH):10 FASTEST 2MIN DIR (DEG):10  FASTEST 2MIN TIME (LST):0744 AVERAGE WIND SPEED (MPH):4.0  24 HR AVG TEMP (F):11 HEATING DEGREE DAYS:54  COOLING DEGREE DAYS:0   LATEST DAY MAX TEMP (0700-1900 LST):16  LATEST NIGHT MIN TEMP(1900-0800 LST):14 HOURLY INCREMENTAL PRECIPITATION VALUES (IN):.00 0.00 0.00 0.00 0.00 0.00 0.00 0.00 0.00 0.00 0.00 0.00 0.00 0.00 0.00 0.00 0.00 0.00 0.00 0.00 0.00 0.00 0.00 0.00","SOD  ","6",,,,,,,,,,,,,,,,,,,,,,,,,"1000","1627",,"2005-10-30"
"70362125516","2020-01-08T00:18:00","FM-16","7",,,,,,,,,,,,,,,,,,,,,,,,,,,,,,,,,,,,,,"29.92","1","6",,,,,"79",,"BKN:07 25","29.89","8.00","5","000",,"0",,,,,,,,,,,,,,,,,,,,,,,,,,,,,,,,,,,,,"MET09201/08/20 00:18:02 SPECI PASO 080918Z 00000KT 8SM BKN025 M14/M17 A2992 RMK AO2 T11441172 TSNO","FM-16","7",,,,,,,,,,,,,,,,,,,,,,,,,,,,"2005-10-30"
"70362125516","2020-01-08T00:53:00","FM-15","7",,,,,,,,,,,,,,,,,,,,,,,,,,,,,,,,,,,,,,"29.93","3","7","0.00",,,,"84","29.93","BKN:07 24","29.90","10.00","6","000",,"0",,,,,,,,,,,,,,,,,,,,,,,,,,,,,,,,,,,,,"MET10601/08/20 00:53:02 METAR PASO 080953Z 00000KT 10SM BKN024 M14/M16 A2993 RMK AO2 SLP134 I1000 T11391161 TSNO","FM-15","7",,,,,,,,,,,,,,,,,,,,,,,,,,,,"2005-10-30"
"70362125516","2020-01-08T01:53:00","FM-15","7",,,,,,,,,,,,,,,,,,,,,,,,,,,,,,,,,,,,,,"29.94","4","8","0.00",,,,"83","29.94","SCT:04 25","29.91","10.00","7","000",,"0",,,,,,,,,,,,,,,,,,,,,,,,,,,,,,,,,,,,,"MET10001/08/20 01:53:02 METAR PASO 081053Z 00000KT 10SM SCT025 M13/M16 A2994 RMK AO2 SLP140 T11331156 TSNO","FM-15","7",,,,,,,,,,,,,,,,,,,,,,,,,,,,"2005-10-30"
"70362125516","2020-01-08T02:53:00","FM-15","7",,,,,,,,,,,,,,,,,,,,,,,,,,,,,,,,,,,,,,"29.95","2","7","0.00",,"-0.03","3","80","29.95","CLR:00","29.92","10.00","6","000",,"0",,,,,,,,,,,,,,,,,,,,,,,,,,,,,,,,,,,,,"MET12701/08/20 02:53:02 METAR PASO 081153Z 00000KT 10SM CLR M14/M17 A2995 RMK AO2 SLP142 I1000 I6000 T11391167 11122 21150 53010 TSNO","FM-15","7",,,,,,,,,,,,,,,,,,,,,,,,,,,,"2005-10-30"
"70362125516","2020-01-08T03:53:00","FM-15","7",,,,,,,,,,,,,,,,,,,,,,,,,,,,,,,,,,,,,,"29.96","1","5","0.00",,,,"83","29.96","CLR:00","29.93","10.00","4","000",,"0",,,,,,,,,,,,,,,,,,,,,,,,,,,,,,,,,,,,,"MET10301/08/20 03:53:02 METAR PASO 081253Z 00000KT 10SM CLR M15/M17 A2996 RMK AO2 SLP144 I1000 T11501172 TSNO","FM-15","7",,,,,,,,,,,,,,,,,,,,,,,,,,,,"2005-10-30"
"70362125516","2020-01-08T04:53:00","FM-15","7",,,,,,,,,,,,,,,,,,,,,,,,,,,,,,,,,,,,,,"29.96","-1","4","0.00",,,,"80","29.96","CLR:00","29.93","10.00","3","000",,"0",,,,,,,,,,,,,,,,,,,,,,,,,,,,,,,,,,,,,"MET10301/08/20 04:53:02 METAR PASO 081353Z 00000KT 10SM CLR M16/M18 A2996 RMK AO2 SLP146 I1000 T11561183 TSNO","FM-15","7",,,,,,,,,,,,,,,,,,,,,,,,,,,,"2005-10-30"
"70362125516","2020-01-08T05:53:00","FM-15","7",,,,,,,,,,,,,,,,,,,,,,,,,,,,,,,,,,,,,,"29.97","-1","4","0.00",,"-0.01","1","80","29.96","CLR:00","29.94","10.00","3","000",,"0",,,,,,,,,,,,,,,,,,,,,,,,,,,,,,,,,,,,,"MET11501/08/20 05:53:02 METAR PASO 081453Z 00000KT 10SM CLR M16/M18 A2997 RMK AO2 SLP147 I1000 I3000 T11561183 51005 TSNO","FM-15","7",,,,,,,,,,,,,,,,,,,,,,,,,,,,"2005-10-30"
"70362125516","2020-01-08T06:53:00","FM-15","7",,,,,,,,,,,,,,,,,,,,,,,,,,,,,,,,,,,,,,"29.98","-2","3","0.00",,,,"79","29.98","CLR:00","29.95","10.00","2","000",,"0",,,,,,,,,,,,,,,,,,,,,,,,,,,,,,,,,,,,,"MET10301/08/20 06:53:02 METAR PASO 081553Z 00000KT 10SM CLR M16/M19 A2998 RMK AO2 SLP154 I1000 T11611189 TSNO","FM-15","7",,,,,,,,,,,,,,,,,,,,,,,,,,,,"2005-10-30"
"70362125516","2020-01-08T07:53:00","FM-15","7",,,,,,,,,,,,,,,,,,,,,,,,,,,,,,,,,,,,,,"30.01","-1","4","0.00",,,,"80","30.01","CLR:00","29.98","10.00","3","000",,"0",,,,,,,,,,,,,,,,,,,,,,,,,,,,,,,,,,,,,"MET10301/08/20 07:53:02 METAR PASO 081653Z 00000KT 10SM CLR M16/M18 A3001 RMK AO2 SLP161 I1000 T11561183 TSNO","FM-15","7",,,,,,,,,,,,,,,,,,,,,,,,,,,,"2005-10-30"
"70362125516","2020-01-08T08:53:00","FM-15","7",,,,,,,,,,,,,,,,,,,,,,,,,,,,,,,,,,,,,,"30.02","-1","3","0.00",,"-0.06","1","83","30.02","CLR:00","29.99","10.00","2","000",,"0",,,,,,,,,,,,,,,,,,,,,,,,,,,,,,,,,,,,,"MET12701/08/20 08:53:02 METAR PASO 081753Z 00000KT 10SM CLR M16/M18 A3002 RMK AO2 SLP166 I1000 I6000 T11611183 11139 21167 51019 TSNO","FM-15","7",,,,,,,,,,,,,,,,,,,,,,,,,,,,"2005-10-30"
"70362125516","2020-01-08T09:53:00","FM-15","7",,,,,,,,,,,,,,,,,,,,,,,,,,,,,,,,,,,,,,"30.03","0","4","0.00",,,,"83","30.03","CLR:00","30.00","10.00","3","000",,"0",,,,,,,,,,,,,,,,,,,,,,,,,,,,,,,,,,,,,"MET10301/08/20 09:53:02 METAR PASO 081853Z 00000KT 10SM CLR M16/M18 A3003 RMK AO2 SLP170 I1000 T11561178 TSNO","FM-15","7",,,,,,,,,,,,,,,,,,,,,,,,,,,,"2005-10-30"
"70362125516","2020-01-08T10:32:00","FM-16","7",,,,,,,,,,,,,,,,,,,,,,,,,,,,,,,,,,,,,,"30.03","0","5",,"HZ:7 |FU |HZ",,,"79",,"FEW:02 2","30.00","2.00","4","000",,"0",,,,,,,,,,,,,,,,,,,,,,,,,,,,,,,,,,,,,"MET10101/08/20 10:32:02 SPECI PASO 081932Z 00000KT 2SM HZ FEW002 M15/M18 A3003 RMK AO2 I1000 T11501178 TSNO","FM-16","7",,,,,,,,,,,,,,,,,,,,,,,,,,,,"2005-10-30"
"70362125516","2020-01-08T10:40:00","FM-16","7",,,,,,,,,,,,,,,,,,,,,,,,,,,,,,,,,,,,,,"30.04","0","4",,"BR:1 ||",,,"83",,"FEW:02 1","30.01","1.50","3","000",,"0",,,,,,,,,,,,,,,,,,,,,,,,,,,,,,,,,,,,,"MET10501/08/20 10:40:02 SPECI PASO 081940Z 00000KT 1 1/2SM BR FEW001 M16/M18 A3004 RMK AO2 I1000 T11561178 TSNO","FM-16","7",,,,,,,,,,,,,,,,,,,,,,,,,,,,"2005-10-30"
"70362125516","2020-01-08T10:45:00","FM-16","7",,,,,,,,,,,,,,,,,,,,,,,,,,,,,,,,,,,,,,"30.04","0","4",,"BR:1 ||",,,"83",,"FEW:02 1","30.01","3.00","3","000",,"0",,,,,,,,,,,,,,,,,,,,,,,,,,,,,,,,,,,,,"MET10101/08/20 10:45:02 SPECI PASO 081945Z 00000KT 3SM BR FEW001 M16/M18 A3004 RMK AO2 I1000 T11561178 TSNO","FM-16","7",,,,,,,,,,,,,,,,,,,,,,,,,,,,"2005-10-30"
"70362125516","2020-01-08T10:53:00","FM-15","7",,,,,,,,,,,,,,,,,,,,,,,,,,,,,,,,,,,,,,"30.04","0","4","0.00",,,,"83","30.03","FEW:02 1","30.01","10.00","3","000",,"0",,,,,,,,,,,,,,,,,,,,,,,,,,,,,,,,,,,,,"MET10601/08/20 10:53:02 METAR PASO 081953Z 00000KT 10SM FEW001 M16/M18 A3004 RMK AO2 SLP171 I1000 T11561178 TSNO","FM-15","7",,,,,,,,,,,,,,,,,,,,,,,,,,,,"2005-10-30"
"70362125516","2020-01-08T11:53:00","FM-15","7",,,,,,,,,,,,,,,,,,,,,,,,,,,,,,,,,,,,,,"30.03","5","9","0.00",,"-0.01","0","84","30.03","CLR:00","30.00","10.00","8","VRB",,"3",,,,,,,,,,,,,,,,,,,,,,,,,,,,,,,,,,,,,"MET11501/08/20 11:53:02 METAR PASO 082053Z VRB03KT 10SM CLR M13/M15 A3003 RMK AO2 SLP170 I1002 I3002 T11281150 50004 TSNO","FM-15","7",,,,,,,,,,,,,,,,,,,,,,,,,,,,"2005-10-30"
"70362125516","2020-01-08T12:53:00","FM-15","7",,,,,,,,,,,,,,,,,,,,,,,,,,,,,,,,,,,,,,"30.05","7","13","0.00",,,,"77","30.05","CLR:00","30.02","10.00","12","360",,"8",,,,,,,,,,,,,,,,,,,,,,,,,,,,,,,,,,,,,"MET10301/08/20 12:53:02 METAR PASO 082153Z 36007KT 10SM CLR M11/M14 A3005 RMK AO2 SLP175 I1001 T11061139 TSNO","FM-15","7",,,,,,,,,,,,,,,,,,,,,,,,,,,,"2005-10-30"
"70362125516","2020-01-08T13:53:00","FM-15","7",,,,,,,,,,,,,,,,,,,,,,,,,,,,,,,,,,,,,,"30.05","6","14","0.00",,,,"71","30.05","CLR:00","30.02","10.00","12","360",,"9",,,,,,,,,,,,,,,,,,,,,,,,,,,,,,,,,,,,,"MET09701/08/20 13:53:02 METAR PASO 082253Z 36008KT 10SM CLR M10/M14 A3005 RMK AO2 SLP176 T11001144 TSNO","FM-15","7",,,,,,,,,,,,,,,,,,,,,,,,,,,,"2005-10-30"
"70362125516","2020-01-08T14:53:00","FM-15","7",,,,,,,,,,,,,,,,,,,,,,,,,,,,,,,,,,,,,,"30.03","6","14","0.00",,"-0.00","0","71","30.03","CLR:00","30.00","10.00","12","350","20","8",,,,,,,,,,,,,,,,,,,,,,,,,,,,,,,,,,,,,"MET12401/08/20 14:53:02 METAR PASO 082353Z 35007G17KT 10SM CLR M10/M14 A3003 RMK AO2 SLP170 I6003 T11001144 11100 21167 50000 TSNO","FM-15","7",,,,,,,,,,,,,,,,,,,,,,,,,,,,"2005-10-30"
"70362125516","2020-01-08T15:53:00","FM-15","7",,,,,,,,,,,,,,,,,,,,,,,,,,,,,,,,,,,,,,"30.05","6","14","0.00",,,,"71","30.04","CLR:00","30.02","10.00","12","340",,"6",,,,,,,,,,,,,,,,,,,,,,,,,,,,,,,,,,,,,"MET09701/08/20 15:53:01 METAR PASO 090053Z 34005KT 10SM CLR M10/M14 A3005 RMK AO2 SLP174 T11001144 TSNO","FM-15","7",,,,,,,,,,,,,,,,,,,,,,,,,,,,"2005-10-30"
"70362125516","2020-01-08T16:53:00","FM-15","7",,,,,,,,,,,,,,,,,,,,,,,,,,,,,,,,,,,,,,"30.04","6","13","0.00",,,,"74","30.04","CLR:00","30.01","10.00","11","VRB",,"5",,,,,,,,,,,,,,,,,,,,,,,,,,,,,,,,,,,,,"MET09701/08/20 16:53:01 METAR PASO 090153Z VRB04KT 10SM CLR M11/M14 A3004 RMK AO2 SLP172 T11061144 TSNO","FM-15","7",,,,,,,,,,,,,,,,,,,,,,,,,,,,"2005-10-30"
"70362125516","2020-01-08T17:53:00","FM-15","7",,,,,,,,,,,,,,,,,,,,,,,,,,,,,,,,,,,,,,"30.02","7","14","0.00",,"+0.02","8","73","30.01","CLR:00","29.99","10.00","12","VRB",,"8",,,,,,,,,,,,,,,,,,,,,,,,,,,,,,,,,,,,,"MET10301/08/20 17:53:01 METAR PASO 090253Z 35007KT 10SM CLR M10/M14 A3002 RMK AO2 SLP164 T11001139 58006 TSNO","FM-15","7",,,,,,,,,,,,,,,,,,,,,,,,,,,,"2005-10-30"
"70362125516","2020-01-08T18:53:00","FM-15","7",,,,,,,,,,,,,,,,,,,,,,,,,,,,,,,,,,,,,,"30.02","6","13","0.00",,,,"74","30.01","CLR:00","29.99","10.00","11","VRB",,"5",,,,,,,,,,,,,,,,,,,,,,,,,,,,,,,,,,,,,"MET09701/08/20 18:53:01 METAR PASO 090353Z VRB04KT 10SM CLR M11/M14 A3002 RMK AO2 SLP164 T11061144 TSNO","FM-15","7",,,,,,,,,,,,,,,,,,,,,,,,,,,,"2005-10-30"
"70362125516","2020-01-08T19:53:00","FM-15","7",,,,,,,,,,,,,,,,,,,,,,,,,,,,,,,,,,,,,,"30.01","4","8","0.00",,,,"83","30.01","CLR:00","29.98","10.00","7","000",,"0",,,,,,,,,,,,,,,,,,,,,,,,,,,,,,,,,,,,,"MET09701/08/20 19:53:02 METAR PASO 090453Z 00000KT 10SM CLR M13/M16 A3001 RMK AO2 SLP161 T11331156 TSNO","FM-15","7",,,,,,,,,,,,,,,,,,,,,,,,,,,,"2005-10-30"
"70362125516","2020-01-08T20:53:00","FM-15","7",,,,,,,,,,,,,,,,,,,,,,,,,,,,,,,,,,,,,,"30.01","4","8","0.00",,"+0.01","5","83","30.01","CLR:00","29.98","10.00","7","000",,"0",,,,,,,,,,,,,,,,,,,,,,,,,,,,,,,,,,,,,"MET11501/08/20 20:53:02 METAR PASO 090553Z 00000KT 10SM CLR M13/M16 A3001 RMK AO2 SLP162 T11331156 11100 21144 55002 TSNO","FM-15","7",,,,,,,,,,,,,,,,,,,,,,,,,,,,"2005-10-30"
"70362125516","2020-01-08T21:53:00","FM-15","7",,,,,,,,,,,,,,,,,,,,,,,,,,,,,,,,,,,,,,"30.01","3","7","0.00",,,,"84","30.01","CLR:00","29.98","10.00","6","000",,"0",,,,,,,,,,,,,,,,,,,,,,,,,,,,,,,,,,,,,"MET10301/08/20 21:53:02 METAR PASO 090653Z 00000KT 10SM CLR M14/M16 A3001 RMK AO2 SLP164 I1000 T11391161 TSNO","FM-15","7",,,,,,,,,,,,,,,,,,,,,,,,,,,,"2005-10-30"
"70362125516","2020-01-08T22:53:00","FM-15","7",,,,,,,,,,,,,,,,,,,,,,,,,,,,,,,,,,,,,,"30.02","4","7","0.00",,,,"87","30.01","CLR:00","29.99","10.00","6","000",,"0",,,,,,,,,,,,,,,,,,,,,,,,,,,,,,,,,,,,,"MET10301/08/20 22:53:02 METAR PASO 090753Z 00000KT 10SM CLR M14/M16 A3002 RMK AO2 SLP164 I1000 T11391156 TSNO","FM-15","7",,,,,,,,,,,,,,,,,,,,,,,,,,,,"2005-10-30"
"70362125516","2020-01-08T23:53:00","FM-15","7",,,,,,,,,,,,,,,,,,,,,,,,,,,,,,,,,,,,,,"30.02","5","8","0.00",,"-0.01","1","87","30.01","CLR:00","29.99","10.00","7","000",,"0",,,,,,,,,,,,,,,,,,,,,,,,,,,,,,,,,,,,,"MET11901/08/20 23:53:02 METAR PASO 090853Z 00000KT 10SM CLR M13/M15 A3002 RMK AO2 SLP164 I3000 T11331150 411001167 51002 TSNO","FM-15","7",,,,,,,,,,,,,,,,,,,,,,,,,,,,"2005-10-30"
"70362125516","2020-01-08T23:59:00","SOD  ","6",,,,,,,,,,,,,,,,"8",,,"29.96",,"2.2","0","-18.0","57","14","2","350","20","0.00",,,"360","13","BR HZ",,,,,,,,,,,,,,,,,,,,,,,,,,,,,,,,,,,,,,,,,,,,,,,,,,,,,,,,"SOD73024 HR PRECIPITATION (IN):0.00  24 HR MAX TEMP (F):14 24 HR MAX TEMP TIME (LST):1832 24 HR MIN TEMP (F):2  24 HR MIN TEMP TIME (LST):0856 AVERAGE STATION PRESSURE:29.965 MINIMUM SEA LEVEL PRESSURE:29.92 TIME OF OCCURRENCE:0104 PEAK WIND SPEED (MPH):20  PEAK WIND DIR (DEG):350 PEAK WIND TIME (LST):1445  FASTEST 2MIN SPEED (MPH):13 FASTEST 2MIN DIR (DEG):360 FASTEST 2MIN TIME (LST):1424 AVERAGE WIND SPEED (MPH):2.2  24 HR AVG TEMP (F):8  HEATING DEGREE DAYS:57  COOLING DEGREE DAYS:0   LATEST DAY MAX TEMP (0700-1900 LST):14  LATEST NIGHT MIN TEMP(1900-0800 LST):2  HOURLY INCREMENTAL PRECIPITATION VALUES (IN):.00 0.00 0.00 0.00 0.00 0.00 0.00 0.00 0.00 0.00 0.00 0.00 0.00 0.00 0.00 0.00 0.00 0.00 0.00 0.00 0.00 0.00 0.00 0.00","SOD  ","6",,,,,,,,,,,,,,,,,,,,,,,,,"0959","1629",,"2005-10-30"
"70362125516","2020-01-09T00:53:00","FM-15","7",,,,,,,,,,,,,,,,,,,,,,,,,,,,,,,,,,,,,,"29.99","6","9","0.00",,,,"88","29.99","CLR:00","29.96","10.00","8","000",,"0",,,,,,,,,,,,,,,,,,,,,,,,,,,,,,,,,,,,,"MET09701/09/20 00:53:02 METAR PASO 090953Z 00000KT 10SM CLR M13/M14 A2999 RMK AO2 SLP157 T11281144 TSNO","FM-15","7",,,,,,,,,,,,,,,,,,,,,,,,,,,,"2005-10-30"
"70362125516","2020-01-09T01:53:00","FM-15","7",,,,,,,,,,,,,,,,,,,,,,,,,,,,,,,,,,,,,,"29.97","5","9","0.00",,,,"84","29.96","CLR:00","29.94","10.00","8","180",,"3",,,,,,,,,,,,,,,,,,,,,,,,,,,,,,,,,,,,,"MET09701/09/20 01:53:02 METAR PASO 091053Z 18003KT 10SM CLR M13/M15 A2997 RMK AO2 SLP147 T11281150 TSNO","FM-15","7",,,,,,,,,,,,,,,,,,,,,,,,,,,,"2005-10-30"
"70362125516","2020-01-09T02:53:00","FM-15","7",,,,,,,,,,,,,,,,,,,,,,,,,,,,,,,,,,,,,,"29.97","7","10","0.00",,"+0.04","5","87","29.97","FEW:02 120","29.94","10.00","9","000",,"0",,,,,,,,,,,,,,,,,,,,,,,,,,,,,,,,,,,,,"MET12401/09/20 02:53:02 METAR PASO 091153Z 00000KT 10SM FEW120 M12/M14 A2997 RMK AO2 SLP149 I6000 T11221139 11117 21144 55015 TSNO","FM-15","7",,,,,,,,,,,,,,,,,,,,,,,,,,,,"2005-10-30"
"70362125516","2020-01-09T03:53:00","FM-15","7",,,,,,,,,,,,,,,,,,,,,,,,,,,,,,,,,,,,,,"29.97","7","10","0.00",,,,"87","29.97","BKN:07 120","29.94","10.00","9","000",,"0",,,,,,,,,,,,,,,,,,,,,,,,,,,,,,,,,,,,,"MET10001/09/20 03:53:02 METAR PASO 091253Z 00000KT 10SM BKN120 M12/M14 A2997 RMK AO2 SLP148 T11221139 TSNO","FM-15","7",,,,,,,,,,,,,,,,,,,,,,,,,,,,"2005-10-30"
"70362125516","2020-01-09T04:53:00","FM-15","7",,,,,,,,,,,,,,,,,,,,,,,,,,,,,,,,,,,,,,"29.95","8","12","0.00",,,,"84","29.95","SCT:04 110","29.92","10.00","11","000",,"0",,,,,,,,,,,,,,,,,,,,,,,,,,,,,,,,,,,,,"MET10001/09/20 04:53:02 METAR PASO 091353Z 00000KT 10SM SCT110 M11/M13 A2995 RMK AO2 SLP142 T11111133 TSNO","FM-15","7",,,,,,,,,,,,,,,,,,,,,,,,,,,,"2005-10-30"
"70362125516","2020-01-09T05:53:00","FM-15","7",,,,,,,,,,,,,,,,,,,,,,,,,,,,,,,,,,,,,,"29.94","9","12","0.00",,"+0.04","8","87","29.93","BKN:07 110","29.91","10.00","11","180",,"3",,,,,,,,,,,,,,,,,,,,,,,,,,,,,,,,,,,,,"MET10601/09/20 05:53:02 METAR PASO 091453Z 18003KT 10SM BKN110 M11/M13 A2994 RMK AO2 SLP137 T11111128 58012 TSNO","FM-15","7",,,,,,,,,,,,,,,,,,,,,,,,,,,,"2005-10-30"
"70362125516","2020-01-09T06:53:00","FM-15","7",,,,,,,,,,,,,,,,,,,,,,,,,,,,,,,,,,,,,,"29.91","10","14","0.00",,,,"84","29.91","OVC:08 100","29.88","10.00","13","000",,"0",,,,,,,,,,,,,,,,,,,,,,,,,,,,,,,,,,,,,"MET10001/09/20 06:53:02 METAR PASO 091553Z 00000KT 10SM OVC100 M10/M12 A2991 RMK AO2 SLP129 T11001122 TSNO","FM-15","7",,,,,,,,,,,,,,,,,,,,,,,,,,,,"2005-10-30"
"70362125516","2020-01-09T07:53:00","FM-15","7",,,,,,,,,,,,,,,,,,,,,,,,,,,,,,,,,,,,,,"29.89","11","14","0.00",,,,"88","29.89","OVC:08 100","29.86","10.00","13","180",,"3",,,,,,,,,,,,,,,,,,,,,,,,,,,,,,,,,,,,,"MET10001/09/20 07:53:02 METAR PASO 091653Z 18003KT 10SM OVC100 M10/M12 A2989 RMK AO2 SLP122 T11001117 TSNO","FM-15","7",,,,,,,,,,,,,,,,,,,,,,,,,,,,"2005-10-30"
"70362125516","2020-01-09T08:53:00","FM-15","7",,,,,,,,,,,,,,,,,,,,,,,,,,,,,,,,,,,,,,"29.88","12","15","0.00",,"+0.06","6","88","29.88","OVC:08 100","29.85","10.00","14","000",,"0",,,,,,,,,,,,,,,,,,,,,,,,,,,,,,,,,,,,,"MET11801/09/20 08:53:02 METAR PASO 091753Z 00000KT 10SM OVC100 M09/M11 A2988 RMK AO2 SLP118 T10941111 11094 21128 56020 TSNO","FM-15","7",,,,,,,,,,,,,,,,,,,,,,,,,,,,"2005-10-30"
"70362125516","2020-01-09T09:53:00","FM-15","7",,,,,,,,,,,,,,,,,,,,,,,,,,,,,,,,,,,,,,"29.86","12","15","0.00",,,,"88","29.86","OVC:08 90","29.83","10.00","14","200",,"3",,,,,,,,,,,,,,,,,,,,,,,,,,,,,,,,,,,,,"MET10001/09/20 09:53:02 METAR PASO 091853Z 20003KT 10SM OVC090 M09/M11 A2986 RMK AO2 SLP112 T10941111 TSNO","FM-15","7",,,,,,,,,,,,,,,,,,,,,,,,,,,,"2005-10-30"
"70362125516","2020-01-09T10:53:00","FM-15","7",,,,,,,,,,,,,,,,,,,,,,,,,,,,,,,,,,,,,,"29.85","13","16","0.00",,,,"88","29.85","FEW:02 49 SCT:04 70 OVC:08 95","29.82","10.00","15","000",,"0",,,,,,,,,,,,,,,,,,,,,,,,,,,,,,,,,,,,,"MET11401/09/20 10:53:02 METAR PASO 091953Z 00000KT 10SM FEW049 SCT070 OVC095 M09/M11 A2985 RMK AO2 SLP108 T10891106 TSNO","FM-15","7",,,,,,,,,,,,,,,,,,,,,,,,,,,,"2005-10-30"
"70362125516","2020-01-09T11:53:00","FM-15","7",,,,,,,,,,,,,,,,,,,,,,,,,,,,,,,,,,,,,,"29.84","14","19","0.00",,"+0.04","6","81","29.83","FEW:02 38 BKN:07 49 OVC:08 95","29.81","10.00","18","000",,"0",,,,,,,,,,,,,,,,,,,,,,,,,,,,,,,,,,,,,"MET12001/09/20 11:53:02 METAR PASO 092053Z 00000KT 10SM FEW038 BKN049 OVC095 M07/M10 A2984 RMK AO2 SLP103 T10721100 56014 TSNO","FM-15","7",,,,,,,,,,,,,,,,,,,,,,,,,,,,"2005-10-30"
"70362125516","2020-01-09T12:53:00","FM-15","7",,,,,,,,,,,,,,,,,,,,,,,,,,,,,,,,,,,,,,"29.82","15","20","0.00",,,,"81","29.82","OVC:08 41","29.79","10.00","19","040",,"3",,,,,,,,,,,,,,,,,,,,,,,,,,,,,,,,,,,,,"MET10001/09/20 12:53:02 METAR PASO 092153Z 04003KT 10SM OVC041 M07/M09 A2982 RMK AO2 SLP097 T10671094 TSNO","FM-15","7",,,,,,,,,,,,,,,,,,,,,,,,,,,,"2005-10-30"
"70362125516","2020-01-09T13:53:00","FM-15","7",,,,,,,,,,,,,,,,,,,,,,,,,,,,,,,,,,,,,,"29.80","14","21","0.00",,,,"74","29.80","OVC:08 55","29.77","10.00","19","340",,"7",,,,,,,,,,,,,,,,,,,,,,,,,,,,,,,,,,,,,"MET10001/09/20 13:53:02 METAR PASO 092253Z 34006KT 10SM OVC055 M06/M10 A2980 RMK AO2 SLP093 T10611100 TSNO","FM-15","7",,,,,,,,,,,,,,,,,,,,,,,,,,,,"2005-10-30"
"70362125516","2020-01-09T14:53:00","FM-15","7",,,,,,,,,,,,,,,,,,,,,,,,,,,,,,,,,,,,,,"29.79","14","21","0.00",,"+0.04","6","74","29.79","BKN:07 60 BKN:07 75 OVC:08 100","29.76","10.00","19","350",,"9",,,,,,,,,,,,,,,,,,,,,,,,,,,,,,,,,,,,,"MET13201/09/20 14:53:02 METAR PASO 092353Z 35008KT 10SM BKN060 BKN075 OVC100 M06/M10 A2979 RMK AO2 SLP088 T10611100 11056 21094 56015 TSNO","FM-15","7",,,,,,,,,,,,,,,,,,,,,,,,,,,,"2005-10-30"
"70362125516","2020-01-09T15:53:00","FM-15","7",,,,,,,,,,,,,,,,,,,,,,,,,,,,,,,,,,,,,,"29.80","14","21","0.00",,,,"74","29.80","BKN:07 70 OVC:08 100","29.77","10.00","19","VRB",,"6",,,,,,,,,,,,,,,,,,,,,,,,,,,,,,,,,,,,,"MET10701/09/20 15:53:01 METAR PASO 100053Z VRB05KT 10SM BKN070 OVC100 M06/M10 A2980 RMK AO2 SLP091 T10611100 TSNO","FM-15","7",,,,,,,,,,,,,,,,,,,,,,,,,,,,"2005-10-30"
"70362125516","2020-01-09T16:53:00","FM-15","7",,,,,,,,,,,,,,,,,,,,,,,,,,,,,,,,,,,,,,"29.80","14","21","0.00",,,,"74","29.80","OVC:08 95","29.77","10.00","19","350",,"7",,,,,,,,,,,,,,,,,,,,,,,,,,,,,,,,,,,,,"MET10001/09/20 16:53:01 METAR PASO 100153Z 35006KT 10SM OVC095 M06/M10 A2980 RMK AO2 SLP092 T10611100 TSNO","FM-15","7",,,,,,,,,,,,,,,,,,,,,,,,,,,,"2005-10-30"
"70362125516","2020-01-09T17:53:00","FM-15","7",,,,,,,,,,,,,,,,,,,,,,,,,,,,,,,,,,,,,,"29.82","14","21","0.00",,"-0.03","3","74","29.82","SCT:04 75 OVC:08 100","29.79","10.00","19","VRB",,"6",,,,,,,,,,,,,,,,,,,,,,,,,,,,,,,,,,,,,"MET11301/09/20 17:53:01 METAR PASO 100253Z VRB05KT 10SM SCT075 OVC100 M06/M10 A2982 RMK AO2 SLP099 T10611100 53011 TSNO","FM-15","7",,,,,,,,,,,,,,,,,,,,,,,,,,,,"2005-10-30"
"70362125516","2020-01-09T18:53:00","FM-15","7",,,,,,,,,,,,,,,,,,,,,,,,,,,,,,,,,,,,,,"29.82","15","20","0.00",,,,"81","29.82","OVC:08 75","29.79","10.00","19","340",,"5",,,,,,,,,,,,,,,,,,,,,,,,,,,,,,,,,,,,,"MET10001/09/20 18:53:01 METAR PASO 100353Z 34004KT 10SM OVC075 M07/M09 A2982 RMK AO2 SLP098 T10671094 TSNO","FM-15","7",,,,,,,,,,,,,,,,,,,,,,,,,,,,"2005-10-30"
"70362125516","2020-01-09T19:53:00","FM-15","7",,,,,,,,,,,,,,,,,,,,,,,,,,,,,,,,,,,,,,"29.84","13","20","0.00",,,,"74","29.84","BKN:07 75 OVC:08 110","29.81","10.00","18","VRB",,"8",,,,,,,,,,,,,,,,,,,,,,,,,,,,,,,,,,,,,"MET10701/09/20 19:53:02 METAR PASO 100453Z 36007KT 10SM BKN075 OVC110 M07/M11 A2984 RMK AO2 SLP104 T10671106 TSNO","FM-15","7",,,,,,,,,,,,,,,,,,,,,,,,,,,,"2005-10-30"
"70362125516","2020-01-09T20:53:00","FM-15","7",,,,,,,,,,,,,,,,,,,,,,,,,,,,,,,,,,,,,,"29.85","12","19","0.00",,"-0.03","3","74","29.85","BKN:07 75 OVC:08 95","29.82","10.00","17","340","18","8",,,,,,,,,,,,,,,,,,,,,,,,,,,,,,,,,,,,,"MET12801/09/20 20:53:02 METAR PASO 100553Z 34007G16KT 10SM BKN075 OVC095 M07/M11 A2985 RMK AO2 SLP109 T10721111 11061 21072 53010 TSNO","FM-15","7",,,,,,,,,,,,,,,,,,,,,,,,,,,,"2005-10-30"
"70362125516","2020-01-09T21:53:00","FM-15","7",,,,,,,,,,,,,,,,,,,,,,,,,,,,,,,,,,,,,,"29.86","11","19","0.00",,,,"71","29.86","CLR:00","29.83","10.00","17","360",,"9",,,,,,,,,,,,,,,,,,,,,,,,,,,,,,,,,,,,,"MET09701/09/20 21:53:02 METAR PASO 100653Z 36008KT 10SM CLR M07/M12 A2986 RMK AO2 SLP113 T10721117 TSNO","FM-15","7",,,,,,,,,,,,,,,,,,,,,,,,,,,,"2005-10-30"
"70362125516","2020-01-09T22:53:00","FM-15","7",,,,,,,,,,,,,,,,,,,,,,,,,,,,,,,,,,,,,,"29.88","11","18","0.00",,,,"74","29.88","FEW:02 70","29.85","10.00","16","350",,"8",,,,,,,,,,,,,,,,,,,,,,,,,,,,,,,,,,,,,"MET10001/09/20 22:53:02 METAR PASO 100753Z 35007KT 10SM FEW070 M08/M12 A2988 RMK AO2 SLP117 T10781117 TSNO","FM-15","7",,,,,,,,,,,,,,,,,,,,,,,,,,,,"2005-10-30"
"70362125516","2020-01-09T23:53:00","FM-15","7",,,,,,,,,,,,,,,,,,,,,,,,,,,,,,,,,,,,,,"29.89","9","18","0.00",,"-0.04","3","68","29.89","BKN:07 70","29.86","10.00","16","360",,"6",,,,,,,,,,,,,,,,,,,,,,,,,,,,,,,,,,,,,"MET11601/09/20 23:53:02 METAR PASO 100853Z 36005KT 10SM BKN070 M08/M13 A2989 RMK AO2 SLP122 T10781128 410561133 53013 TSNO","FM-15","7",,,,,,,,,,,,,,,,,,,,,,,,,,,,"2005-10-30"
"70362125516","2020-01-09T23:59:00","SOD  ","6",,,,,,,,,,,,,,,,"15",,,"29.83",,"4.0","0","-10.9","50","22","8","360","18","0.00",,,"360","12",,,,,,,,,,,,,,,,,,,,,,,,,,,,,,,,,,,,,,,,,,,,,,,,,,,,,,,,,"SOD73024 HR PRECIPITATION (IN):0.00  24 HR MAX TEMP (F):22 24 HR MAX TEMP TIME (LST):1334 24 HR MIN TEMP (F):8  24 HR MIN TEMP TIME (LST):0135 AVERAGE STATION PRESSURE:29.835 MINIMUM SEA LEVEL PRESSURE:29.79 TIME OF OCCURRENCE:1546 PEAK WIND SPEED (MPH):18  PEAK WIND DIR (DEG):360 PEAK WIND TIME (LST):2049  FASTEST 2MIN SPEED (MPH):12 FASTEST 2MIN DIR (DEG):360 FASTEST 2MIN TIME (LST):2051 AVERAGE WIND SPEED (MPH):4.0  24 HR AVG TEMP (F):15 HEATING DEGREE DAYS:50  COOLING DEGREE DAYS:0   LATEST DAY MAX TEMP (0700-1900 LST):22  LATEST NIGHT MIN TEMP(1900-0800 LST):6  HOURLY INCREMENTAL PRECIPITATION VALUES (IN):.00 0.00 0.00 0.00 0.00 0.00 0.00 0.00 0.00 0.00 0.00 0.00 0.00 0.00 0.00 0.00 0.00 0.00 0.00 0.00 0.00 0.00 0.00 0.00","SOD  ","6",,,,,,,,,,,,,,,,,,,,,,,,,"0958","1631",,"2005-10-30"
"70362125516","2020-01-10T00:53:00","FM-15","7",,,,,,,,,,,,,,,,,,,,,,,,,,,,,,,,,,,,,,"29.91","11","16","0.00",,,,"80","29.91","BKN:07 90","29.88","10.00","15","000",,"0",,,,,,,,,,,,,,,,,,,,,,,,,,,,,,,,,,,,,"MET10001/10/20 00:53:02 METAR PASO 100953Z 00000KT 10SM BKN090 M09/M12 A2991 RMK AO2 SLP127 T10891117 TSNO","FM-15","7",,,,,,,,,,,,,,,,,,,,,,,,,,,,"2005-10-30"
"70362125516","2020-01-10T01:53:00","FM-15","7",,,,,,,,,,,,,,,,,,,,,,,,,,,,,,,,,,,,,,"29.91","9","15","0.00",,,,"77","29.91","CLR:00","29.88","10.00","14","VRB",,"3",,,,,,,,,,,,,,,,,,,,,,,,,,,,,,,,,,,,,"MET09701/10/20 01:53:02 METAR PASO 101053Z VRB03KT 10SM CLR M09/M13 A2991 RMK AO2 SLP129 T10941128 TSNO","FM-15","7",,,,,,,,,,,,,,,,,,,,,,,,,,,,"2005-10-30"
"70362125516","2020-01-10T02:53:00","FM-15","7",,,,,,,,,,,,,,,,,,,,,,,,,,,,,,,,,,,,,,"29.92","9","16","0.00",,"-0.03","1","74","29.92","CLR:00","29.89","10.00","14","VRB",,"3",,,,,,,,,,,,,,,,,,,,,,,,,,,,,,,,,,,,,"MET11501/10/20 02:53:02 METAR PASO 101153Z VRB03KT 10SM CLR M09/M13 A2992 RMK AO2 SLP131 T10891128 11067 21106 51009 TSNO","FM-15","7",,,,,,,,,,,,,,,,,,,,,,,,,,,,"2005-10-30"
"70362125516","2020-01-10T03:53:00","FM-15","7",,,,,,,,,,,,,,,,,,,,,,,,,,,,,,,,,,,,,,"29.93","7","12","0.00",,,,"80","29.93","CLR:00","29.90","10.00","11","000",,"0",,,,,,,,,,,,,,,,,,,,,,,,,,,,,,,,,,,,,"MET09701/10/20 03:53:02 METAR PASO 101253Z 00000KT 10SM CLR M11/M14 A2993 RMK AO2 SLP136 T11111139 TSNO","FM-15","7",,,,,,,,,,,,,,,,,,,,,,,,,,,,"2005-10-30"
"70362125516","2020-01-10T04:53:00","FM-15","7",,,,,,,,,,,,,,,,,,,,,,,,,,,,,,,,,,,,,,"29.95","6","10","0.00",,,,"84","29.94","CLR:00","29.92","10.00","9","000",,"0",,,,,,,,,,,,,,,,,,,,,,,,,,,,,,,,,,,,,"MET09701/10/20 04:53:02 METAR PASO 101353Z 00000KT 10SM CLR M12/M14 A2995 RMK AO2 SLP140 T11221144 TSNO","FM-15","7",,,,,,,,,,,,,,,,,,,,,,,,,,,,"2005-10-30"
"70362125516","2020-01-10T05:53:00","FM-15","7",,,,,,,,,,,,,,,,,,,,,,,,,,,,,,,,,,,,,,"29.95","4","8","0.00",,"-0.03","1","83","29.95","CLR:00","29.92","10.00","7","000",,"0",,,,,,,,,,,,,,,,,,,,,,,,,,,,,,,,,,,,,"MET11501/10/20 05:53:02 METAR PASO 101453Z 00000KT 10SM CLR M13/M16 A2995 RMK AO2 SLP141 I1000 I3000 T11331156 51010 TSNO","FM-15","7",,,,,,,,,,,,,,,,,,,,,,,,,,,,"2005-10-30"
"70362125516","2020-01-10T06:53:00","FM-15","7",,,,,,,,,,,,,,,,,,,,,,,,,,,,,,,,,,,,,,"29.95","3","7","0.00",,,,"84","29.94","CLR:00","29.92","10.00","6","000",,"0",,,,,,,,,,,,,,,,,,,,,,,,,,,,,,,,,,,,,"MET10301/10/20 06:53:02 METAR PASO 101553Z 00000KT 10SM CLR M14/M16 A2995 RMK AO2 SLP140 I1000 T11391161 TSNO","FM-15","7",,,,,,,,,,,,,,,,,,,,,,,,,,,,"2005-10-30"
"70362125516","2020-01-10T07:53:00","FM-15","7",,,,,,,,,,,,,,,,,,,,,,,,,,,,,,,,,,,,,,"29.96","2","7","0.00",,,,"80","29.96","CLR:00","29.93","10.00","6","000",,"0",,,,,,,,,,,,,,,,,,,,,,,,,,,,,,,,,,,,,"MET10301/10/20 07:53:02 METAR PASO 101653Z 00000KT 10SM CLR M14/M17 A2996 RMK AO2 SLP144 I1000 T11391167 TSNO","FM-15","7",,,,,,,,,,,,,,,,,,,,,,,,,,,,"2005-10-30"
"70362125516","2020-01-10T08:53:00","FM-15","7",,,,,,,,,,,,,,,,,,,,,,,,,,,,,,,,,,,,,,"29.95","2","7","0.00",,"-0.00","2","80","29.95","CLR:00","29.92","10.00","6","000",,"0",,,,,,,,,,,,,,,,,,,,,,,,,,,,,,,,,,,,,"MET12701/10/20 08:53:02 METAR PASO 101753Z 00000KT 10SM CLR M14/M17 A2995 RMK AO2 SLP143 I1000 I6000 T11391167 11089 21144 52001 TSNO","FM-15","7",,,,,,,,,,,,,,,,,,,,,,,,,,,,"2005-10-30"
"70362125516","2020-01-10T09:53:00","FM-15","7",,,,,,,,,,,,,,,,,,,,,,,,,,,,,,,,,,,,,,"29.96","2","6","0.00",,,,"83","29.96","CLR:00","29.93","10.00","5","000",,"0",,,,,,,,,,,,,,,,,,,,,,,,,,,,,,,,,,,,,"MET09701/10/20 09:53:02 METAR PASO 101853Z 00000KT 10SM CLR M14/M17 A2996 RMK AO2 SLP145 T11441167 TSNO","FM-15","7",,,,,,,,,,,,,,,,,,,,,,,,,,,,"2005-10-30"
"70362125516","2020-01-10T10:53:00","FM-15","7",,,,,,,,,,,,,,,,,,,,,,,,,,,,,,,,,,,,,,"29.97","2","7","0.00",,,,"80","29.97","CLR:00","29.94","10.00","6","000",,"0",,,,,,,,,,,,,,,,,,,,,,,,,,,,,,,,,,,,,"MET10301/10/20 10:53:02 METAR PASO 101953Z 00000KT 10SM CLR M14/M17 A2997 RMK AO2 SLP150 I1000 T11391167 TSNO","FM-15","7",,,,,,,,,,,,,,,,,,,,,,,,,,,,"2005-10-30"
"70362125516","2020-01-10T11:53:00","FM-15","7",,,,,,,,,,,,,,,,,,,,,,,,,,,,,,,,,,,,,,"29.96","6","13","0.00",,"-0.01","0","74","29.96","CLR:00","29.93","10.00","11","VRB",,"3",,,,,,,,,,,,,,,,,,,,,,,,,,,,,,,,,,,,,"MET10901/10/20 11:53:02 METAR PASO 102053Z VRB03KT 10SM CLR M11/M14 A2996 RMK AO2 SLP146 I3000 T11061144 50003 TSNO","FM-15","7",,,,,,,,,,,,,,,,,,,,,,,,,,,,"2005-10-30"
"70362125516","2020-01-10T12:53:00","FM-15","7",,,,,,,,,,,,,,,,,,,,,,,,,,,,,,,,,,,,,,"29.97","3","19","0.00",,,,"49","29.97","CLR:00","29.94","10.00","15","360",,"10",,,,,,,,,,,,,,,,,,,,,,,,,,,,,,,,,,,,,"MET09701/10/20 12:53:02 METAR PASO 102153Z 36009KT 10SM CLR M07/M16 A2997 RMK AO2 SLP150 T10721161 TSNO","FM-15","7",,,,,,,,,,,,,,,,,,,,,,,,,,,,"2005-10-30"
"70362125516","2020-01-10T13:53:00","FM-15","7",,,,,,,,,,,,,,,,,,,,,,,,,,,,,,,,,,,,,,"29.98","3","18","0.00",,,,"52","29.98","CLR:00","29.95","10.00","15","020",,"6",,,,,,,,,,,,,,,,,,,,,,,,,,,,,,,,,,,,,"MET09701/10/20 13:53:02 METAR PASO 102253Z 02005KT 10SM CLR M08/M16 A2998 RMK AO2 SLP151 T10781161 TSNO","FM-15","7",,,,,,,,,,,,,,,,,,,,,,,,,,,,"2005-10-30"
"70362125516","2020-01-10T14:53:00","FM-15","7",,,,,,,,,,,,,,,,,,,,,,,,,,,,,,,,,,,,,,"29.96","4","15","0.00",,"-0.00","0","61","29.96","CLR:00","29.93","10.00","12","360",,"3",,,,,,,,,,,,,,,,,,,,,,,,,,,,,,,,,,,,,"MET12101/10/20 14:53:02 METAR PASO 102353Z 36003KT 10SM CLR M09/M16 A2996 RMK AO2 SLP147 I6000 T10941156 11067 21150 50001 TSNO","FM-15","7",,,,,,,,,,,,,,,,,,,,,,,,,,,,"2005-10-30"
"70362125516","2020-01-10T15:53:00","FM-15","7",,,,,,,,,,,,,,,,,,,,,,,,,,,,,,,,,,,,,,"29.95","3","16","0.00",,,,"56","29.95","CLR:00","29.92","10.00","13","350",,"8",,,,,,,,,,,,,,,,,,,,,,,,,,,,,,,,,,,,,"MET09701/10/20 15:53:01 METAR PASO 110053Z 35007KT 10SM CLR M09/M16 A2995 RMK AO2 SLP141 T10891161 TSNO","FM-15","7",,,,,,,,,,,,,,,,,,,,,,,,,,,,"2005-10-30"
"70362125516","2020-01-10T16:53:00","FM-15","7",,,,,,,,,,,,,,,,,,,,,,,,,,,,,,,,,,,,,,"29.92","3","16","0.00",,,,"56","29.92","CLR:00","29.89","10.00","13","350",,"10",,,,,,,,,,,,,,,,,,,,,,,,,,,,,,,,,,,,,"MET09701/10/20 16:53:01 METAR PASO 110153Z 35009KT 10SM CLR M09/M16 A2992 RMK AO2 SLP133 T10891161 TSNO","FM-15","7",,,,,,,,,,,,,,,,,,,,,,,,,,,,"2005-10-30"
"70362125516","2020-01-10T17:53:00","FM-15","7",,,,,,,,,,,,,,,,,,,,,,,,,,,,,,,,,,,,,,"29.94","6","12","0.00",,"+0.02","5","77","29.94","CLR:00","29.91","10.00","11","VRB",,"5",,,,,,,,,,,,,,,,,,,,,,,,,,,,,,,,,,,,,"MET10301/10/20 17:53:01 METAR PASO 110253Z VRB04KT 10SM CLR M11/M14 A2994 RMK AO2 SLP138 T11111144 55008 TSNO","FM-15","7",,,,,,,,,,,,,,,,,,,,,,,,,,,,"2005-10-30"
"70362125516","2020-01-10T18:53:00","FM-15","7",,,,,,,,,,,,,,,,,,,,,,,,,,,,,,,,,,,,,,"29.92","6","18","0.00",,,,"59","29.92","CLR:00","29.89","10.00","15","VRB","22","8",,,,,,,,,,,,,,,,,,,,,,,,,,,,,,,,,,,,,"MET10001/10/20 18:53:01 METAR PASO 110353Z 35007G19KT 10SM CLR M08/M14 A2992 RMK AO2 SLP133 T10781144 TSNO","FM-15","7",,,,,,,,,,,,,,,,,,,,,,,,,,,,"2005-10-30"
"70362125516","2020-01-10T19:53:00","FM-15","7",,,,,,,,,,,,,,,,,,,,,,,,,,,,,,,,,,,,,,"29.92","2","18","0.00",,,,"49","29.92","CLR:00","29.89","10.00","14","010",,"7",,,,,,,,,,,,,,,,,,,,,,,,,,,,,,,,,,,,,"MET09701/10/20 19:53:02 METAR PASO 110453Z 01006KT 10SM CLR M08/M17 A2992 RMK AO2 SLP131 T10781167 TSNO","FM-15","7",,,,,,,,,,,,,,,,,,,,,,,,,,,,"2005-10-30"
"70362125516","2020-01-10T20:53:00","FM-15","7",,,,,,,,,,,,,,,,,,,,,,,,,,,,,,,,,,,,,,"29.91","-1","19","0.00",,"+0.03","6","41","29.91","CLR:00","29.88","10.00","15","VRB",,"7",,,,,,,,,,,,,,,,,,,,,,,,,,,,,,,,,,,,,"MET11501/10/20 20:53:02 METAR PASO 110553Z VRB06KT 10SM CLR M07/M18 A2991 RMK AO2 SLP128 T10721183 11072 21111 56010 TSNO","FM-15","7",,,,,,,,,,,,,,,,,,,,,,,,,,,,"2005-10-30"
"70362125516","2020-01-10T21:53:00","FM-15","7",,,,,,,,,,,,,,,,,,,,,,,,,,,,,,,,,,,,,,"29.91","2","18","0.00",,,,"49","29.91","FEW:02 120","29.88","10.00","14","010",,"7",,,,,,,,,,,,,,,,,,,,,,,,,,,,,,,,,,,,,"MET10001/10/20 21:53:02 METAR PASO 110653Z 01006KT 10SM FEW120 M08/M17 A2991 RMK AO2 SLP127 T10781167 TSNO","FM-15","7",,,,,,,,,,,,,,,,,,,,,,,,,,,,"2005-10-30"
"70362125516","2020-01-10T22:53:00","FM-15","7",,,,,,,,,,,,,,,,,,,,,,,,,,,,,,,,,,,,,,"29.92","4","16","0.00",,,,"59","29.92","SCT:04 110","29.89","10.00","13","000",,"0",,,,,,,,,,,,,,,,,,,,,,,,,,,,,,,,,,,,,"MET10001/10/20 22:53:02 METAR PASO 110753Z 00000KT 10SM SCT110 M09/M16 A2992 RMK AO2 SLP132 T10891156 TSNO","FM-15","7",,,,,,,,,,,,,,,,,,,,,,,,,,,,"2005-10-30"
"70362125516","2020-01-10T23:53:00","FM-15","7",,,,,,,,,,,,,,,,,,,,,,,,,,,,,,,,,,,,,,"29.93","2","19","0.00",,"-0.02","3","47","29.93","OVC:08 110","29.90","10.00","15","VRB",,"6",,,,,,,,,,,,,,,,,,,,,,,,,,,,,,,,,,,,,"MET11601/10/20 23:53:02 METAR PASO 110853Z VRB05KT 10SM OVC110 M07/M17 A2993 RMK AO2 SLP135 T10721167 410671150 53006 TSNO","FM-15","7",,,,,,,,,,,,,,,,,,,,,,,,,,,,"2005-10-30"
"70362125516","2020-01-10T23:59:00","SOD  ","6",,,,,,,,,,,,,,,,"13",,,"29.90",,"3.6","0","-12.9","52","20","5","010","26","0.00",,,"010","15",,,,,,,,,,,,,,,,,,,,,,,,,,,,,,,,,,,,,,,,,,,,,,,,,,,,,,,,,"SOD73024 HR PRECIPITATION (IN):0.00  24 HR MAX TEMP (F):20 24 HR MAX TEMP TIME (LST):1313 24 HR MIN TEMP (F):5  24 HR MIN TEMP TIME (LST):0914 AVERAGE STATION PRESSURE:29.900 MINIMUM SEA LEVEL PRESSURE:29.89 TIME OF OCCURRENCE:0008 PEAK WIND SPEED (MPH):26  PEAK WIND DIR (DEG):10  PEAK WIND TIME (LST):2005  FASTEST 2MIN SPEED (MPH):15 FASTEST 2MIN DIR (DEG):10  FASTEST 2MIN TIME (LST):1307 AVERAGE WIND SPEED (MPH):3.6  24 HR AVG TEMP (F):13 HEATING DEGREE DAYS:52  COOLING DEGREE DAYS:0   LATEST DAY MAX TEMP (0700-1900 LST):20  LATEST NIGHT MIN TEMP(1900-0800 LST):7  HOURLY INCREMENTAL PRECIPITATION VALUES (IN):.00 0.00 0.00 0.00 0.00 0.00 0.00 0.00 0.00 0.00 0.00 0.00 0.00 0.00 0.00 0.00 0.00 0.00 0.00 0.00 0.00 0.00 0.00 0.00","SOD  ","6",,,,,,,,,,,,,,,,,,,,,,,,,"0957","1633",,"2005-10-30"
"70362125516","2020-01-11T00:53:00","FM-15","7",,,,,,,,,,,,,,,,,,,,,,,,,,,,,,,,,,,,,,"29.93","4","19","0.00",,,,"51","29.93","OVC:08 100","29.90","10.00","15","000",,"0",,,,,,,,,,,,,,,,,,,,,,,,,,,,,,,,,,,,,"MET10001/11/20 00:53:02 METAR PASO 110953Z 00000KT 10SM OVC100 M07/M16 A2993 RMK AO2 SLP136 T10721156 TSNO","FM-15","7",,,,,,,,,,,,,,,,,,,,,,,,,,,,"2005-10-30"
"70362125516","2020-01-11T01:53:00","FM-15","7",,,,,,,,,,,,,,,,,,,,,,,,,,,,,,,,,,,,,,"29.95","5","18","0.00",,,,"57","29.95","OVC:08 110","29.92","10.00","15","VRB",,"6",,,,,,,,,,,,,,,,,,,,,,,,,,,,,,,,,,,,,"MET10001/11/20 01:53:02 METAR PASO 111053Z VRB05KT 10SM OVC110 M08/M15 A2995 RMK AO2 SLP143 T10781150 TSNO","FM-15","7",,,,,,,,,,,,,,,,,,,,,,,,,,,,"2005-10-30"
"70362125516","2020-01-11T02:53:00","FM-15","7",,,,,,,,,,,,,,,,,,,,,,,,,,,,,,,,,,,,,,"29.98","5","18","0.00",,"-0.05","3","57","29.97","BKN:07 120","29.95","10.00","15","010",,"3",,,,,,,,,,,,,,,,,,,,,,,,,,,,,,,,,,,,,"MET11801/11/20 02:53:02 METAR PASO 111153Z 01003KT 10SM BKN120 M08/M15 A2998 RMK AO2 SLP150 T10781150 11072 21089 53016 TSNO","FM-15","7",,,,,,,,,,,,,,,,,,,,,,,,,,,,"2005-10-30"
"70362125516","2020-01-11T03:53:00","FM-15","7",,,,,,,,,,,,,,,,,,,,,,,,,,,,,,,,,,,,,,"30.00","5","18","0.00",,,,"57","30.00","CLR:00","29.97","10.00","15","VRB",,"3",,,,,,,,,,,,,,,,,,,,,,,,,,,,,,,,,,,,,"MET09701/11/20 03:53:02 METAR PASO 111253Z VRB03KT 10SM CLR M08/M15 A3000 RMK AO2 SLP160 T10781150 TSNO","FM-15","7",,,,,,,,,,,,,,,,,,,,,,,,,,,,"2005-10-30"
"70362125516","2020-01-11T04:53:00","FM-15","6",,,,,,,,,,,,,,,,,,,,,,,,,,,,,,,,,,,,,,"30.03","9","16","0.00",,,,"74","30.03","CLR:00","30.00","10.00","14","000",,"0",,,,,,,,,,,,,,,,,,,,,,,,,,,,,,,,,,,,,"MET09701/11/20 04:53:02 METAR PASO 111353Z 00000KT 10SM CLR M09/M13 A3003 RMK AO2 SLP169 T10891128 TSNO","FM-15","6",,,,,,,,,,,,,,,,,,,,,,,,,,,,"2005-10-30"
"70362125516","2020-01-11T05:53:00","FM-15","6",,,,,,,,,,,,,,,,,,,,,,,,,,,,,,,,,,,,,,"30.04","10","15","0.00",,"-0.07","1","80","30.04","CLR:00","30.01","10.00","14","000",,"0",,,,,,,,,,,,,,,,,,,,,,,,,,,,,,,,,,,,,"MET10301/11/20 05:53:02 METAR PASO 111453Z 00000KT 10SM CLR M09/M12 A3004 RMK AO2 SLP173 T10941122 51023 TSNO","FM-15","6",,,,,,,,,,,,,,,,,,,,,,,,,,,,"2005-10-30"
"70362125516","2020-01-11T06:53:00","FM-15","6",,,,,,,,,,,,,,,,,,,,,,,,,,,,,,,,,,,,,,"30.07","10","15","0.00",,,,"80","30.07","CLR:00","30.04","10.00","14","VRB",,"3",,,,,,,,,,,,,,,,,,,,,,,,,,,,,,,,,,,,,"MET09701/11/20 06:53:02 METAR PASO 111553Z VRB03KT 10SM CLR M09/M12 A3007 RMK AO2 SLP183 T10941122 TSNO","FM-15","6",,,,,,,,,,,,,,,,,,,,,,,,,,,,"2005-10-30"
"70362125516","2020-01-11T07:53:00","FM-15","7",,,,,,,,,,,,,,,,,,,,,,,,,,,,,,,,,,,,,,"30.10","9","13","0.00",,,,"84","30.09","CLR:00","30.07","10.00","12","010",,"3",,,,,,,,,,,,,,,,,,,,,,,,,,,,,,,,,,,,,"MET09701/11/20 07:53:02 METAR PASO 111653Z 01003KT 10SM CLR M11/M13 A3010 RMK AO2 SLP191 T11061128 TSNO","FM-15","7",,,,,,,,,,,,,,,,,,,,,,,,,,,,"2005-10-30"
"70362125516","2020-01-11T08:53:00","FM-15","6",,,,,,,,,,,,,,,,,,,,,,,,,,,,,,,,,,,,,,"30.11","6","11","0.00",,"-0.07","1","81","30.11","CLR:00","30.08","10.00","10","000",,"0",,,,,,,,,,,,,,,,,,,,,,,,,,,,,,,,,,,,,"MET11501/11/20 08:53:02 METAR PASO 111753Z 00000KT 10SM CLR M12/M14 A3011 RMK AO2 SLP197 T11171144 11078 21117 51024 TSNO","FM-15","6",,,,,,,,,,,,,,,,,,,,,,,,,,,,"2005-10-30"
"70362125516","2020-01-11T09:53:00","FM-15","6",,,,,,,,,,,,,,,,,,,,,,,,,,,,,,,,,,,,,,"30.16","9","16","0.00",,,,"74","30.16","CLR:00","30.13","10.00","14","VRB",,"5",,,,,,,,,,,,,,,,,,,,,,,,,,,,,,,,,,,,,"MET09701/11/20 09:53:02 METAR PASO 111853Z VRB04KT 10SM CLR M09/M13 A3016 RMK AO2 SLP212 T10891128 TSNO","FM-15","6",,,,,,,,,,,,,,,,,,,,,,,,,,,,"2005-10-30"
"70362125516","2020-01-11T10:53:00","FM-15","7",,,,,,,,,,,,,,,,,,,,,,,,,,,,,,,,,,,,,,"30.20","7","11","0.00",,,,"84","30.20","CLR:00","30.17","10.00","10","360",,"3",,,,,,,,,,,,,,,,,,,,,,,,,,,,,,,,,,,,,"MET09701/11/20 10:53:02 METAR PASO 111953Z 36003KT 10SM CLR M12/M14 A3020 RMK AO2 SLP226 T11171139 TSNO","FM-15","7",,,,,,,,,,,,,,,,,,,,,,,,,,,,"2005-10-30"
"70362125516","2020-01-11T11:53:00","FM-15","7",,,,,,,,,,,,,,,,,,,,,,,,,,,,,,,,,,,,,,"30.22","7","11","0.00",,"-0.11","1","84","30.22","CLR:00","30.19","10.00","10","000",,"0",,,,,,,,,,,,,,,,,,,,,,,,,,,,,,,,,,,,,"MET10301/11/20 11:53:02 METAR PASO 112053Z 00000KT 10SM CLR M12/M14 A3022 RMK AO2 SLP234 T11171139 51037 TSNO","FM-15","7",,,,,,,,,,,,,,,,,,,,,,,,,,,,"2005-10-30"
"70362125516","2020-01-11T12:53:00","FM-15","7",,,,,,,,,,,,,,,,,,,,,,,,,,,,,,,,,,,,,,"30.26","10","14","0.00",,,,"84","30.26","CLR:00","30.23","10.00","13","000",,"0",,,,,,,,,,,,,,,,,,,,,,,,,,,,,,,,,,,,,"MET09701/11/20 12:53:02 METAR PASO 112153Z 00000KT 10SM CLR M10/M12 A3026 RMK AO2 SLP248 T11001122 TSNO","FM-15","7",,,,,,,,,,,,,,,,,,,,,,,,,,,,"2005-10-30"
"70362125516","2020-01-11T13:53:00","FM-15","7",,,,,,,,,,,,,,,,,,,,,,,,,,,,,,,,,,,,,,"30.26","12","19","0.00",,,,"74","30.25","CLR:00","30.23","10.00","17","360",,"3",,,,,,,,,,,,,,,,,,,,,,,,,,,,,,,,,,,,,"MET09701/11/20 13:53:02 METAR PASO 112253Z 36003KT 10SM CLR M07/M11 A3026 RMK AO2 SLP245 T10721111 TSNO","FM-15","7",,,,,,,,,,,,,,,,,,,,,,,,,,,,"2005-10-30"
"70362125516","2020-01-11T14:53:00","FM-15","7",,,,,,,,,,,,,,,,,,,,,,,,,,,,,,,,,,,,,,"30.24","7","20","0.00",,"-0.01","0","57","30.23","CLR:00","30.21","10.00","17","350",,"7",,,,,,,,,,,,,,,,,,,,,,,,,,,,,,,,,,,,,"MET11501/11/20 14:53:02 METAR PASO 112353Z 35006KT 10SM CLR M07/M14 A3024 RMK AO2 SLP238 T10671139 11067 21128 50005 TSNO","FM-15","7",,,,,,,,,,,,,,,,,,,,,,,,,,,,"2005-10-30"
"70362125516","2020-01-11T15:53:00","FM-15","7",,,,,,,,,,,,,,,,,,,,,,,,,,,,,,,,,,,,,,"30.23","9","19","0.00",,,,"65","30.23","CLR:00","30.20","10.00","16","VRB","20","8",,,,,,,,,,,,,,,,,,,,,,,,,,,,,,,,,,,,,"MET10001/11/20 15:53:01 METAR PASO 120053Z 35007G17KT 10SM CLR M07/M13 A3023 RMK AO2 SLP237 T10721128 TSNO","FM-15","7",,,,,,,,,,,,,,,,,,,,,,,,,,,,"2005-10-30"
"70362125516","2020-01-11T16:53:00","FM-15","7",,,,,,,,,,,,,,,,,,,,,,,,,,,,,,,,,,,,,,"30.23","5","19","0.00",,,,"54","30.23","CLR:00","30.20","10.00","16","VRB",,"8",,,,,,,,,,,,,,,,,,,,,,,,,,,,,,,,,,,,,"MET09701/11/20 16:53:01 METAR PASO 120153Z 35007KT 10SM CLR M07/M15 A3023 RMK AO2 SLP237 T10721150 TSNO","FM-15","7",,,,,,,,,,,,,,,,,,,,,,,,,,,,"2005-10-30"
"70362125516","2020-01-11T17:53:00","FM-15","7",,,,,,,,,,,,,,,,,,,,,,,,,,,,,,,,,,,,,,"30.23","9","16","0.00",,"+0.00","5","74","30.23","CLR:00","30.20","10.00","14","VRB",,"5",,,,,,,,,,,,,,,,,,,,,,,,,,,,,,,,,,,,,"MET10301/11/20 17:53:01 METAR PASO 120253Z VRB04KT 10SM CLR M09/M13 A3023 RMK AO2 SLP238 T10891128 55000 TSNO","FM-15","7",,,,,,,,,,,,,,,,,,,,,,,,,,,,"2005-10-30"
"70362125516","2020-01-11T18:53:00","FM-15","7",,,,,,,,,,,,,,,,,,,,,,,,,,,,,,,,,,,,,,"30.24","8","12","0.00",,,,"84","30.24","CLR:00","30.21","10.00","11","000",,"0",,,,,,,,,,,,,,,,,,,,,,,,,,,,,,,,,,,,,"MET09701/11/20 18:53:01 METAR PASO 120353Z 00000KT 10SM CLR M11/M13 A3024 RMK AO2 SLP241 T11111133 TSNO","FM-15","7",,,,,,,,,,,,,,,,,,,,,,,,,,,,"2005-10-30"
"70362125516","2020-01-11T19:53:00","FM-15","7",,,,,,,,,,,,,,,,,,,,,,,,,,,,,,,,,,,,,,"30.24","6","11","0.00",,,,"81","30.24","CLR:00","30.21","10.00","10","000",,"0",,,,,,,,,,,,,,,,,,,,,,,,,,,,,,,,,,,,,"MET09701/11/20 19:53:02 METAR PASO 120453Z 00000KT 10SM CLR M12/M14 A3024 RMK AO2 SLP241 T11171144 TSNO","FM-15","7",,,,,,,,,,,,,,,,,,,,,,,,,,,,"2005-10-30"
"70362125516","2020-01-11T20:53:00","FM-15","7",,,,,,,,,,,,,,,,,,,,,,,,,,,,,,,,,,,,,,"30.24","6","11","0.00",,"-0.00","0","81","30.24","CLR:00","30.21","10.00","10","000",,"0",,,,,,,,,,,,,,,,,,,,,,,,,,,,,,,,,,,,,"MET11501/11/20 20:53:02 METAR PASO 120553Z 00000KT 10SM CLR M12/M14 A3024 RMK AO2 SLP239 T11171144 11067 21133 50001 TSNO","FM-15","7",,,,,,,,,,,,,,,,,,,,,,,,,,,,"2005-10-30"
"70362125516","2020-01-11T21:53:00","FM-15","7",,,,,,,,,,,,,,,,,,,,,,,,,,,,,,,,,,,,,,"30.22","7","11","0.00",,,,"84","30.22","CLR:00","30.19","10.00","10","000",,"0",,,,,,,,,,,,,,,,,,,,,,,,,,,,,,,,,,,,,"MET10301/11/20 21:53:02 METAR PASO 120653Z 00000KT 10SM CLR M12/M14 A3022 RMK AO2 SLP233 I1000 T11171139 TSNO","FM-15","7",,,,,,,,,,,,,,,,,,,,,,,,,,,,"2005-10-30"
"70362125516","2020-01-11T22:53:00","FM-15","7",,,,,,,,,,,,,,,,,,,,,,,,,,,,,,,,,,,,,,"30.21","8","12","0.00",,,,"84","30.21","CLR:00","30.18","10.00","11","000",,"0",,,,,,,,,,,,,,,,,,,,,,,,,,,,,,,,,,,,,"MET09701/11/20 22:53:02 METAR PASO 120753Z 00000KT 10SM CLR M11/M13 A3021 RMK AO2 SLP230 T11111133 TSNO","FM-15","7",,,,,,,,,,,,,,,,,,,,,,,,,,,,"2005-10-30"
"70362125516","2020-01-11T23:53:00","FM-15","7",,,,,,,,,,,,,,,,,,,,,,,,,,,,,,,,,,,,,,"30.21","9","13","0.00",,"+0.02","5","84","30.21","FEW:02 35","30.18","10.00","12","000",,"0",,,,,,,,,,,,,,,,,,,,,,,,,,,,,,,,,,,,,"MET12201/11/20 23:53:02 METAR PASO 120853Z 00000KT 10SM FEW035 M11/M13 A3021 RMK AO2 SLP231 I3000 T11061128 410671133 55008 TSNO","FM-15","7",,,,,,,,,,,,,,,,,,,,,,,,,,,,"2005-10-30"
"70362125516","2020-01-11T23:59:00","SOD  ","6",,,,,,,,,,,,,,,,"14",,,"30.11",,"2.4","0","-11.8","51","20","8","020s","19s","0.00",,,"010","13",,,,,,,,,,,,,,,,,,,,,,,,,,,,,,,,,,,,,,,,,,,,,,,,,,,,,,,,,"SOD73024 HR PRECIPITATION (IN):0.00  24 HR MAX TEMP (F):20 24 HR MAX TEMP TIME (LST):1547 24 HR MIN TEMP (F):8  24 HR MIN TEMP TIME (LST):2028 AVERAGE STATION PRESSURE:30.105 MINIMUM SEA LEVEL PRESSURE:29.93 TIME OF OCCURRENCE:0100 PEAK WIND SPEED (MPH):19  PEAK WIND DIR (DEG):20  PEAK WIND TIME (LST):1545  FASTEST 2MIN SPEED (MPH):13 FASTEST 2MIN DIR (DEG):10  FASTEST 2MIN TIME (LST):1545 AVERAGE WIND SPEED (MPH):2.4  24 HR AVG TEMP (F):14 HEATING DEGREE DAYS:51  COOLING DEGREE DAYS:0   LATEST DAY MAX TEMP (0700-1900 LST):20  LATEST NIGHT MIN TEMP(1900-0800 LST):13 HOURLY INCREMENTAL PRECIPITATION VALUES (IN):.00 0.00 0.00 0.00 0.00 0.00 0.00 0.00 0.00 0.00 0.00 0.00 0.00 0.00 0.00 0.00 0.00 0.00 0.00 0.00 0.00 0.00 0.00 0.00","SOD  ","6",,,,,,,,,,,,,,,,,,,,,,,,,"0956","1635",,"2005-10-30"
"70362125516","2020-01-12T00:53:00","FM-15","7",,,,,,,,,,,,,,,,,,,,,,,,,,,,,,,,,,,,,,"30.22","10","13","0.00",,,,"88","30.22","FEW:02 36 SCT:04 120","30.19","10.00","12","000",,"0",,,,,,,,,,,,,,,,,,,,,,,,,,,,,,,,,,,,,"MET10701/12/20 00:53:02 METAR PASO 120953Z 00000KT 10SM FEW036 SCT120 M11/M12 A3022 RMK AO2 SLP233 T11061122 TSNO","FM-15","7",,,,,,,,,,,,,,,,,,,,,,,,,,,,"2005-10-30"
"70362125516","2020-01-12T01:53:00","FM-15","7",,,,,,,,,,,,,,,,,,,,,,,,,,,,,,,,,,,,,,"30.18","12","15","0.00",,,,"88","30.18","OVC:08 36","30.15","10.00","14","000",,"0",,,,,,,,,,,,,,,,,,,,,,,,,,,,,,,,,,,,,"MET10001/12/20 01:53:02 METAR PASO 121053Z 00000KT 10SM OVC036 M09/M11 A3018 RMK AO2 SLP221 T10941111 TSNO","FM-15","7",,,,,,,,,,,,,,,,,,,,,,,,,,,,"2005-10-30"
"70362125516","2020-01-12T02:53:00","FM-15","7",,,,,,,,,,,,,,,,,,,,,,,,,,,,,,,,,,,,,,"30.18","13","17","0.00",,"+0.04","8","84","30.18","OVC:08 33","30.15","10.00","16","000",,"0",,,,,,,,,,,,,,,,,,,,,,,,,,,,,,,,,,,,,"MET12401/12/20 02:53:02 METAR PASO 121153Z 00000KT 10SM OVC033 M08/M11 A3018 RMK AO2 SLP219 I6000 T10831106 11083 21128 58012 TSNO","FM-15","7",,,,,,,,,,,,,,,,,,,,,,,,,,,,"2005-10-30"
"70362125516","2020-01-12T03:53:00","FM-15","7",,,,,,,,,,,,,,,,,,,,,,,,,,,,,,,,,,,,,,"30.16","15","19","0.00",,,,"84","30.16","BKN:07 36 BKN:07 50 OVC:08 95","30.13","10.00","18","000",,"0",,,,,,,,,,,,,,,,,,,,,,,,,,,,,,,,,,,,,"MET11401/12/20 03:53:02 METAR PASO 121253Z 00000KT 10SM BKN036 BKN050 OVC095 M07/M09 A3016 RMK AO2 SLP212 T10721094 TSNO","FM-15","7",,,,,,,,,,,,,,,,,,,,,,,,,,,,"2005-10-30"
"70362125516","2020-01-12T04:53:00","FM-15","7",,,,,,,,,,,,,,,,,,,,,,,,,,,,,,,,,,,,,,"30.12","16","19","0.00",,,,"88","30.12","FEW:02 41 BKN:07 60 OVC:08 90","30.09","10.00","18","000",,"0",,,,,,,,,,,,,,,,,,,,,,,,,,,,,,,,,,,,,"MET11401/12/20 04:53:02 METAR PASO 121353Z 00000KT 10SM FEW041 BKN060 OVC090 M07/M09 A3012 RMK AO2 SLP200 T10721089 TSNO","FM-15","7",,,,,,,,,,,,,,,,,,,,,,,,,,,,"2005-10-30"
"70362125516","2020-01-12T05:53:00","FM-15","7",,,,,,,,,,,,,,,,,,,,,,,,,,,,,,,,,,,,,,"30.11","18","21","0.00",,"+0.07","6","88","30.11","BKN:07 45 OVC:08 75","30.08","10.00","20","000",,"0",,,,,,,,,,,,,,,,,,,,,,,,,,,,,,,,,,,,,"MET11301/12/20 05:53:02 METAR PASO 121453Z 00000KT 10SM BKN045 OVC075 M06/M08 A3011 RMK AO2 SLP195 T10611078 56025 TSNO","FM-15","7",,,,,,,,,,,,,,,,,,,,,,,,,,,,"2005-10-30"
"70362125516","2020-01-12T06:53:00","FM-15","7",,,,,,,,,,,,,,,,,,,,,,,,,,,,,,,,,,,,,,"30.09","20","23","T",,,,"88","30.09","BKN:07 45 OVC:08 75","30.06","10.00","22","000",,"0",,,,,,,,,,,,,,,,,,,,,,,,,,,,,,,,,,,,,"MET12201/12/20 06:53:02 METAR PASO 121553Z 00000KT 10SM BKN045 OVC075 M05/M07 A3009 RMK AO2 SNB14E29 SLP190 P0000 T10501067 TSNO","FM-15","7",,,,,,,,,,,,,,,,,,,,,,,,,,,,"2005-10-30"
"70362125516","2020-01-12T07:53:00","FM-15","7",,,,,,,,,,,,,,,,,,,,,,,,,,,,,,,,,,,,,,"30.09","23","25","T","-SN:03 |SN |",,,"92","30.09","OVC:08 42","30.06","8.00","24","000",,"0",,,,,,,,,,,,,,,,,,,,,,,,,,,,,,,,,,,,,"MET11501/12/20 07:53:02 METAR PASO 121653Z 00000KT 8SM -SN OVC042 M04/M05 A3009 RMK AO2 SNB36 SLP188 P0000 T10391050 TSNO","FM-15","7",,,,,,,,,,,,,,,,,,,,,,,,,,,,"2005-10-30"
"70362125516","2020-01-12T08:33:00","FM-16","7",,,,,,,,,,,,,,,,,,,,,,,,,,,,,,,,,,,,,,"30.07","24","26","T","-SN:03 BR:1 |SN |",,,"92",,"BKN:07 26 OVC:08 33","30.04","2.50","25","000",,"0",,,,,,,,,,,,,,,,,,,,,,,,,,,,,,,,,,,,,"MET11601/12/20 08:33:02 SPECI PASO 121733Z 00000KT 2 1/2SM -SN BR BKN026 OVC033 M03/M04 A3007 RMK AO2 P0000 T10331044 TSNO","FM-16","7",,,,,,,,,,,,,,,,,,,,,,,,,,,,"2005-10-30"
"70362125516","2020-01-12T08:53:00","FM-15","7",,,,,,,,,,,,,,,,,,,,,,,,,,,,,,,,,,,,,,"30.07","25","27","T","-SN:03 BR:1 |SN |","+0.04","6","92","30.07","SCT:04 10 SCT:04 17 OVC:08 26","30.04","2.50","26","000",,"0",,,,,,,,,,,,,,,,,,,,,,,,,,,,,,,,,,,,,"MET15401/12/20 08:53:02 METAR PASO 121753Z 00000KT 2 1/2SM -SN BR SCT010 SCT017 OVC026 M03/M04 A3007 RMK AO2 SLP183 P0000 60000 T10281039 11028 21083 56012 TSNO","FM-15","7",,,,,,,,,,,,,,,,,,,,,,,,,,,,"2005-10-30"
"70362125516","2020-01-12T09:04:00","FM-16","7",,,,,,,,,,,,,,,,,,,,,,,,,,,,,,,,,,,,,,"30.07","25","28","T","-SN:03 BR:1 |SN |",,,"88",,"BKN:07 9 BKN:07 16 OVC:08 25","30.04","2.50","27","000",,"0",,,,,,,,,,,,,,,,,,,,,,,,,,,,,,,,,,,,,"MET12301/12/20 09:04:02 SPECI PASO 121804Z 00000KT 2 1/2SM -SN BR BKN009 BKN016 OVC025 M02/M04 A3007 RMK AO2 P0000 T10221039 TSNO","FM-16","7",,,,,,,,,,,,,,,,,,,,,,,,,,,,"2005-10-30"
"70362125516","2020-01-12T09:51:00","FM-16","6",,,,,,,,,,,,,,,,,,,,,,,,,,,,,,,,,,,,,,"30.07","25","28",,"-SN:03 BR:1 |SN |",,,"86",,"OVC:08 9","30.04","1.75","27","000",,"0",,,,,,,,,,,,,,,,,,,,,,,,,,,,,,,,,,,,,"MET10401/12/20 09:51:02 SPECI PASO 121851Z 00000KT 1 3/4SM -SN BR OVC009 M02/M04 A3007 RMK AO2 P0000 TSNO FIBI","FM-16","6",,,,,,,,,,,,,,,,,,,,,,,,,,,,"2005-10-30"
"70362125516","2020-01-12T09:53:00","FM-15","7",,,,,,,,,,,,,,,,,,,,,,,,,,,,,,,,,,,,,,"30.07","25","28","T","-SN:03 BR:1 |SN |",,,"88","30.07","OVC:08 9","30.04","2.00","27","000",,"0",,,,,,,,,,,,,,,,,,,,,,,,,,,,,,,,,,,,,"MET11201/12/20 09:53:02 METAR PASO 121853Z 00000KT 2SM -SN BR OVC009 M02/M04 A3007 RMK AO2 SLP184 P0000 T10221039 TSNO","FM-15","7",,,,,,,,,,,,,,,,,,,,,,,,,,,,"2005-10-30"
"70362125516","2020-01-12T10:06:00","FM-16","7",,,,,,,,,,,,,,,,,,,,,,,,,,,,,,,,,,,,,,"30.08","26","28","T","-SN:03 BR:1 |SN |",,,"92",,"OVC:08 9","30.05","1.50","27","000",,"0",,,,,,,,,,,,,,,,,,,,,,,,,,,,,,,,,,,,,"MET10901/12/20 10:06:02 SPECI PASO 121906Z 00000KT 1 1/2SM -SN BR OVC009 M02/M03 A3008 RMK AO2 P0000 T10221033 TSNO","FM-16","7",,,,,,,,,,,,,,,,,,,,,,,,,,,,"2005-10-30"
"70362125516","2020-01-12T10:49:00","FM-16","7",,,,,,,,,,,,,,,,,,,,,,,,,,,,,,,,,,,,,,"30.07","25","27","T","-SN:03 BR:1 |SN |",,,"93",,"BKN:07 9 OVC:08 14","30.04","3.00","26","000",,"0",,,,,,,,,,,,,,,,,,,,,,,,,,,,,,,,,,,,,"MET10201/12/20 10:49:02 SPECI PASO 121949Z 00000KT 3SM -SN BR BKN009 OVC014 M03/M04 A3007 RMK AO2 P0000 TSNO","FM-16","7",,,,,,,,,,,,,,,,,,,,,,,,,,,,"2005-10-30"
"70362125516","2020-01-12T10:53:00","FM-15","7",,,,,,,,,,,,,,,,,,,,,,,,,,,,,,,,,,,,,,"30.08","24","27","T","-SN:03 BR:1 |SN |",,,"89","30.07","BKN:07 10 OVC:08 14","30.05","3.00","26","000",,"0",,,,,,,,,,,,,,,,,,,,,,,,,,,,,,,,,,,,,"MET11901/12/20 10:53:02 METAR PASO 121953Z 00000KT 3SM -SN BR BKN010 OVC014 M03/M04 A3008 RMK AO2 SLP184 P0000 T10281044 TSNO","FM-15","7",,,,,,,,,,,,,,,,,,,,,,,,,,,,"2005-10-30"
"70362125516","2020-01-12T11:05:00","FM-16","7",,,,,,,,,,,,,,,,,,,,,,,,,,,,,,,,,,,,,,"30.08","25","27","T","-SN:03 BR:1 |SN |",,,"92",,"OVC:08 10","30.05","2.00","26","130",,"3",,,,,,,,,,,,,,,,,,,,,,,,,,,,,,,,,,,,,"MET10501/12/20 11:05:02 SPECI PASO 122005Z 13003KT 2SM -SN BR OVC010 M03/M04 A3008 RMK AO2 P0000 T10281039 TSNO","FM-16","7",,,,,,,,,,,,,,,,,,,,,,,,,,,,"2005-10-30"
"70362125516","2020-01-12T11:14:00","FM-16","7",,,,,,,,,,,,,,,,,,,,,,,,,,,,,,,,,,,,,,"30.08","25","27","T","-SN:03 BR:1 |SN |",,,"92",,"OVC:08 9","30.05","2.50","26","000",,"0",,,,,,,,,,,,,,,,,,,,,,,,,,,,,,,,,,,,,"MET10901/12/20 11:14:02 SPECI PASO 122014Z 00000KT 2 1/2SM -SN BR OVC009 M03/M04 A3008 RMK AO2 P0000 T10281039 TSNO","FM-16","7",,,,,,,,,,,,,,,,,,,,,,,,,,,,"2005-10-30"
"70362125516","2020-01-12T11:33:00","FM-16","7",,,,,,,,,,,,,,,,,,,,,,,,,,,,,,,,,,,,,,"30.08","25","27","T","-SN:03 BR:1 |SN |",,,"92",,"OVC:08 8","30.05","1.50","26","000",,"0",,,,,,,,,,,,,,,,,,,,,,,,,,,,,,,,,,,,,"MET10901/12/20 11:33:02 SPECI PASO 122033Z 00000KT 1 1/2SM -SN BR OVC008 M03/M04 A3008 RMK AO2 P0000 T10281039 TSNO","FM-16","7",,,,,,,,,,,,,,,,,,,,,,,,,,,,"2005-10-30"
"70362125516","2020-01-12T11:53:00","FM-15","7",,,,,,,,,,,,,,,,,,,,,,,,,,,,,,,,,,,,,,"30.08","25","28","T","-SN:03 BR:1 |SN |","-0.01","3","88","30.08","OVC:08 7","30.05","1.50","27","000",,"0",,,,,,,,,,,,,,,,,,,,,,,,,,,,,,,,,,,,,"MET12801/12/20 11:53:02 METAR PASO 122053Z 00000KT 1 1/2SM -SN BR OVC007 M02/M04 A3008 RMK AO2 SLP186 P0000 60000 T10221039 53002 TSNO","FM-15","7",,,,,,,,,,,,,,,,,,,,,,,,,,,,"2005-10-30"
"70362125516","2020-01-12T12:53:00","FM-15","7",,,,,,,,,,,,,,,,,,,,,,,,,,,,,,,,,,,,,,"30.09","25","28","T","-SN:03 BR:1 |SN |",,,"88","30.09","BKN:07 7 OVC:08 11","30.06","1.50","27","000",,"0",,,,,,,,,,,,,,,,,,,,,,,,,,,,,,,,,,,,,"MET13501/12/20 12:53:02 METAR PASO 122153Z 00000KT 1 1/2SM -SN BR BKN007 OVC011 M02/M04 A3009 RMK AO2 CIG 005V009 SLP190 P0000 T10221039 TSNO","FM-15","7",,,,,,,,,,,,,,,,,,,,,,,,,,,,"2005-10-30"
"70362125516","2020-01-12T13:53:00","FM-15","7",,,,,,,,,,,,,,,,,,,,,,,,,,,,,,,,,,,,,,"30.11","24","27","T","-SN:03 BR:1 |SN |",,,"89","30.11","OVC:08 7","30.08","1.25","26","000",,"0",,,,,,,,,,,,,,,,,,,,,,,,,,,,,,,,,,,,,"MET11601/12/20 13:53:02 METAR PASO 122253Z 00000KT 1 1/4SM -SN BR OVC007 M03/M04 A3011 RMK AO2 SLP195 P0000 T10281044 TSNO","FM-15","7",,,,,,,,,,,,,,,,,,,,,,,,,,,,"2005-10-30"
"70362125516","2020-01-12T14:11:00","FM-16","7",,,,,,,,,,,,,,,,,,,,,,,,,,,,,,,,,,,,,,"30.10","25","27","T","-SN:03 BR:1 |SN |",,,"92",,"BKN:07 7 OVC:08 33","30.07","2.00","26","160",,"3",,,,,,,,,,,,,,,,,,,,,,,,,,,,,,,,,,,,,"MET11201/12/20 14:11:02 SPECI PASO 122311Z 16003KT 2SM -SN BR BKN007 OVC033 M03/M04 A3010 RMK AO2 P0000 T10281039 TSNO","FM-16","7",,,,,,,,,,,,,,,,,,,,,,,,,,,,"2005-10-30"
"70362125516","2020-01-12T14:22:00","FM-16","7",,,,,,,,,,,,,,,,,,,,,,,,,,,,,,,,,,,,,,"30.11","25","27","T","-SN:03 BR:1 |SN |",,,"92",,"BKN:07 7 OVC:08 34","30.08","1.75","26","000",,"0",,,,,,,,,,,,,,,,,,,,,,,,,,,,,,,,,,,,,"MET11601/12/20 14:22:02 SPECI PASO 122322Z 00000KT 1 3/4SM -SN BR BKN007 OVC034 M03/M04 A3011 RMK AO2 P0000 T10281039 TSNO","FM-16","7",,,,,,,,,,,,,,,,,,,,,,,,,,,,"2005-10-30"
"70362125516","2020-01-12T14:32:00","FM-16","7",,,,,,,,,,,,,,,,,,,,,,,,,,,,,,,,,,,,,,"30.11","25","27","T","-SN:03 BR:1 |SN |",,,"92",,"OVC:08 7","30.08","2.00","26","000",,"0",,,,,,,,,,,,,,,,,,,,,,,,,,,,,,,,,,,,,"MET10501/12/20 14:32:02 SPECI PASO 122332Z 00000KT 2SM -SN BR OVC007 M03/M04 A3011 RMK AO2 P0000 T10281039 TSNO","FM-16","7",,,,,,,,,,,,,,,,,,,,,,,,,,,,"2005-10-30"
"70362125516","2020-01-12T14:43:00","FM-16","7",,,,,,,,,,,,,,,,,,,,,,,,,,,,,,,,,,,,,,"30.11","25","27","T","-SN:03 BR:1 |SN |",,,"92",,"OVC:08 5","30.08","1.50","26","VRB",,"3",,,,,,,,,,,,,,,,,,,,,,,,,,,,,,,,,,,,,"MET12101/12/20 14:43:02 SPECI PASO 122343Z VRB03KT 1 1/2SM -SN BR OVC005 M03/M04 A3011 RMK AO2 CIG 004V008 P0000 T10281039 TSNO","FM-16","7",,,,,,,,,,,,,,,,,,,,,,,,,,,,"2005-10-30"
"70362125516","2020-01-12T14:53:00","FM-15","7",,,,,,,,,,,,,,,,,,,,,,,,,,,,,,,,,,,,,,"30.12","24","27","T","-SN:03 BR:1 |SN |","-0.04","1","89","30.11","OVC:08 5","30.09","1.25","26","000",,"0",,,,,,,,,,,,,,,,,,,,,,,,,,,,,,,,,,,,,"MET15201/12/20 14:53:02 METAR PASO 122353Z 00000KT 1 1/4SM -SN BR OVC005 M03/M04 A3012 RMK AO2 CIG 004V008 SLP198 P0000 60000 T10281044 11022 21028 51013 TSNO","FM-15","7",,,,,,,,,,,,,,,,,,,,,,,,,,,,"2005-10-30"
"70362125516","2020-01-12T15:14:00","FM-16","7",,,,,,,,,,,,,,,,,,,,,,,,,,,,,,,,,,,,,,"30.12","24","27","T","-SN:03 BR:1 |SN |",,,"89",,"OVC:08 5","30.09","0.75","26","000",,"0",,,,,,,,,,,,,,,,,,,,,,,,,,,,,,,,,,,,,"MET10701/12/20 15:14:01 SPECI PASO 130014Z 00000KT 3/4SM -SN BR OVC005 M03/M04 A3012 RMK AO2 P0000 T10281044 TSNO","FM-16","7",,,,,,,,,,,,,,,,,,,,,,,,,,,,"2005-10-30"
"70362125516","2020-01-12T15:39:00","FM-16","7",,,,,,,,,,,,,,,,,,,,,,,,,,,,,,,,,,,,,,"30.13","23","26","T","-SN:03 BR:1 |SN |",,,"88",,"OVC:08 8","30.10","1.25","25","VRB",,"3",,,,,,,,,,,,,,,,,,,,,,,,,,,,,,,,,,,,,"MET10901/12/20 15:39:01 SPECI PASO 130039Z VRB03KT 1 1/4SM -SN BR OVC008 M03/M05 A3013 RMK AO2 P0000 T10331050 TSNO","FM-16","7",,,,,,,,,,,,,,,,,,,,,,,,,,,,"2005-10-30"
"70362125516","2020-01-12T15:53:00","FM-15","7",,,,,,,,,,,,,,,,,,,,,,,,,,,,,,,,,,,,,,"30.14","23","26","T","-SN:03 BR:1 |SN |",,,"88","30.14","OVC:08 7","30.11","1.75","25","000",,"0",,,,,,,,,,,,,,,,,,,,,,,,,,,,,,,,,,,,,"MET11601/12/20 15:53:01 METAR PASO 130053Z 00000KT 1 3/4SM -SN BR OVC007 M03/M05 A3014 RMK AO2 SLP207 P0000 T10331050 TSNO","FM-15","7",,,,,,,,,,,,,,,,,,,,,,,,,,,,"2005-10-30"
"70362125516","2020-01-12T16:05:00","FM-16","7",,,,,,,,,,,,,,,,,,,,,,,,,,,,,,,,,,,,,,"30.15","22","25","T","-SN:03 BR:1 |SN |",,,"88",,"OVC:08 7","30.12","2.00","24","020",,"3",,,,,,,,,,,,,,,,,,,,,,,,,,,,,,,,,,,,,"MET10501/12/20 16:05:01 SPECI PASO 130105Z 02003KT 2SM -SN BR OVC007 M04/M06 A3015 RMK AO2 P0000 T10391056 TSNO","FM-16","7",,,,,,,,,,,,,,,,,,,,,,,,,,,,"2005-10-30"
"70362125516","2020-01-12T16:31:00","FM-16","7",,,,,,,,,,,,,,,,,,,,,,,,,,,,,,,,,,,,,,"30.17","22","25","T","-SN:03 BR:1 |SN |",,,"88",,"OVC:08 7","30.14","4.00","24","000",,"0",,,,,,,,,,,,,,,,,,,,,,,,,,,,,,,,,,,,,"MET10501/12/20 16:31:01 SPECI PASO 130131Z 00000KT 4SM -SN BR OVC007 M04/M06 A3017 RMK AO2 P0000 T10391056 TSNO","FM-16","7",,,,,,,,,,,,,,,,,,,,,,,,,,,,"2005-10-30"
"70362125516","2020-01-12T16:53:00","FM-15","7",,,,,,,,,,,,,,,,,,,,,,,,,,,,,,,,,,,,,,"30.19","22","25","T","-SN:03 BR:1 |SN |",,,"88","30.19","OVC:08 7","30.16","4.00","24","000",,"0",,,,,,,,,,,,,,,,,,,,,,,,,,,,,,,,,,,,,"MET11201/12/20 16:53:01 METAR PASO 130153Z 00000KT 4SM -SN BR OVC007 M04/M06 A3019 RMK AO2 SLP223 P0000 T10391056 TSNO","FM-15","7",,,,,,,,,,,,,,,,,,,,,,,,,,,,"2005-10-30"
"70362125516","2020-01-12T17:14:00","FM-16","7",,,,,,,,,,,,,,,,,,,,,,,,,,,,,,,,,,,,,,"30.21","21","24","T","-SN:03 BR:1 |SN |",,,"88",,"OVC:08 6","30.18","2.50","23","000",,"0",,,,,,,,,,,,,,,,,,,,,,,,,,,,,,,,,,,,,"MET12801/12/20 17:14:01 SPECI PASO 130214Z 00000KT 2 1/2SM -SN BR OVC006 M04/M06 A3021 RMK AO2 CIG 006V010 PRESRR P0000 T10441061 TSNO","FM-16","7",,,,,,,,,,,,,,,,,,,,,,,,,,,,"2005-10-30"
"70362125516","2020-01-12T17:31:00","FM-16","7",,,,,,,,,,,,,,,,,,,,,,,,,,,,,,,,,,,,,,"30.22","20","23","T","-SN:03 BR:1 |SN |",,,"88",,"BKN:07 9 OVC:08 15","30.19","1.50","22","VRB",,"5",,,,,,,,,,,,,,,,,,,,,,,,,,,,,,,,,,,,,"MET12801/12/20 17:31:01 SPECI PASO 130231Z VRB04KT 1 1/2SM -SN BR BKN009 OVC015 M05/M07 A3022 RMK AO2 CIG 006V012 P0000 T10501067 TSNO","FM-16","7",,,,,,,,,,,,,,,,,,,,,,,,,,,,"2005-10-30"
"70362125516","2020-01-12T17:51:00","FM-16","7",,,,,,,,,,,,,,,,,,,,,,,,,,,,,,,,,,,,,,"30.22","19","23","T","-SN:03 BR:1 |SN |",,,"86",,"FEW:02 9 BKN:07 15 OVC:08 34","30.19","1.75","22","180",,"3",,,,,,,,,,,,,,,,,,,,,,,,,,,,,,,,,,,,,"MET11301/12/20 17:51:01 SPECI PASO 130251Z 18003KT 1 3/4SM -SN BR FEW009 BKN015 OVC034 M05/M07 A3022 RMK AO2 P0000 TSNO","FM-16","7",,,,,,,,,,,,,,,,,,,,,,,,,,,,"2005-10-30"
"70362125516","2020-01-12T17:53:00","FM-15","7",,,,,,,,,,,,,,,,,,,,,,,,,,,,,,,,,,,,,,"30.22","20","23","T","-SN:03 BR:1 |SN |","-0.08","1","88","30.22","FEW:02 7 BKN:07 15 OVC:08 36","30.19","2.00","22","190",,"3",,,,,,,,,,,,,,,,,,,,,,,,,,,,,,,,,,,,,"MET13801/12/20 17:53:01 METAR PASO 130253Z 19003KT 2SM -SN BR FEW007 BKN015 OVC036 M05/M07 A3022 RMK AO2 SLP235 P0000 60000 T10501067 51028 TSNO","FM-15","7",,,,,,,,,,,,,,,,,,,,,,,,,,,,"2005-10-30"
"70362125516","2020-01-12T17:57:00","FM-16","7",,,,,,,,,,,,,,,,,,,,,,,,,,,,,,,,,,,,,,"30.23","20","23","T","-SN:03 BR:1 |SN |",,,"88",,"FEW:02 7 BKN:07 14 OVC:08 38","30.20","3.00","22","000",,"0",,,,,,,,,,,,,,,,,,,,,,,,,,,,,,,,,,,,,"MET11901/12/20 17:57:01 SPECI PASO 130257Z 00000KT 3SM -SN BR FEW007 BKN014 OVC038 M05/M07 A3023 RMK AO2 P0000 T10501067 TSNO","FM-16","7",,,,,,,,,,,,,,,,,,,,,,,,,,,,"2005-10-30"
"70362125516","2020-01-12T18:07:00","FM-16","7",,,,,,,,,,,,,,,,,,,,,,,,,,,,,,,,,,,,,,"30.22","20","23","T","-SN:03 BR:1 |SN |",,,"88",,"SCT:04 14 OVC:08 29","30.19","2.50","22","180",,"6",,,,,,,,,,,,,,,,,,,,,,,,,,,,,,,,,,,,,"MET11601/12/20 18:07:01 SPECI PASO 130307Z 18005KT 2 1/2SM -SN BR SCT014 OVC029 M05/M07 A3022 RMK AO2 P0000 T10501067 TSNO","FM-16","7",,,,,,,,,,,,,,,,,,,,,,,,,,,,"2005-10-30"
"70362125516","2020-01-12T18:17:00","FM-16","7",,,,,,,,,,,,,,,,,,,,,,,,,,,,,,,,,,,,,,"30.22","21","24","T","-SN:03 BR:1 |SN |",,,"88",,"FEW:02 14 OVC:08 23","30.19","1.50","23","200",,"7",,,,,,,,,,,,,,,,,,,,,,,,,,,,,,,,,,,,,"MET11601/12/20 18:17:01 SPECI PASO 130317Z 20006KT 1 1/2SM -SN BR FEW014 OVC023 M04/M06 A3022 RMK AO2 P0000 T10441061 TSNO","FM-16","7",,,,,,,,,,,,,,,,,,,,,,,,,,,,"2005-10-30"
"70362125516","2020-01-12T18:32:00","FM-16","7",,,,,,,,,,,,,,,,,,,,,,,,,,,,,,,,,,,,,,"30.22","21","24","T","-SN:03 BR:1 |SN |",,,"88",,"BKN:07 29 OVC:08 60","30.19","3.00","23","220",,"7",,,,,,,,,,,,,,,,,,,,,,,,,,,,,,,,,,,,,"MET11201/12/20 18:32:01 SPECI PASO 130332Z 22006KT 3SM -SN BR BKN029 OVC060 M04/M06 A3022 RMK AO2 P0000 T10441061 TSNO","FM-16","7",,,,,,,,,,,,,,,,,,,,,,,,,,,,"2005-10-30"
"70362125516","2020-01-12T18:42:00","FM-16","7",,,,,,,,,,,,,,,,,,,,,,,,,,,,,,,,,,,,,,"30.22","21","24","T",,,,"88",,"BKN:07 42 OVC:08 65","30.19","9.00","23","210",,"6",,,,,,,,,,,,,,,,,,,,,,,,,,,,,,,,,,,,,"MET11101/12/20 18:42:01 SPECI PASO 130342Z 21005KT 9SM BKN042 OVC065 M04/M06 A3022 RMK AO2 SNE42 P0000 T10441061 TSNO","FM-16","7",,,,,,,,,,,,,,,,,,,,,,,,,,,,"2005-10-30"
"70362125516","2020-01-12T18:53:00","FM-15","7",,,,,,,,,,,,,,,,,,,,,,,,,,,,,,,,,,,,,,"30.22","21","24","T",,,,"88","30.22","BKN:07 60 OVC:08 85","30.19","10.00","23","220",,"5",,,,,,,,,,,,,,,,,,,,,,,,,,,,,,,,,,,,,"MET11901/12/20 18:53:01 METAR PASO 130353Z 22004KT 10SM BKN060 OVC085 M04/M06 A3022 RMK AO2 SNE42 SLP235 P0000 T10441061 TSNO","FM-15","7",,,,,,,,,,,,,,,,,,,,,,,,,,,,"2005-10-30"
"70362125516","2020-01-12T19:24:00","FM-16","7",,,,,,,,,,,,,,,,,,,,,,,,,,,,,,,,,,,,,,"30.25","21","24",,,,,"88",,"SCT:04 9 BKN:07 22 OVC:08 95","30.22","10.00","23","VRB",,"3",,,,,,,,,,,,,,,,,,,,,,,,,,,,,,,,,,,,,"MET10701/12/20 19:24:01 SPECI PASO 130424Z VRB03KT 10SM SCT009 BKN022 OVC095 M04/M06 A3025 RMK AO2 T10441061 TSNO","FM-16","7",,,,,,,,,,,,,,,,,,,,,,,,,,,,"2005-10-30"
"70362125516","2020-01-12T19:33:00","FM-16","7",,,,,,,,,,,,,,,,,,,,,,,,,,,,,,,,,,,,,,"30.26","22","25",,,,,"88",,"BKN:07 7 OVC:08 22","30.23","10.00","24","000",,"0",,,,,,,,,,,,,,,,,,,,,,,,,,,,,,,,,,,,,"MET11201/12/20 19:33:01 SPECI PASO 130433Z 00000KT 10SM BKN007 OVC022 M04/M06 A3026 RMK AO2 CIG 006V012 T10391056 TSNO","FM-16","7",,,,,,,,,,,,,,,,,,,,,,,,,,,,"2005-10-30"
"70362125516","2020-01-12T19:53:00","FM-15","7",,,,,,,,,,,,,,,,,,,,,,,,,,,,,,,,,,,,,,"30.27","21","25","0.00",,,,"85","30.27","OVC:08 7","30.24","10.00","24","VRB",,"5",,,,,,,,,,,,,,,,,,,,,,,,,,,,,,,,,,,,,"MET11201/12/20 19:53:01 METAR PASO 130453Z VRB04KT 10SM OVC007 M04/M06 A3027 RMK AO2 CIG 006V010 SLP251 T10391061 TSNO","FM-15","7",,,,,,,,,,,,,,,,,,,,,,,,,,,,"2005-10-30"
"70362125516","2020-01-12T20:19:00","FM-16","6",,,,,,,,,,,,,,,,,,,,,,,,,,,,,,,,,,,,,,"30.28","21","25",,,,,"85",,"OVC:08 10","30.25","10.00","24","000",,"0",,,,,,,,,,,,,,,,,,,,,,,,,,,,,,,,,,,,,"MET09301/12/20 20:19:03 SPECI PASO 130519Z 00000KT 10SM OVC010 M04/M06 A3028 RMK AO2 T10391061 TSNO","FM-16","6",,,,,,,,,,,,,,,,,,,,,,,,,,,,"2005-10-30"
"70362125516","2020-01-12T20:51:00","FM-16","6",,,,,,,,,,,,,,,,,,,,,,,,,,,,,,,,,,,,,,"30.28","21","25",,,,,"86",,"SCT:04 10 OVC:08 20","30.25","10.00","24","000",,"0",,,,,,,,,,,,,,,,,,,,,,,,,,,,,,,,,,,,,"MET09501/12/20 20:51:03 SPECI PASO 130551Z 00000KT 10SM SCT010 OVC020 M04/M06 A3028 RMK AO2 TSNO FIBI","FM-16","6",,,,,,,,,,,,,,,,,,,,,,,,,,,,"2005-10-30"
"70362125516","2020-01-12T20:53:00","FM-15","7",,,,,,,,,,,,,,,,,,,,,,,,,,,,,,,,,,,,,,"30.27","21","24","0.00",,"-0.05","3","88","30.27","SCT:04 10 OVC:08 20","30.24","10.00","23","000",,"0",,,,,,,,,,,,,,,,,,,,,,,,,,,,,,,,,,,,,"MET13101/12/20 20:53:01 METAR PASO 130553Z 00000KT 10SM SCT010 OVC020 M04/M06 A3027 RMK AO2 SLP252 60000 T10441061 11028 21050 53017 TSNO","FM-15","7",,,,,,,,,,,,,,,,,,,,,,,,,,,,"2005-10-30"
"70362125516","2020-01-12T21:53:00","FM-15","7",,,,,,,,,,,,,,,,,,,,,,,,,,,,,,,,,,,,,,"30.30","21","24","0.00",,,,"88","30.29","OVC:08 17","30.27","10.00","23","190",,"5",,,,,,,,,,,,,,,,,,,,,,,,,,,,,,,,,,,,,"MET10001/12/20 21:53:01 METAR PASO 130653Z 19004KT 10SM OVC017 M04/M06 A3030 RMK AO2 SLP259 T10441061 TSNO","FM-15","7",,,,,,,,,,,,,,,,,,,,,,,,,,,,"2005-10-30"
"70362125516","2020-01-12T22:53:00","FM-15","7",,,,,,,,,,,,,,,,,,,,,,,,,,,,,,,,,,,,,,"30.30","22","25","0.00",,,,"88","30.30","OVC:08 15","30.27","10.00","24","000",,"0",,,,,,,,,,,,,,,,,,,,,,,,,,,,,,,,,,,,,"MET10001/12/20 22:53:01 METAR PASO 130753Z 00000KT 10SM OVC015 M04/M06 A3030 RMK AO2 SLP261 T10391056 TSNO","FM-15","7",,,,,,,,,,,,,,,,,,,,,,,,,,,,"2005-10-30"
"70362125516","2020-01-12T23:05:00","FM-16","7",,,,,,,,,,,,,,,,,,,,,,,,,,,,,,,,,,,,,,"30.31","22","25",,,,,"88",,"OVC:08 14","30.28","10.00","24","220",,"3",,,,,,,,,,,,,,,,,,,,,,,,,,,,,,,,,,,,,"MET09301/12/20 23:05:02 SPECI PASO 130805Z 22003KT 10SM OVC014 M04/M06 A3031 RMK AO2 T10391056 TSNO","FM-16","7",,,,,,,,,,,,,,,,,,,,,,,,,,,,"2005-10-30"
"70362125516","2020-01-12T23:53:00","FM-15","7",,,,,,,,,,,,,,,,,,,,,,,,,,,,,,,,,,,,,,"30.31","23","26","0.00",,"-0.04","1","88","30.31","OVC:08 12","30.28","10.00","25","000",,"0",,,,,,,,,,,,,,,,,,,,,,,,,,,,,,,,,,,,,"MET11601/12/20 23:53:01 METAR PASO 130853Z 00000KT 10SM OVC012 M03/M05 A3031 RMK AO2 SLP265 T10331050 410221111 51013 TSNO","FM-15","7",,,,,,,,,,,,,,,,,,,,,,,,,,,,"2005-10-30"
"70362125516","2020-01-12T23:59:00","SOD  ","6",,,,,,,,,,,,,,,,"20",,,"30.13",,"0.7","0","-5.8","45","28","12","180","12","T",,,"220","8","SN BR",,,,,,,,,,,,,,,,,,,,,,,,,,,,,,,,,,,,,,,,,,,,,,,,,,,,,,,,"SOD75124 HR PRECIPITATION (IN):T     WEATHER(CODE):1  24 HR MAX TEMP (F):28 24 HR MAX TEMP TIME (LST):1309 24 HR MIN TEMP (F):12 24 HR MIN TEMP TIME (LST):0024 AVERAGE STATION PRESSURE(D):30.133 MINIMUM SEA LEVEL PRESSURE:30.07 TIME OF OCCURRENCE:1106 PEAK WIND SPEED (MPH):12  PEAK WIND DIR (DEG):180 PEAK WIND TIME (LST):1823  FASTEST 2MIN SPEED (MPH):08 FASTEST 2MIN DIR (DEG):220 FASTEST 2MIN TIME (LST):1831 AVERAGE WIND SPEED (MPH): 0.7 24 HR AVG TEMP (F):20 HEATING DEGREE DAYS: 45 COOLING DEGREE DAYS:  0 LATEST DAY MAX TEMP (0700-1900 LST): 28 LATEST NIGHT MIN TEMP(1900-0800 LST):08 HOURLY INCREMENTAL PRECIPITATION VALUES (IN):0.00 0.00 0.00 0.00 0.00 0.00T    T    T    T    T    T    T    T    T    T    T    T    T     0.00 0.00 0.00 0.00 0.00","SOD  ","6",,,,,,,,,,,,,,,,,,,,,,,,,"0955","1637",,"2005-10-30"
"70362125516","2020-01-13T00:53:00","FM-15","7",,,,,,,,,,,,,,,,,,,,,,,,,,,,,,,,,,,,,,"30.31","23","26","0.00",,,,"88","30.31","OVC:08 14","30.28","10.00","25","000",,"0",,,,,,,,,,,,,,,,,,,,,,,,,,,,,,,,,,,,,"MET10001/13/20 00:53:02 METAR PASO 130953Z 00000KT 10SM OVC014 M03/M05 A3031 RMK AO2 SLP265 T10331050 TSNO","FM-15","7",,,,,,,,,,,,,,,,,,,,,,,,,,,,"2005-10-30"
"70362125516","2020-01-13T01:53:00","FM-15","7",,,,,,,,,,,,,,,,,,,,,,,,,,,,,,,,,,,,,,"30.32","24","26","0.00",,,,"92","30.32","OVC:08 13","30.29","10.00","25","000",,"0",,,,,,,,,,,,,,,,,,,,,,,,,,,,,,,,,,,,,"MET10001/13/20 01:53:02 METAR PASO 131053Z 00000KT 10SM OVC013 M03/M04 A3032 RMK AO2 SLP268 T10331044 TSNO","FM-15","7",,,,,,,,,,,,,,,,,,,,,,,,,,,,"2005-10-30"
"70362125516","2020-01-13T02:53:00","FM-15","7",,,,,,,,,,,,,,,,,,,,,,,,,,,,,,,,,,,,,,"30.32","24","26","0.00",,"-0.01","0","92","30.32","OVC:08 15","30.29","10.00","25","000",,"0",,,,,,,,,,,,,,,,,,,,,,,,,,,,,,,,,,,,,"MET11801/13/20 02:53:02 METAR PASO 131153Z 00000KT 10SM OVC015 M03/M04 A3032 RMK AO2 SLP267 T10331044 11033 21050 50002 TSNO","FM-15","7",,,,,,,,,,,,,,,,,,,,,,,,,,,,"2005-10-30"
"70362125516","2020-01-13T03:27:00","FM-16","7",,,,,,,,,,,,,,,,,,,,,,,,,,,,,,,,,,,,,,"30.33","25","27",,,,,"92",,"OVC:08 14","30.30","10.00","26","000",,"0",,,,,,,,,,,,,,,,,,,,,,,,,,,,,,,,,,,,,"MET09301/13/20 03:27:02 SPECI PASO 131227Z 00000KT 10SM OVC014 M03/M04 A3033 RMK AO2 T10281039 TSNO","FM-16","7",,,,,,,,,,,,,,,,,,,,,,,,,,,,"2005-10-30"
"70362125516","2020-01-13T03:53:00","FM-15","7",,,,,,,,,,,,,,,,,,,,,,,,,,,,,,,,,,,,,,"30.32","25","27","0.00",,,,"92","30.32","OVC:08 12","30.29","10.00","26","010",,"3",,,,,,,,,,,,,,,,,,,,,,,,,,,,,,,,,,,,,"MET10001/13/20 03:53:02 METAR PASO 131253Z 01003KT 10SM OVC012 M03/M04 A3032 RMK AO2 SLP269 T10281039 TSNO","FM-15","7",,,,,,,,,,,,,,,,,,,,,,,,,,,,"2005-10-30"
"70362125516","2020-01-13T04:53:00","FM-15","7",,,,,,,,,,,,,,,,,,,,,,,,,,,,,,,,,,,,,,"30.33","25","27","0.00",,,,"92","30.33","OVC:08 13","30.30","10.00","26","VRB",,"3",,,,,,,,,,,,,,,,,,,,,,,,,,,,,,,,,,,,,"MET10001/13/20 04:53:02 METAR PASO 131353Z VRB03KT 10SM OVC013 M03/M04 A3033 RMK AO2 SLP271 T10281039 TSNO","FM-15","7",,,,,,,,,,,,,,,,,,,,,,,,,,,,"2005-10-30"
"70362125516","2020-01-13T05:53:00","FM-15","7",,,,,,,,,,,,,,,,,,,,,,,,,,,,,,,,,,,,,,"30.34","24","27","0.00",,"-0.02","3","89","30.34","OVC:08 11","30.31","10.00","26","VRB",,"5",,,,,,,,,,,,,,,,,,,,,,,,,,,,,,,,,,,,,"MET10601/13/20 05:53:02 METAR PASO 131453Z VRB04KT 10SM OVC011 M03/M04 A3034 RMK AO2 SLP274 T10281044 53007 TSNO","FM-15","7",,,,,,,,,,,,,,,,,,,,,,,,,,,,"2005-10-30"
"70362125516","2020-01-13T06:53:00","FM-15","7",,,,,,,,,,,,,,,,,,,,,,,,,,,,,,,,,,,,,,"30.35","23","27","0.00",,,,"85","30.35","OVC:08 12","30.32","10.00","26","000",,"0",,,,,,,,,,,,,,,,,,,,,,,,,,,,,,,,,,,,,"MET10001/13/20 06:53:02 METAR PASO 131553Z 00000KT 10SM OVC012 M03/M05 A3035 RMK AO2 SLP277 T10281050 TSNO","FM-15","7",,,,,,,,,,,,,,,,,,,,,,,,,,,,"2005-10-30"
"70362125516","2020-01-13T07:53:00","FM-15","7",,,,,,,,,,,,,,,,,,,,,,,,,,,,,,,,,,,,,,"30.36","23","27","0.00",,,,"85","30.35","OVC:08 12","30.33","10.00","26","000",,"0",,,,,,,,,,,,,,,,,,,,,,,,,,,,,,,,,,,,,"MET10001/13/20 07:53:02 METAR PASO 131653Z 00000KT 10SM OVC012 M03/M05 A3036 RMK AO2 SLP279 T10281050 TSNO","FM-15","7",,,,,,,,,,,,,,,,,,,,,,,,,,,,"2005-10-30"
"70362125516","2020-01-13T08:53:00","FM-15","7",,,,,,,,,,,,,,,,,,,,,,,,,,,,,,,,,,,,,,"30.36","24","27","0.00",,"-0.02","1","89","30.36","OVC:08 13","30.33","10.00","26","000",,"0",,,,,,,,,,,,,,,,,,,,,,,,,,,,,,,,,,,,,"MET11801/13/20 08:53:02 METAR PASO 131753Z 00000KT 10SM OVC013 M03/M04 A3036 RMK AO2 SLP281 T10281044 11022 21033 51007 TSNO","FM-15","7",,,,,,,,,,,,,,,,,,,,,,,,,,,,"2005-10-30"
"70362125516","2020-01-13T09:53:00","FM-15","6",,,,,,,,,,,,,,,,,,,,,,,,,,,,,,,,,,,,,,"30.36","24","26","0.00",,,,"92","30.36","OVC:08 14","30.33","10.00","25","000",,"0",,,,,,,,,,,,,,,,,,,,,,,,,,,,,,,,,,,,,"MET10001/13/20 09:53:02 METAR PASO 131853Z 00000KT 10SM OVC014 M03/M04 A3036 RMK AO2 SLP281 T10331044 TSNO","FM-15","6",,,,,,,,,,,,,,,,,,,,,,,,,,,,"2005-10-30"
"70362125516","2020-01-13T10:01:00","FM-16","6",,,,,,,,,,,,,,,,,,,,,,,,,,,,,,,,,,,,,,"30.36","24","26",,,,,"92",,"OVC:08 15","30.33","10.00","25","000",,"0",,,,,,,,,,,,,,,,,,,,,,,,,,,,,,,,,,,,,"MET09301/13/20 10:01:02 SPECI PASO 131901Z 00000KT 10SM OVC015 M03/M04 A3036 RMK AO2 T10331044 TSNO","FM-16","6",,,,,,,,,,,,,,,,,,,,,,,,,,,,"2005-10-30"
"70362125516","2020-01-13T10:53:00","FM-15","6",,,,,,,,,,,,,,,,,,,,,,,,,,,,,,,,,,,,,,"30.36","23","26","0.00",,,,"88","30.36","OVC:08 15","30.33","10.00","25","000",,"0",,,,,,,,,,,,,,,,,,,,,,,,,,,,,,,,,,,,,"MET10001/13/20 10:53:02 METAR PASO 131953Z 00000KT 10SM OVC015 M03/M05 A3036 RMK AO2 SLP281 T10331050 TSNO","FM-15","6",,,,,,,,,,,,,,,,,,,,,,,,,,,,"2005-10-30"
"70362125516","2020-01-13T11:04:00","FM-16","7",,,,,,,,,,,,,,,,,,,,,,,,,,,,,,,,,,,,,,"30.36","24","27",,,,,"89",,"OVC:08 13","30.33","10.00","26","040",,"3",,,,,,,,,,,,,,,,,,,,,,,,,,,,,,,,,,,,,"MET09301/13/20 11:04:02 SPECI PASO 132004Z 04003KT 10SM OVC013 M03/M04 A3036 RMK AO2 T10281044 TSNO","FM-16","7",,,,,,,,,,,,,,,,,,,,,,,,,,,,"2005-10-30"
"70362125516","2020-01-13T11:53:00","FM-15","6",,,,,,,,,,,,,,,,,,,,,,,,,,,,,,,,,,,,,,"30.36","24","27","0.00",,"-0.00","3","89","30.36","OVC:08 13","30.33","10.00","26","000",,"0",,,,,,,,,,,,,,,,,,,,,,,,,,,,,,,,,,,,,"MET10601/13/20 11:53:02 METAR PASO 132053Z 00000KT 10SM OVC013 M03/M04 A3036 RMK AO2 SLP282 T10281044 53001 TSNO","FM-15","6",,,,,,,,,,,,,,,,,,,,,,,,,,,,"2005-10-30"
"70362125516","2020-01-13T12:53:00","FM-15","6",,,,,,,,,,,,,,,,,,,,,,,,,,,,,,,,,,,,,,"30.36","23","27","0.00",,,,"85","30.36","OVC:08 13","30.33","10.00","26","010",,"6",,,,,,,,,,,,,,,,,,,,,,,,,,,,,,,,,,,,,"MET10001/13/20 12:53:02 METAR PASO 132153Z 01005KT 10SM OVC013 M03/M05 A3036 RMK AO2 SLP281 T10281050 TSNO","FM-15","6",,,,,,,,,,,,,,,,,,,,,,,,,,,,"2005-10-30"
"70362125516","2020-01-13T13:51:00","FM-16","6",,,,,,,,,,,,,,,,,,,,,,,,,,,,,,,,,,,,,,"30.37","21","27",,,,,"80",,"OVC:08 15","30.34","10.00","25","020",,"3",,,,,,,,,,,,,,,,,,,,,,,,,,,,,,,,,,,,,"MET08801/13/20 13:51:02 SPECI PASO 132251Z 02003KT 10SM OVC015 M03/M06 A3037 RMK AO2 TSNO FIBI","FM-16","6",,,,,,,,,,,,,,,,,,,,,,,,,,,,"2005-10-30"
"70362125516","2020-01-13T13:53:00","FM-15","6",,,,,,,,,,,,,,,,,,,,,,,,,,,,,,,,,,,,,,"30.37","21","26","0.00",,,,"81","30.37","OVC:08 15","30.34","10.00","24","020",,"5",,,,,,,,,,,,,,,,,,,,,,,,,,,,,,,,,,,,,"MET10001/13/20 13:53:02 METAR PASO 132253Z 02004KT 10SM OVC015 M03/M06 A3037 RMK AO2 SLP286 T10331061 TSNO","FM-15","6",,,,,,,,,,,,,,,,,,,,,,,,,,,,"2005-10-30"
"70362125516","2020-01-13T14:07:00","FM-16","7",,,,,,,,,,,,,,,,,,,,,,,,,,,,,,,,,,,,,,"30.38","22","26",,,,,"84",,"OVC:08 14","30.35","10.00","25","010",,"5",,,,,,,,,,,,,,,,,,,,,,,,,,,,,,,,,,,,,"MET09301/13/20 14:07:02 SPECI PASO 132307Z 01004KT 10SM OVC014 M03/M06 A3038 RMK AO2 T10331056 TSNO","FM-16","7",,,,,,,,,,,,,,,,,,,,,,,,,,,,"2005-10-30"
"70362125516","2020-01-13T14:53:00","FM-15","7",,,,,,,,,,,,,,,,,,,,,,,,,,,,,,,,,,,,,,"30.38","21","25","0.00",,"-0.02","1","85","30.38","OVC:08 12","30.35","10.00","24","010",,"7",,,,,,,,,,,,,,,,,,,,,,,,,,,,,,,,,,,,,"MET11801/13/20 14:53:02 METAR PASO 132353Z 01006KT 10SM OVC012 M04/M06 A3038 RMK AO2 SLP289 T10391061 11022 21039 51007 TSNO","FM-15","7",,,,,,,,,,,,,,,,,,,,,,,,,,,,"2005-10-30"
"70362125516","2020-01-13T15:53:00","FM-15","7",,,,,,,,,,,,,,,,,,,,,,,,,,,,,,,,,,,,,,"30.38","22","26","0.00",,,,"84","30.38","OVC:08 13","30.35","10.00","25","010",,"5",,,,,,,,,,,,,,,,,,,,,,,,,,,,,,,,,,,,,"MET10001/13/20 15:53:01 METAR PASO 140053Z 01004KT 10SM OVC013 M03/M06 A3038 RMK AO2 SLP287 T10331056 TSNO","FM-15","7",,,,,,,,,,,,,,,,,,,,,,,,,,,,"2005-10-30"
"70362125516","2020-01-13T16:53:00","FM-15","7",,,,,,,,,,,,,,,,,,,,,,,,,,,,,,,,,,,,,,"30.38","21","25","0.00",,,,"85","30.38","OVC:08 10","30.35","10.00","24","040",,"3",,,,,,,,,,,,,,,,,,,,,,,,,,,,,,,,,,,,,"MET10001/13/20 16:53:01 METAR PASO 140153Z 04003KT 10SM OVC010 M04/M06 A3038 RMK AO2 SLP287 T10391061 TSNO","FM-15","7",,,,,,,,,,,,,,,,,,,,,,,,,,,,"2005-10-30"
"70362125516","2020-01-13T17:53:00","FM-15","7",,,,,,,,,,,,,,,,,,,,,,,,,,,,,,,,,,,,,,"30.38","22","25","0.00",,"+0.00","5","88","30.38","OVC:08 10","30.35","10.00","24","030",,"3",,,,,,,,,,,,,,,,,,,,,,,,,,,,,,,,,,,,,"MET10601/13/20 17:53:01 METAR PASO 140253Z 03003KT 10SM OVC010 M04/M06 A3038 RMK AO2 SLP288 T10391056 55000 TSNO","FM-15","7",,,,,,,,,,,,,,,,,,,,,,,,,,,,"2005-10-30"
"70362125516","2020-01-13T18:04:00","FM-16","7",,,,,,,,,,,,,,,,,,,,,,,,,,,,,,,,,,,,,,"30.38","22","25",,,,,"88",,"OVC:08 9","30.35","10.00","24","010",,"3",,,,,,,,,,,,,,,,,,,,,,,,,,,,,,,,,,,,,"MET09301/13/20 18:04:01 SPECI PASO 140304Z 01003KT 10SM OVC009 M04/M06 A3038 RMK AO2 T10391056 TSNO","FM-16","7",,,,,,,,,,,,,,,,,,,,,,,,,,,,"2005-10-30"
"70362125516","2020-01-13T18:51:00","FM-16","6",,,,,,,,,,,,,,,,,,,,,,,,,,,,,,,,,,,,,,"30.38","21","25",,,,,"86",,"OVC:08 10","30.35","10.00","24","360",,"5",,,,,,,,,,,,,,,,,,,,,,,,,,,,,,,,,,,,,"MET08801/13/20 18:51:03 SPECI PASO 140351Z 36004KT 10SM OVC010 M04/M06 A3038 RMK AO2 TSNO FIBI","FM-16","6",,,,,,,,,,,,,,,,,,,,,,,,,,,,"2005-10-30"
"70362125516","2020-01-13T18:53:00","FM-15","7",,,,,,,,,,,,,,,,,,,,,,,,,,,,,,,,,,,,,,"30.38","21","25","0.00",,,,"85","30.38","OVC:08 10","30.35","10.00","24","020",,"6",,,,,,,,,,,,,,,,,,,,,,,,,,,,,,,,,,,,,"MET10001/13/20 18:53:01 METAR PASO 140353Z 02005KT 10SM OVC010 M04/M06 A3038 RMK AO2 SLP287 T10391061 TSNO","FM-15","7",,,,,,,,,,,,,,,,,,,,,,,,,,,,"2005-10-30"
"70362125516","2020-01-13T19:39:00","FM-16","7",,,,,,,,,,,,,,,,,,,,,,,,,,,,,,,,,,,,,,"30.38","21","24",,,,,"88",,"BKN:07 8 OVC:08 12","30.35","10.00","23","VRB",,"6",,,,,,,,,,,,,,,,,,,,,,,,,,,,,,,,,,,,,"MET11201/13/20 19:39:01 SPECI PASO 140439Z VRB05KT 10SM BKN008 OVC012 M04/M06 A3038 RMK AO2 CIG 008V011 T10441061 TSNO","FM-16","7",,,,,,,,,,,,,,,,,,,,,,,,,,,,"2005-10-30"
"70362125516","2020-01-13T19:53:00","FM-15","7",,,,,,,,,,,,,,,,,,,,,,,,,,,,,,,,,,,,,,"30.37","21","24","0.00",,,,"88","30.37","OVC:08 8","30.34","10.00","23","360",,"6",,,,,,,,,,,,,,,,,,,,,,,,,,,,,,,,,,,,,"MET10001/13/20 19:53:01 METAR PASO 140453Z 36005KT 10SM OVC008 M04/M06 A3037 RMK AO2 SLP285 T10441061 TSNO","FM-15","7",,,,,,,,,,,,,,,,,,,,,,,,,,,,"2005-10-30"
"70362125516","2020-01-13T20:53:00","FM-15","7",,,,,,,,,,,,,,,,,,,,,,,,,,,,,,,,,,,,,,"30.38","20","23","0.00",,"+0.00","5","88","30.38","OVC:08 9","30.35","10.00","22","030",,"5",,,,,,,,,,,,,,,,,,,,,,,,,,,,,,,,,,,,,"MET11801/13/20 20:53:01 METAR PASO 140553Z 03004KT 10SM OVC009 M05/M07 A3038 RMK AO2 SLP287 T10501067 11033 21050 55001 TSNO","FM-15","7",,,,,,,,,,,,,,,,,,,,,,,,,,,,"2005-10-30"
"70362125516","2020-01-13T21:53:00","FM-15","7",,,,,,,,,,,,,,,,,,,,,,,,,,,,,,,,,,,,,,"30.37","20","23","0.00",,,,"88","30.37","OVC:08 8","30.34","10.00","22","000",,"0",,,,,,,,,,,,,,,,,,,,,,,,,,,,,,,,,,,,,"MET10001/13/20 21:53:01 METAR PASO 140653Z 00000KT 10SM OVC008 M05/M07 A3037 RMK AO2 SLP284 T10501067 TSNO","FM-15","7",,,,,,,,,,,,,,,,,,,,,,,,,,,,"2005-10-30"
"70362125516","2020-01-13T22:53:00","FM-15","7",,,,,,,,,,,,,,,,,,,,,,,,,,,,,,,,,,,,,,"30.37","21","24","0.00",,,,"88","30.37","OVC:08 6","30.34","10.00","23","VRB",,"3",,,,,,,,,,,,,,,,,,,,,,,,,,,,,,,,,,,,,"MET10001/13/20 22:53:01 METAR PASO 140753Z VRB03KT 10SM OVC006 M04/M06 A3037 RMK AO2 SLP283 T10441061 TSNO","FM-15","7",,,,,,,,,,,,,,,,,,,,,,,,,,,,"2005-10-30"
"70362125516","2020-01-13T23:53:00","FM-15","7",,,,,,,,,,,,,,,,,,,,,,,,,,,,,,,,,,,,,,"30.37","21","24","0.00",,"+0.01","5","88","30.37","OVC:08 6","30.34","10.00","23","VRB",,"3",,,,,,,,,,,,,,,,,,,,,,,,,,,,,,,,,,,,,"MET11601/13/20 23:53:02 METAR PASO 140853Z VRB03KT 10SM OVC006 M04/M06 A3037 RMK AO2 SLP284 T10441061 410221050 55003 TSNO","FM-15","7",,,,,,,,,,,,,,,,,,,,,,,,,,,,"2005-10-30"
"70362125516","2020-01-13T23:59:00","SOD  ","6",,,,,,,,,,,,,,,,"26",,,"30.32",,"2.6","0","0.3","39","28","23","010","12","0.00",,,"030","9",,,,,,,,,,,,,,,,,,,,,,,,,,,,,,,,,,,,,,,,,,,,,,,,,,,,,,,,,"SOD73024 HR PRECIPITATION (IN):0.00  24 HR MAX TEMP (F):28 24 HR MAX TEMP TIME (LST):1245 24 HR MIN TEMP (F):23 24 HR MIN TEMP TIME (LST):2210 AVERAGE STATION PRESSURE:30.325 MINIMUM SEA LEVEL PRESSURE:30.31 TIME OF OCCURRENCE:0057 PEAK WIND SPEED (MPH):12  PEAK WIND DIR (DEG):10  PEAK WIND TIME (LST):1336  FASTEST 2MIN SPEED (MPH):9  FASTEST 2MIN DIR (DEG):30  FASTEST 2MIN TIME (LST):1934 AVERAGE WIND SPEED (MPH):2.6  24 HR AVG TEMP (F):26 HEATING DEGREE DAYS:39  COOLING DEGREE DAYS:0   LATEST DAY MAX TEMP (0700-1900 LST):28  LATEST NIGHT MIN TEMP(1900-0800 LST):23 HOURLY INCREMENTAL PRECIPITATION VALUES (IN):.00 0.00 0.00 0.00 0.00 0.00 0.00 0.00 0.00 0.00 0.00 0.00 0.00 0.00 0.00 0.00 0.00 0.00 0.00 0.00 0.00 0.00 0.00 0.00","SOD  ","6",,,,,,,,,,,,,,,,,,,,,,,,,"0953","1639",,"2005-10-30"
"70362125516","2020-01-14T00:53:00","FM-15","7",,,,,,,,,,,,,,,,,,,,,,,,,,,,,,,,,,,,,,"30.38","21","24","0.00",,,,"88","30.37","OVC:08 6","30.35","10.00","23","VRB",,"5",,,,,,,,,,,,,,,,,,,,,,,,,,,,,,,,,,,,,"MET10001/14/20 00:53:02 METAR PASO 140953Z VRB04KT 10SM OVC006 M04/M06 A3038 RMK AO2 SLP286 T10441061 TSNO","FM-15","7",,,,,,,,,,,,,,,,,,,,,,,,,,,,"2005-10-30"
"70362125516","2020-01-14T01:53:00","FM-15","7",,,,,,,,,,,,,,,,,,,,,,,,,,,,,,,,,,,,,,"30.38","20","24","0.00",,,,"84","30.38","OVC:08 9","30.35","10.00","23","360",,"6",,,,,,,,,,,,,,,,,,,,,,,,,,,,,,,,,,,,,"MET10001/14/20 01:53:02 METAR PASO 141053Z 36005KT 10SM OVC009 M04/M07 A3038 RMK AO2 SLP289 T10441067 TSNO","FM-15","7",,,,,,,,,,,,,,,,,,,,,,,,,,,,"2005-10-30"
"70362125516","2020-01-14T02:53:00","FM-15","7",,,,,,,,,,,,,,,,,,,,,,,,,,,,,,,,,,,,,,"30.39","20","23","0.00",,"-0.02","1","88","30.38","OVC:08 7","30.36","10.00","22","020",,"3",,,,,,,,,,,,,,,,,,,,,,,,,,,,,,,,,,,,,"MET11801/14/20 02:53:02 METAR PASO 141153Z 02003KT 10SM OVC007 M05/M07 A3039 RMK AO2 SLP289 T10501067 11044 21050 51006 TSNO","FM-15","7",,,,,,,,,,,,,,,,,,,,,,,,,,,,"2005-10-30"
"70362125516","2020-01-14T03:53:00","FM-15","7",,,,,,,,,,,,,,,,,,,,,,,,,,,,,,,,,,,,,,"30.38","19","23","0.00",,,,"85","30.38","OVC:08 9","30.35","10.00","22","000",,"0",,,,,,,,,,,,,,,,,,,,,,,,,,,,,,,,,,,,,"MET11201/14/20 03:53:02 METAR PASO 141253Z 00000KT 10SM OVC009 M05/M07 A3038 RMK AO2 CIG 008V012 SLP288 T10501072 TSNO","FM-15","7",,,,,,,,,,,,,,,,,,,,,,,,,,,,"2005-10-30"
"70362125516","2020-01-14T04:16:00","FM-16","7",,,,,,,,,,,,,,,,,,,,,,,,,,,,,,,,,,,,,,"30.39","20","23",,,,,"88",,"OVC:08 10","30.36","10.00","22","020",,"3",,,,,,,,,,,,,,,,,,,,,,,,,,,,,,,,,,,,,"MET10501/14/20 04:16:02 SPECI PASO 141316Z 02003KT 10SM OVC010 M05/M07 A3039 RMK AO2 CIG 008V014 T10501067 TSNO","FM-16","7",,,,,,,,,,,,,,,,,,,,,,,,,,,,"2005-10-30"
"70362125516","2020-01-14T04:53:00","FM-15","7",,,,,,,,,,,,,,,,,,,,,,,,,,,,,,,,,,,,,,"30.39","21","24","0.00",,,,"88","30.39","OVC:08 10","30.36","10.00","23","000",,"0",,,,,,,,,,,,,,,,,,,,,,,,,,,,,,,,,,,,,"MET11201/14/20 04:53:02 METAR PASO 141353Z 00000KT 10SM OVC010 M04/M06 A3039 RMK AO2 CIG 008V013 SLP291 T10441061 TSNO","FM-15","7",,,,,,,,,,,,,,,,,,,,,,,,,,,,"2005-10-30"
"70362125516","2020-01-14T05:00:00","FM-16","7",,,,,,,,,,,,,,,,,,,,,,,,,,,,,,,,,,,,,,"30.39","21","24",,,,,"88",,"OVC:08 9","30.36","10.00","23","000",,"0",,,,,,,,,,,,,,,,,,,,,,,,,,,,,,,,,,,,,"MET09301/14/20 05:00:02 SPECI PASO 141400Z 00000KT 10SM OVC009 M04/M06 A3039 RMK AO2 T10441061 TSNO","FM-16","7",,,,,,,,,,,,,,,,,,,,,,,,,,,,"2005-10-30"
"70362125516","2020-01-14T05:53:00","FM-15","7",,,,,,,,,,,,,,,,,,,,,,,,,,,,,,,,,,,,,,"30.39","21","24","0.00",,"-0.01","3","88","30.39","OVC:08 5","30.36","10.00","23","010",,"6",,,,,,,,,,,,,,,,,,,,,,,,,,,,,,,,,,,,,"MET10601/14/20 05:53:02 METAR PASO 141453Z 01005KT 10SM OVC005 M04/M06 A3039 RMK AO2 SLP292 T10441061 53002 TSNO","FM-15","7",,,,,,,,,,,,,,,,,,,,,,,,,,,,"2005-10-30"
"70362125516","2020-01-14T06:53:00","FM-15","7",,,,,,,,,,,,,,,,,,,,,,,,,,,,,,,,,,,,,,"30.40","20","23","0.00",,,,"88","30.40","OVC:08 9","30.37","10.00","22","020",,"8",,,,,,,,,,,,,,,,,,,,,,,,,,,,,,,,,,,,,"MET10001/14/20 06:53:02 METAR PASO 141553Z 02007KT 10SM OVC009 M05/M07 A3040 RMK AO2 SLP293 T10501067 TSNO","FM-15","7",,,,,,,,,,,,,,,,,,,,,,,,,,,,"2005-10-30"
"70362125516","2020-01-14T07:02:00","FM-16","7",,,,,,,,,,,,,,,,,,,,,,,,,,,,,,,,,,,,,,"30.40","20","23",,,,,"88",,"OVC:08 10","30.37","10.00","22","020",,"6",,,,,,,,,,,,,,,,,,,,,,,,,,,,,,,,,,,,,"MET09301/14/20 07:02:02 SPECI PASO 141602Z 02005KT 10SM OVC010 M05/M07 A3040 RMK AO2 T10501067 TSNO","FM-16","7",,,,,,,,,,,,,,,,,,,,,,,,,,,,"2005-10-30"
"70362125516","2020-01-14T07:20:00","FM-16","7",,,,,,,,,,,,,,,,,,,,,,,,,,,,,,,,,,,,,,"30.40","19","22",,,,,"89",,"OVC:08 8","30.37","10.00","21","010",,"5",,,,,,,,,,,,,,,,,,,,,,,,,,,,,,,,,,,,,"MET09301/14/20 07:20:02 SPECI PASO 141620Z 01004KT 10SM OVC008 M06/M07 A3040 RMK AO2 T10561072 TSNO","FM-16","7",,,,,,,,,,,,,,,,,,,,,,,,,,,,"2005-10-30"
"70362125516","2020-01-14T07:53:00","FM-15","7",,,,,,,,,,,,,,,,,,,,,,,,,,,,,,,,,,,,,,"30.40","19","22","0.00",,,,"89","30.40","OVC:08 8","30.37","10.00","21","030",,"6",,,,,,,,,,,,,,,,,,,,,,,,,,,,,,,,,,,,,"MET10001/14/20 07:53:02 METAR PASO 141653Z 03005KT 10SM OVC008 M06/M07 A3040 RMK AO2 SLP293 T10561072 TSNO","FM-15","7",,,,,,,,,,,,,,,,,,,,,,,,,,,,"2005-10-30"
"70362125516","2020-01-14T08:53:00","FM-15","7",,,,,,,,,,,,,,,,,,,,,,,,,,,,,,,,,,,,,,"30.40","19","23","0.00",,"-0.01","2","85","30.40","OVC:08 6","30.37","10.00","22","020",,"8",,,,,,,,,,,,,,,,,,,,,,,,,,,,,,,,,,,,,"MET13001/14/20 08:53:02 METAR PASO 141753Z 02007KT 10SM OVC006 M05/M07 A3040 RMK AO2 CIG 005V010 SLP295 T10501072 11039 21056 52003 TSNO","FM-15","7",,,,,,,,,,,,,,,,,,,,,,,,,,,,"2005-10-30"
"70362125516","2020-01-14T09:44:00","FM-16","7",,,,,,,,,,,,,,,,,,,,,,,,,,,,,,,,,,,,,,"30.41","18","22",,,,,"85",,"OVC:08 10","30.38","10.00","21","VRB",,"3",,,,,,,,,,,,,,,,,,,,,,,,,,,,,,,,,,,,,"MET09301/14/20 09:44:02 SPECI PASO 141844Z VRB03KT 10SM OVC010 M06/M08 A3041 RMK AO2 T10561078 TSNO","FM-16","7",,,,,,,,,,,,,,,,,,,,,,,,,,,,"2005-10-30"
"70362125516","2020-01-14T09:53:00","FM-15","7",,,,,,,,,,,,,,,,,,,,,,,,,,,,,,,,,,,,,,"30.40","18","23","0.00",,,,"81","30.40","OVC:08 11","30.37","10.00","21","040",,"6",,,,,,,,,,,,,,,,,,,,,,,,,,,,,,,,,,,,,"MET10001/14/20 09:53:02 METAR PASO 141853Z 04005KT 10SM OVC011 M05/M08 A3040 RMK AO2 SLP296 T10501078 TSNO","FM-15","7",,,,,,,,,,,,,,,,,,,,,,,,,,,,"2005-10-30"
"70362125516","2020-01-14T10:53:00","FM-15","7",,,,,,,,,,,,,,,,,,,,,,,,,,,,,,,,,,,,,,"30.42","19","22","0.00",,,,"89","30.42","OVC:08 12","30.39","10.00","21","040",,"3",,,,,,,,,,,,,,,,,,,,,,,,,,,,,,,,,,,,,"MET10001/14/20 10:53:02 METAR PASO 141953Z 04003KT 10SM OVC012 M06/M07 A3042 RMK AO2 SLP300 T10561072 TSNO","FM-15","7",,,,,,,,,,,,,,,,,,,,,,,,,,,,"2005-10-30"
"70362125516","2020-01-14T11:53:00","FM-15","7",,,,,,,,,,,,,,,,,,,,,,,,,,,,,,,,,,,,,,"30.42","17","22","0.00",,"-0.02","3","82","30.42","BKN:07 13","30.39","10.00","21","000",,"0",,,,,,,,,,,,,,,,,,,,,,,,,,,,,,,,,,,,,"MET10601/14/20 11:53:02 METAR PASO 142053Z 00000KT 10SM BKN013 M06/M08 A3042 RMK AO2 SLP303 T10561083 53008 TSNO","FM-15","7",,,,,,,,,,,,,,,,,,,,,,,,,,,,"2005-10-30"
"70362125516","2020-01-14T12:07:00","FM-16","7",,,,,,,,,,,,,,,,,,,,,,,,,,,,,,,,,,,,,,"30.42","17","21",,,,,"85",,"FEW:02 13","30.39","10.00","20","090",,"3",,,,,,,,,,,,,,,,,,,,,,,,,,,,,,,,,,,,,"MET09301/14/20 12:07:02 SPECI PASO 142107Z 09003KT 10SM FEW013 M06/M08 A3042 RMK AO2 T10611083 TSNO","FM-16","7",,,,,,,,,,,,,,,,,,,,,,,,,,,,"2005-10-30"
"70362125516","2020-01-14T12:29:00","FM-16","7",,,,,,,,,,,,,,,,,,,,,,,,,,,,,,,,,,,,,,"30.42","18","22",,,,,"85",,"BKN:07 15","30.39","10.00","21","000",,"0",,,,,,,,,,,,,,,,,,,,,,,,,,,,,,,,,,,,,"MET09301/14/20 12:29:02 SPECI PASO 142129Z 00000KT 10SM BKN015 M06/M08 A3042 RMK AO2 T10561078 TSNO","FM-16","7",,,,,,,,,,,,,,,,,,,,,,,,,,,,"2005-10-30"
"70362125516","2020-01-14T12:53:00","FM-15","7",,,,,,,,,,,,,,,,,,,,,,,,,,,,,,,,,,,,,,"30.41","19","23","0.00",,,,"85","30.41","BKN:07 14","30.38","10.00","22","000",,"0",,,,,,,,,,,,,,,,,,,,,,,,,,,,,,,,,,,,,"MET10001/14/20 12:53:02 METAR PASO 142153Z 00000KT 10SM BKN014 M05/M07 A3041 RMK AO2 SLP299 T10501072 TSNO","FM-15","7",,,,,,,,,,,,,,,,,,,,,,,,,,,,"2005-10-30"
"70362125516","2020-01-14T13:12:00","FM-16","7",,,,,,,,,,,,,,,,,,,,,,,,,,,,,,,,,,,,,,"30.41","19","23",,,,,"85",,"BKN:07 16","30.38","10.00","22","000",,"0",,,,,,,,,,,,,,,,,,,,,,,,,,,,,,,,,,,,,"MET09301/14/20 13:12:02 SPECI PASO 142212Z 00000KT 10SM BKN016 M05/M07 A3041 RMK AO2 T10501072 TSNO","FM-16","7",,,,,,,,,,,,,,,,,,,,,,,,,,,,"2005-10-30"
"70362125516","2020-01-14T13:38:00","FM-16","7",,,,,,,,,,,,,,,,,,,,,,,,,,,,,,,,,,,,,,"30.40","19","23",,,,,"85",,"FEW:02 18","30.37","10.00","22","350",,"3",,,,,,,,,,,,,,,,,,,,,,,,,,,,,,,,,,,,,"MET09301/14/20 13:38:02 SPECI PASO 142238Z 35003KT 10SM FEW018 M05/M07 A3040 RMK AO2 T10501072 TSNO","FM-16","7",,,,,,,,,,,,,,,,,,,,,,,,,,,,"2005-10-30"
"70362125516","2020-01-14T13:53:00","FM-15","7",,,,,,,,,,,,,,,,,,,,,,,,,,,,,,,,,,,,,,"30.41","20","23","0.00",,,,"88","30.41","FEW:02 18","30.38","10.00","22","360",,"5",,,,,,,,,,,,,,,,,,,,,,,,,,,,,,,,,,,,,"MET10001/14/20 13:53:02 METAR PASO 142253Z 36004KT 10SM FEW018 M05/M07 A3041 RMK AO2 SLP297 T10501067 TSNO","FM-15","7",,,,,,,,,,,,,,,,,,,,,,,,,,,,"2005-10-30"
"70362125516","2020-01-14T14:53:00","FM-15","7",,,,,,,,,,,,,,,,,,,,,,,,,,,,,,,,,,,,,,"30.41","18","23","0.00",,"+0.01","5","81","30.41","CLR:00","30.38","10.00","21","020",,"9",,,,,,,,,,,,,,,,,,,,,,,,,,,,,,,,,,,,,"MET11501/14/20 14:53:02 METAR PASO 142353Z 02008KT 10SM CLR M05/M08 A3041 RMK AO2 SLP298 T10501078 11044 21061 55004 TSNO","FM-15","7",,,,,,,,,,,,,,,,,,,,,,,,,,,,"2005-10-30"
"70362125516","2020-01-14T15:53:00","FM-15","7",,,,,,,,,,,,,,,,,,,,,,,,,,,,,,,,,,,,,,"30.42","15","23","0.00",,,,"72","30.42","CLR:00","30.39","10.00","21","360",,"7",,,,,,,,,,,,,,,,,,,,,,,,,,,,,,,,,,,,,"MET09701/14/20 15:53:01 METAR PASO 150053Z 36006KT 10SM CLR M05/M09 A3042 RMK AO2 SLP300 T10501094 TSNO","FM-15","7",,,,,,,,,,,,,,,,,,,,,,,,,,,,"2005-10-30"
"70362125516","2020-01-14T16:53:00","FM-15","7",,,,,,,,,,,,,,,,,,,,,,,,,,,,,,,,,,,,,,"30.44","11","23","0.00",,,,"60","30.44","CLR:00","30.41","10.00","20","030",,"8",,,,,,,,,,,,,,,,,,,,,,,,,,,,,,,,,,,,,"MET09701/14/20 16:53:01 METAR PASO 150153Z 03007KT 10SM CLR M05/M12 A3044 RMK AO2 SLP307 T10501117 TSNO","FM-15","7",,,,,,,,,,,,,,,,,,,,,,,,,,,,"2005-10-30"
"70362125516","2020-01-14T17:53:00","FM-15","7",,,,,,,,,,,,,,,,,,,,,,,,,,,,,,,,,,,,,,"30.45","10","23","0.00",,"-0.04","3","57","30.45","FEW:02 65","30.42","10.00","19","020","22","11",,,,,,,,,,,,,,,,,,,,,,,,,,,,,,,,,,,,,"MET10901/14/20 17:53:01 METAR PASO 150253Z 02010G19KT 10SM FEW065 M05/M12 A3045 RMK AO2 SLP312 T10501122 53013 TSNO","FM-15","7",,,,,,,,,,,,,,,,,,,,,,,,,,,,"2005-10-30"
"70362125516","2020-01-14T18:53:00","FM-15","7",,,,,,,,,,,,,,,,,,,,,,,,,,,,,,,,,,,,,,"30.47","10","23","0.00",,,,"57","30.47","CLR:00","30.44","10.00","19","010",,"13",,,,,,,,,,,,,,,,,,,,,,,,,,,,,,,,,,,,,"MET09701/14/20 18:53:01 METAR PASO 150353Z 01011KT 10SM CLR M05/M12 A3047 RMK AO2 SLP317 T10501122 TSNO","FM-15","7",,,,,,,,,,,,,,,,,,,,,,,,,,,,"2005-10-30"
"70362125516","2020-01-14T19:53:00","FM-15","7",,,,,,,,,,,,,,,,,,,,,,,,,,,,,,,,,,,,,,"30.49","10","23","0.00",,,,"57","30.49","SCT:04 70","30.46","10.00","19","360","24","11",,,,,,,,,,,,,,,,,,,,,,,,,,,,,,,,,,,,,"MET10301/14/20 19:53:01 METAR PASO 150453Z 36010G21KT 10SM SCT070 M05/M12 A3049 RMK AO2 SLP324 T10501122 TSNO","FM-15","7",,,,,,,,,,,,,,,,,,,,,,,,,,,,"2005-10-30"
"70362125516","2020-01-14T20:53:00","FM-15","7",,,,,,,,,,,,,,,,,,,,,,,,,,,,,,,,,,,,,,"30.50","8","23","0.00",,"-0.05","1","53","30.50","CLR:00","30.47","10.00","19","VRB","22","11",,,,,,,,,,,,,,,,,,,,,,,,,,,,,,,,,,,,,"MET11801/14/20 20:53:01 METAR PASO 150553Z 04010G19KT 10SM CLR M05/M13 A3050 RMK AO2 SLP328 T10501133 11044 21056 51016 TSNO","FM-15","7",,,,,,,,,,,,,,,,,,,,,,,,,,,,"2005-10-30"
"70362125516","2020-01-14T21:53:00","FM-15","7",,,,,,,,,,,,,,,,,,,,,,,,,,,,,,,,,,,,,,"30.50","9","22","0.00",,,,"57","30.50","CLR:00","30.47","10.00","19","010",,"6",,,,,,,,,,,,,,,,,,,,,,,,,,,,,,,,,,,,,"MET09701/14/20 21:53:01 METAR PASO 150653Z 01005KT 10SM CLR M06/M13 A3050 RMK AO2 SLP328 T10561128 TSNO","FM-15","7",,,,,,,,,,,,,,,,,,,,,,,,,,,,"2005-10-30"
"70362125516","2020-01-14T22:53:00","FM-15","7",,,,,,,,,,,,,,,,,,,,,,,,,,,,,,,,,,,,,,"30.50","10","22","0.00",,,,"60","30.50","CLR:00","30.47","10.00","19","360",,"7",,,,,,,,,,,,,,,,,,,,,,,,,,,,,,,,,,,,,"MET09701/14/20 22:53:01 METAR PASO 150753Z 36006KT 10SM CLR M06/M12 A3050 RMK AO2 SLP327 T10561122 TSNO","FM-15","7",,,,,,,,,,,,,,,,,,,,,,,,,,,,"2005-10-30"
"70362125516","2020-01-14T23:53:00","FM-15","7",,,,,,,,,,,,,,,,,,,,,,,,,,,,,,,,,,,,,,"30.52","11","21","0.00",,"-0.02","3","65","30.52","CLR:00","30.49","10.00","18","010",,"9",,,,,,,,,,,,,,,,,,,,,,,,,,,,,,,,,,,,,"MET11301/14/20 23:53:02 METAR PASO 150853Z 01008KT 10SM CLR M06/M12 A3052 RMK AO2 SLP336 T10611117 410391067 53007 TSNO","FM-15","7",,,,,,,,,,,,,,,,,,,,,,,,,,,,"2005-10-30"
"70362125516","2020-01-14T23:59:00","SOD  ","6",,,,,,,,,,,,,,,,"23",,,"30.39",,"6.0","0","-2.7","42","25","20","010","24","0.00",,,"010","16",,,,,,,,,,,,,,,,,,,,,,,,,,,,,,,,,,,,,,,,,,,,,,,,,,,,,,,,,"SOD73024 HR PRECIPITATION (IN):0.00  24 HR MAX TEMP (F):25 24 HR MAX TEMP TIME (LST):0534 24 HR MIN TEMP (F):20 24 HR MIN TEMP TIME (LST):2328 AVERAGE STATION PRESSURE:30.390 MINIMUM SEA LEVEL PRESSURE:30.37 TIME OF OCCURRENCE:0134 PEAK WIND SPEED (MPH):24  PEAK WIND DIR (DEG):10  PEAK WIND TIME (LST):1948  FASTEST 2MIN SPEED (MPH):16 FASTEST 2MIN DIR (DEG):10  FASTEST 2MIN TIME (LST):2011 AVERAGE WIND SPEED (MPH):6.0  24 HR AVG TEMP (F):23 HEATING DEGREE DAYS:42  COOLING DEGREE DAYS:0   LATEST DAY MAX TEMP (0700-1900 LST):24  LATEST NIGHT MIN TEMP(1900-0800 LST):22 HOURLY INCREMENTAL PRECIPITATION VALUES (IN):.00 0.00 0.00 0.00 0.00 0.00 0.00 0.00 0.00 0.00 0.00 0.00 0.00 0.00 0.00 0.00 0.00 0.00 0.00 0.00 0.00 0.00 0.00 0.00","SOD  ","6",,,,,,,,,,,,,,,,,,,,,,,,,"0952","1641",,"2005-10-30"
"70362125516","2020-01-15T00:53:00","FM-15","7",,,,,,,,,,,,,,,,,,,,,,,,,,,,,,,,,,,,,,"30.53","8","20","0.00",,,,"60","30.53","CLR:00","30.50","10.00","17","010",,"7",,,,,,,,,,,,,,,,,,,,,,,,,,,,,,,,,,,,,"MET09701/15/20 00:53:02 METAR PASO 150953Z 01006KT 10SM CLR M07/M13 A3053 RMK AO2 SLP337 T10671133 TSNO","FM-15","7",,,,,,,,,,,,,,,,,,,,,,,,,,,,"2005-10-30"
"70362125516","2020-01-15T01:53:00","FM-15","7",,,,,,,,,,,,,,,,,,,,,,,,,,,,,,,,,,,,,,"30.52","8","20","0.00",,,,"60","30.52","CLR:00","30.49","10.00","17","020",,"9",,,,,,,,,,,,,,,,,,,,,,,,,,,,,,,,,,,,,"MET09701/15/20 01:53:02 METAR PASO 151053Z 02008KT 10SM CLR M07/M13 A3052 RMK AO2 SLP336 T10671133 TSNO","FM-15","7",,,,,,,,,,,,,,,,,,,,,,,,,,,,"2005-10-30"
"70362125516","2020-01-15T02:53:00","FM-15","7",,,,,,,,,,,,,,,,,,,,,,,,,,,,,,,,,,,,,,"30.52","6","20","0.00",,"+0.00","8","55","30.52","CLR:00","30.49","10.00","17","360",,"10",,,,,,,,,,,,,,,,,,,,,,,,,,,,,,,,,,,,,"MET11501/15/20 02:53:02 METAR PASO 151153Z 36009KT 10SM CLR M07/M14 A3052 RMK AO2 SLP335 T10671144 11050 21067 58001 TSNO","FM-15","7",,,,,,,,,,,,,,,,,,,,,,,,,,,,"2005-10-30"
"70362125516","2020-01-15T03:53:00","FM-15","7",,,,,,,,,,,,,,,,,,,,,,,,,,,,,,,,,,,,,,"30.50","6","20","0.00",,,,"55","30.50","CLR:00","30.47","10.00","17","010",,"10",,,,,,,,,,,,,,,,,,,,,,,,,,,,,,,,,,,,,"MET09701/15/20 03:53:02 METAR PASO 151253Z 01009KT 10SM CLR M07/M14 A3050 RMK AO2 SLP329 T10671144 TSNO","FM-15","7",,,,,,,,,,,,,,,,,,,,,,,,,,,,"2005-10-30"
"70362125516","2020-01-15T04:53:00","FM-15","7",,,,,,,,,,,,,,,,,,,,,,,,,,,,,,,,,,,,,,"30.48","8","20","0.00",,,,"60","30.47","CLR:00","30.45","10.00","17","VRB",,"7",,,,,,,,,,,,,,,,,,,,,,,,,,,,,,,,,,,,,"MET09701/15/20 04:53:02 METAR PASO 151353Z VRB06KT 10SM CLR M07/M13 A3048 RMK AO2 SLP320 T10671133 TSNO","FM-15","7",,,,,,,,,,,,,,,,,,,,,,,,,,,,"2005-10-30"
"70362125516","2020-01-15T05:53:00","FM-15","7",,,,,,,,,,,,,,,,,,,,,,,,,,,,,,,,,,,,,,"30.46","9","20","0.00",,"+0.06","6","62","30.46","CLR:00","30.43","10.00","17","010",,"9",,,,,,,,,,,,,,,,,,,,,,,,,,,,,,,,,,,,,"MET10301/15/20 05:53:02 METAR PASO 151453Z 01008KT 10SM CLR M07/M13 A3046 RMK AO2 SLP316 T10671128 56019 TSNO","FM-15","7",,,,,,,,,,,,,,,,,,,,,,,,,,,,"2005-10-30"
"70362125516","2020-01-15T06:53:00","FM-15","7",,,,,,,,,,,,,,,,,,,,,,,,,,,,,,,,,,,,,,"30.47","8","18","0.00",,,,"65","30.47","CLR:00","30.44","10.00","16","350",,"6",,,,,,,,,,,,,,,,,,,,,,,,,,,,,,,,,,,,,"MET09701/15/20 06:53:02 METAR PASO 151553Z 35005KT 10SM CLR M08/M13 A3047 RMK AO2 SLP317 T10781133 TSNO","FM-15","7",,,,,,,,,,,,,,,,,,,,,,,,,,,,"2005-10-30"
"70362125516","2020-01-15T07:53:00","FM-15","7",,,,,,,,,,,,,,,,,,,,,,,,,,,,,,,,,,,,,,"30.46","9","18","0.00",,,,"68","30.46","CLR:00","30.43","10.00","16","010",,"6",,,,,,,,,,,,,,,,,,,,,,,,,,,,,,,,,,,,,"MET09701/15/20 07:53:02 METAR PASO 151653Z 01005KT 10SM CLR M08/M13 A3046 RMK AO2 SLP315 T10781128 TSNO","FM-15","7",,,,,,,,,,,,,,,,,,,,,,,,,,,,"2005-10-30"
"70362125516","2020-01-15T08:53:00","FM-15","7",,,,,,,,,,,,,,,,,,,,,,,,,,,,,,,,,,,,,,"30.46","9","15","0.00",,"+0.01","8","77","30.45","CLR:00","30.43","10.00","14","000",,"0",,,,,,,,,,,,,,,,,,,,,,,,,,,,,,,,,,,,,"MET11501/15/20 08:53:02 METAR PASO 151753Z 00000KT 10SM CLR M09/M13 A3046 RMK AO2 SLP313 T10941128 11061 21100 58002 TSNO","FM-15","7",,,,,,,,,,,,,,,,,,,,,,,,,,,,"2005-10-30"
"70362125516","2020-01-15T09:53:00","FM-15","7",,,,,,,,,,,,,,,,,,,,,,,,,,,,,,,,,,,,,,"30.45","8","14","0.00",,,,"77","30.45","CLR:00","30.42","10.00","13","VRB",,"3",,,,,,,,,,,,,,,,,,,,,,,,,,,,,,,,,,,,,"MET09701/15/20 09:53:02 METAR PASO 151853Z VRB03KT 10SM CLR M10/M13 A3045 RMK AO2 SLP312 T11001133 TSNO","FM-15","7",,,,,,,,,,,,,,,,,,,,,,,,,,,,"2005-10-30"
"70362125516","2020-01-15T10:53:00","FM-15","7",,,,,,,,,,,,,,,,,,,,,,,,,,,,,,,,,,,,,,"30.43","6","19","0.00",,,,"57","30.43","CLR:00","30.40","10.00","16","020",,"9",,,,,,,,,,,,,,,,,,,,,,,,,,,,,,,,,,,,,"MET09701/15/20 10:53:02 METAR PASO 151953Z 02008KT 10SM CLR M07/M14 A3043 RMK AO2 SLP305 T10721144 TSNO","FM-15","7",,,,,,,,,,,,,,,,,,,,,,,,,,,,"2005-10-30"
"70362125516","2020-01-15T11:53:00","FM-15","7",,,,,,,,,,,,,,,,,,,,,,,,,,,,,,,,,,,,,,"30.42","6","20","0.00",,"+0.04","8","55","30.42","CLR:00","30.39","10.00","17","360","20","14",,,,,,,,,,,,,,,,,,,,,,,,,,,,,,,,,,,,,"MET10601/15/20 11:53:02 METAR PASO 152053Z 36012G17KT 10SM CLR M07/M14 A3042 RMK AO2 SLP300 T10671144 58014 TSNO","FM-15","7",,,,,,,,,,,,,,,,,,,,,,,,,,,,"2005-10-30"
"70362125516","2020-01-15T12:53:00","FM-15","7",,,,,,,,,,,,,,,,,,,,,,,,,,,,,,,,,,,,,,"30.40","6","20","0.00",,,,"55","30.40","CLR:00","30.37","10.00","17","010","21","10",,,,,,,,,,,,,,,,,,,,,,,,,,,,,,,,,,,,,"MET10001/15/20 12:53:02 METAR PASO 152153Z 01009G18KT 10SM CLR M07/M14 A3040 RMK AO2 SLP293 T10671144 TSNO","FM-15","7",,,,,,,,,,,,,,,,,,,,,,,,,,,,"2005-10-30"
"70362125516","2020-01-15T13:53:00","FM-15","7",,,,,,,,,,,,,,,,,,,,,,,,,,,,,,,,,,,,,,"30.39","5","21","0.00",,,,"50","30.39","CLR:00","30.36","10.00","17","010","29","16",,,,,,,,,,,,,,,,,,,,,,,,,,,,,,,,,,,,,"MET10001/15/20 13:53:02 METAR PASO 152253Z 01014G25KT 10SM CLR M06/M15 A3039 RMK AO2 SLP290 T10611150 TSNO","FM-15","7",,,,,,,,,,,,,,,,,,,,,,,,,,,,"2005-10-30"
"70362125516","2020-01-15T14:53:00","FM-15","7",,,,,,,,,,,,,,,,,,,,,,,,,,,,,,,,,,,,,,"30.37","4","20","0.00",,"+0.04","6","50","30.37","CLR:00","30.34","10.00","16","010","25","17",,,,,,,,,,,,,,,,,,,,,,,,,,,,,,,,,,,,,"MET11801/15/20 14:53:02 METAR PASO 152353Z 01015G22KT 10SM CLR M07/M16 A3037 RMK AO2 SLP285 T10671156 11061 21111 56015 TSNO","FM-15","7",,,,,,,,,,,,,,,,,,,,,,,,,,,,"2005-10-30"
"70362125516","2020-01-15T15:53:00","FM-15","7",,,,,,,,,,,,,,,,,,,,,,,,,,,,,,,,,,,,,,"30.35","5","19","0.00",,,,"54","30.35","CLR:00","30.32","10.00","16","VRB","17","7",,,,,,,,,,,,,,,,,,,,,,,,,,,,,,,,,,,,,"MET11801/15/20 15:53:01 METAR PASO 160053Z VRB06G15KT 10SM CLR M07/M15 A3035 RMK AO2 PK WND 36027/2357 SLP277 T10721150 TSNO","FM-15","7",,,,,,,,,,,,,,,,,,,,,,,,,,,,"2005-10-30"
"70362125516","2020-01-15T16:53:00","FM-15","7",,,,,,,,,,,,,,,,,,,,,,,,,,,,,,,,,,,,,,"30.34","5","18","0.00",,,,"57","30.35","CLR:00","30.31","10.00","15","VRB","20","8",,,,,,,,,,,,,,,,,,,,,,,,,,,,,,,,,,,,,"MET10001/15/20 16:53:01 METAR PASO 160153Z 03007G17KT 10SM CLR M08/M15 A3034 RMK AO2 SLP276 T10781150 TSNO","FM-15","7",,,,,,,,,,,,,,,,,,,,,,,,,,,,"2005-10-30"
"70362125516","2020-01-15T17:53:00","FM-15","7",,,,,,,,,,,,,,,,,,,,,,,,,,,,,,,,,,,,,,"30.34","6","18","0.00",,"+0.04","6","59","30.33","CLR:00","30.31","10.00","15","VRB","17","7",,,,,,,,,,,,,,,,,,,,,,,,,,,,,,,,,,,,,"MET10601/15/20 17:53:01 METAR PASO 160253Z VRB06G15KT 10SM CLR M08/M14 A3034 RMK AO2 SLP272 T10781144 56013 TSNO","FM-15","7",,,,,,,,,,,,,,,,,,,,,,,,,,,,"2005-10-30"
"70362125516","2020-01-15T18:53:00","FM-15","7",,,,,,,,,,,,,,,,,,,,,,,,,,,,,,,,,,,,,,"30.33","6","17","0.00",,,,"62","30.33","CLR:00","30.30","10.00","14","010","18","11",,,,,,,,,,,,,,,,,,,,,,,,,,,,,,,,,,,,,"MET10001/15/20 18:53:01 METAR PASO 160353Z 01010G16KT 10SM CLR M08/M14 A3033 RMK AO2 SLP270 T10831144 TSNO","FM-15","7",,,,,,,,,,,,,,,,,,,,,,,,,,,,"2005-10-30"
"70362125516","2020-01-15T19:53:00","FM-15","7",,,,,,,,,,,,,,,,,,,,,,,,,,,,,,,,,,,,,,"30.31","5","18","0.00",,,,"57","30.31","CLR:00","30.28","10.00","15","020","22","11",,,,,,,,,,,,,,,,,,,,,,,,,,,,,,,,,,,,,"MET10001/15/20 19:53:01 METAR PASO 160453Z 02010G19KT 10SM CLR M08/M15 A3031 RMK AO2 SLP265 T10781150 TSNO","FM-15","7",,,,,,,,,,,,,,,,,,,,,,,,,,,,"2005-10-30"
"70362125516","2020-01-15T20:53:00","FM-15","7",,,,,,,,,,,,,,,,,,,,,,,,,,,,,,,,,,,,,,"30.29","4","17","0.00",,"+0.05","8","56","30.29","CLR:00","30.26","10.00","14","010","20","14",,,,,,,,,,,,,,,,,,,,,,,,,,,,,,,,,,,,,"MET11801/15/20 20:53:01 METAR PASO 160553Z 01012G17KT 10SM CLR M08/M16 A3029 RMK AO2 SLP257 T10831156 11067 21094 58016 TSNO","FM-15","7",,,,,,,,,,,,,,,,,,,,,,,,,,,,"2005-10-30"
"70362125516","2020-01-15T21:53:00","FM-15","7",,,,,,,,,,,,,,,,,,,,,,,,,,,,,,,,,,,,,,"30.28","5","13","0.00",,,,"70","30.28","CLR:00","30.25","10.00","11","000",,"0",,,,,,,,,,,,,,,,,,,,,,,,,,,,,,,,,,,,,"MET09701/15/20 21:53:01 METAR PASO 160653Z 00000KT 10SM CLR M11/M15 A3028 RMK AO2 SLP254 T11061150 TSNO","FM-15","7",,,,,,,,,,,,,,,,,,,,,,,,,,,,"2005-10-30"
"70362125516","2020-01-15T22:53:00","FM-15","7",,,,,,,,,,,,,,,,,,,,,,,,,,,,,,,,,,,,,,"30.26","6","13","0.00",,,,"74","30.26","CLR:00","30.23","10.00","11",,,,,,,,,,,,,,,,,,,,,,,,,,,,,,,,,,,,,,,,"MET10601/15/20 22:53:01 METAR PASO 160753Z      KT 10SM CLR M11/M14 A3026 RMK SLP247 T11061144 TSNO VIA AUTODIAL","FM-15","7",,,,,,,,,,,,,,,,,,,,,,,,,,,,"2005-10-30"
"70362125516","2020-01-15T23:53:00","FM-15","7",,,,,,,,,,,,,,,,,,,,,,,,,,,,,,,,,,,,,,"30.24","6","17","0.00",,"+0.05","8","62","30.24","CLR:00","30.21","10.00","14","VRB","17","6",,,,,,,,,,,,,,,,,,,,,,,,,,,,,,,,,,,,,"MET11601/15/20 23:53:01 METAR PASO 160853Z VRB05G15KT 10SM CLR M08/M14 A3024 RMK AO2 SLP240 T10831144 410561111 58016 TSNO","FM-15","7",,,,,,,,,,,,,,,,,,,,,,,,,,,,"2005-10-30"
"70362125516","2020-01-15T23:59:00","SOD  ","6",,,,,,,,,,,,,,,,"17",,,"30.37",,"8.7","0","-8.7","48","22","12","360","30","0.00",,,"010","22",,,,,,,,,,,,,,,,,,,,,,,,,,,,,,,,,,,,,,,,,,,,,,,,,,,,,,,,,"SOD73024 HR PRECIPITATION (IN):0.00  24 HR MAX TEMP (F):22 24 HR MAX TEMP TIME (LST):0015 24 HR MIN TEMP (F):12 24 HR MIN TEMP TIME (LST):2250 AVERAGE STATION PRESSURE:30.375 MINIMUM SEA LEVEL PRESSURE:30.24 TIME OF OCCURRENCE:2359 PEAK WIND SPEED (MPH):30  PEAK WIND DIR (DEG):360 PEAK WIND TIME (LST):1457  FASTEST 2MIN SPEED (MPH):22 FASTEST 2MIN DIR (DEG):10  FASTEST 2MIN TIME (LST):1458 AVERAGE WIND SPEED (MPH):8.7  24 HR AVG TEMP (F):17 HEATING DEGREE DAYS:48  COOLING DEGREE DAYS:0   LATEST DAY MAX TEMP (0700-1900 LST):21  LATEST NIGHT MIN TEMP(1900-0800 LST):17 HOURLY INCREMENTAL PRECIPITATION VALUES (IN):.00 0.00 0.00 0.00 0.00 0.00 0.00 0.00 0.00 0.00 0.00 0.00 0.00 0.00 0.00 0.00 0.00 0.00 0.00 0.00 0.00 0.00 0.00 0.00","SOD  ","6",,,,,,,,,,,,,,,,,,,,,,,,,"0950","1643",,"2005-10-30"
"70362125516","2020-01-16T00:53:00","FM-15","7",,,,,,,,,,,,,,,,,,,,,,,,,,,,,,,,,,,,,,"30.23","5","17","0.00",,,,"59","30.22","CLR:00","30.20","10.00","14","360","20","11",,,,,,,,,,,,,,,,,,,,,,,,,,,,,,,,,,,,,"MET10001/16/20 00:53:02 METAR PASO 160953Z 36010G17KT 10SM CLR M08/M15 A3023 RMK AO2 SLP235 T10831150 TSNO","FM-15","7",,,,,,,,,,,,,,,,,,,,,,,,,,,,"2005-10-30"
"70362125516","2020-01-16T01:53:00","FM-15","7",,,,,,,,,,,,,,,,,,,,,,,,,,,,,,,,,,,,,,"30.21","4","17","0.00",,,,"56","30.21","CLR:00","30.18","10.00","14",,,,,,,,,,,,,,,,,,,,,,,,,,,,,,,,,,,,,,,,"MET09701/16/20 01:53:02 METAR PASO 161053Z      KT 10SM CLR M08/M16 A3021 RMK AO2 SLP229 T10831156 TSNO","FM-15","7",,,,,,,,,,,,,,,,,,,,,,,,,,,,"2005-10-30"
"70362125516","2020-01-16T02:53:00","FM-15","7",,,,,,,,,,,,,,,,,,,,,,,,,,,,,,,,,,,,,,"30.20","3","17","0.00",,"+0.05","6","54","30.19","CLR:00","30.17","10.00","14","VRB",,"3",,,,,,,,,,,,,,,,,,,,,,,,,,,,,,,,,,,,,"MET11501/16/20 02:53:02 METAR PASO 161153Z VRB03KT 10SM CLR M08/M16 A3020 RMK AO2 SLP225 T10831161 11083 21111 56016 TSNO","FM-15","7",,,,,,,,,,,,,,,,,,,,,,,,,,,,"2005-10-30"
"70362125516","2020-01-16T03:53:00","FM-15","7",,,,,,,,,,,,,,,,,,,,,,,,,,,,,,,,,,,,,,"30.17","5","17","0.00",,,,"59","30.17","CLR:00","30.14","10.00","14","VRB",,"3",,,,,,,,,,,,,,,,,,,,,,,,,,,,,,,,,,,,,"MET09701/16/20 03:53:02 METAR PASO 161253Z VRB03KT 10SM CLR M08/M15 A3017 RMK AO2 SLP216 T10831150 TSNO","FM-15","7",,,,,,,,,,,,,,,,,,,,,,,,,,,,"2005-10-30"
"70362125516","2020-01-16T04:53:00","FM-15","7",,,,,,,,,,,,,,,,,,,,,,,,,,,,,,,,,,,,,,"30.16","4","17","0.00",,,,"56","30.16","CLR:00","30.13","10.00","14","030",,"7",,,,,,,,,,,,,,,,,,,,,,,,,,,,,,,,,,,,,"MET09701/16/20 04:53:02 METAR PASO 161353Z 03006KT 10SM CLR M08/M16 A3016 RMK AO2 SLP213 T10831156 TSNO","FM-15","7",,,,,,,,,,,,,,,,,,,,,,,,,,,,"2005-10-30"
"70362125516","2020-01-16T05:53:00","FM-15","7",,,,,,,,,,,,,,,,,,,,,,,,,,,,,,,,,,,,,,"30.12","4","17","0.00",,"+0.07","8","56","30.12","CLR:00","30.09","10.00","14",,,,,,,,,,,,,,,,,,,,,,,,,,,,,,,,,,,,,,,,"MET10301/16/20 05:53:02 METAR PASO 161453Z      KT 10SM CLR M08/M16 A3012 RMK AO2 SLP201 T10831156 58024 TSNO","FM-15","7",,,,,,,,,,,,,,,,,,,,,,,,,,,,"2005-10-30"
"70362125516","2020-01-16T06:53:00","FM-15","7",,,,,,,,,,,,,,,,,,,,,,,,,,,,,,,,,,,,,,"30.11","3","17","0.00",,,,"54","30.11","CLR:00","30.08","10.00","14","VRB",,"5",,,,,,,,,,,,,,,,,,,,,,,,,,,,,,,,,,,,,"MET09701/16/20 06:53:02 METAR PASO 161553Z VRB04KT 10SM CLR M08/M16 A3011 RMK AO2 SLP196 T10831161 TSNO","FM-15","7",,,,,,,,,,,,,,,,,,,,,,,,,,,,"2005-10-30"
"70362125516","2020-01-16T07:53:00","FM-15","7",,,,,,,,,,,,,,,,,,,,,,,,,,,,,,,,,,,,,,"30.08","4","15","0.00",,,,"61","30.08","CLR:00","30.05","10.00","13","VRB",,"6",,,,,,,,,,,,,,,,,,,,,,,,,,,,,,,,,,,,,"MET09701/16/20 07:53:02 METAR PASO 161653Z VRB05KT 10SM CLR M09/M16 A3008 RMK AO2 SLP185 T10941156 TSNO","FM-15","7",,,,,,,,,,,,,,,,,,,,,,,,,,,,"2005-10-30"
"70362125516","2020-01-16T08:53:00","FM-15","7",,,,,,,,,,,,,,,,,,,,,,,,,,,,,,,,,,,,,,"30.05","1","15","0.00",,"+0.07","8","53","30.05","CLR:00","30.02","10.00","12","350",,"7",,,,,,,,,,,,,,,,,,,,,,,,,,,,,,,,,,,,,"MET11501/16/20 08:53:02 METAR PASO 161753Z 35006KT 10SM CLR M09/M17 A3005 RMK AO2 SLP176 T10941172 11078 21100 58025 TSNO","FM-15","7",,,,,,,,,,,,,,,,,,,,,,,,,,,,"2005-10-30"
"70362125516","2020-01-16T09:53:00","FM-15","7",,,,,,,,,,,,,,,,,,,,,,,,,,,,,,,,,,,,,,"30.04","4","11","0.00",,,,"73","30.04","CLR:00","30.01","10.00","9","000",,"0",,,,,,,,,,,,,,,,,,,,,,,,,,,,,,,,,,,,,"MET09701/16/20 09:53:02 METAR PASO 161853Z 00000KT 10SM CLR M12/M16 A3004 RMK AO2 SLP173 T11171156 TSNO","FM-15","7",,,,,,,,,,,,,,,,,,,,,,,,,,,,"2005-10-30"
"70362125516","2020-01-16T10:53:00","FM-15","7",,,,,,,,,,,,,,,,,,,,,,,,,,,,,,,,,,,,,,"30.03","3","16","0.00",,,,"56","30.03","CLR:00","30.00","10.00","13","010",,"7",,,,,,,,,,,,,,,,,,,,,,,,,,,,,,,,,,,,,"MET09701/16/20 10:53:02 METAR PASO 161953Z 01006KT 10SM CLR M09/M16 A3003 RMK AO2 SLP168 T10891161 TSNO","FM-15","7",,,,,,,,,,,,,,,,,,,,,,,,,,,,"2005-10-30"
"70362125516","2020-01-16T11:53:00","FM-15","7",,,,,,,,,,,,,,,,,,,,,,,,,,,,,,,,,,,,,,"30.01","3","17","0.00",,"+0.04","8","54","30.01","CLR:00","29.98","10.00","14","VRB",,"7",,,,,,,,,,,,,,,,,,,,,,,,,,,,,,,,,,,,,"MET10301/16/20 11:53:02 METAR PASO 162053Z VRB06KT 10SM CLR M08/M16 A3001 RMK AO2 SLP161 T10831161 58015 TSNO","FM-15","7",,,,,,,,,,,,,,,,,,,,,,,,,,,,"2005-10-30"
"70362125516","2020-01-16T12:53:00","FM-15","7",,,,,,,,,,,,,,,,,,,,,,,,,,,,,,,,,,,,,,"29.98","2","18","0.00",,,,"49","29.98","CLR:00","29.95","10.00","14","010",,"6",,,,,,,,,,,,,,,,,,,,,,,,,,,,,,,,,,,,,"MET09701/16/20 12:53:02 METAR PASO 162153Z 01005KT 10SM CLR M08/M17 A2998 RMK AO2 SLP152 T10781167 TSNO","FM-15","7",,,,,,,,,,,,,,,,,,,,,,,,,,,,"2005-10-30"
"70362125516","2020-01-16T13:53:00","FM-15","7",,,,,,,,,,,,,,,,,,,,,,,,,,,,,,,,,,,,,,"29.97","1","17","0.00",,,,"49","29.97","CLR:00","29.94","10.00","13","020",,"6",,,,,,,,,,,,,,,,,,,,,,,,,,,,,,,,,,,,,"MET09701/16/20 13:53:02 METAR PASO 162253Z 02005KT 10SM CLR M08/M17 A2997 RMK AO2 SLP148 T10831172 TSNO","FM-15","7",,,,,,,,,,,,,,,,,,,,,,,,,,,,"2005-10-30"
"70362125516","2020-01-16T14:53:00","FM-15","7",,,,,,,,,,,,,,,,,,,,,,,,,,,,,,,,,,,,,,"29.95","1","18","0.00",,"+0.06","6","47","29.95","CLR:00","29.92","10.00","14",,,,,,,,,,,,,,,,,,,,,,,,,,,,,,,,,,,,,,,,"MET11501/16/20 14:53:02 METAR PASO 162353Z      KT 10SM CLR M08/M17 A2995 RMK AO2 SLP142 T10781172 11078 21117 56019 TSNO","FM-15","7",,,,,,,,,,,,,,,,,,,,,,,,,,,,"2005-10-30"
"70362125516","2020-01-16T15:53:00","FM-15","7",,,,,,,,,,,,,,,,,,,,,,,,,,,,,,,,,,,,,,"29.93","2","16","0.00",,,,"54","29.93","CLR:00","29.90","10.00","13","230",,"5",,,,,,,,,,,,,,,,,,,,,,,,,,,,,,,,,,,,,"MET09701/16/20 15:53:01 METAR PASO 170053Z 23004KT 10SM CLR M09/M17 A2993 RMK AO2 SLP136 T10891167 TSNO","FM-15","7",,,,,,,,,,,,,,,,,,,,,,,,,,,,"2005-10-30"
"70362125516","2020-01-16T16:53:00","FM-15","7",,,,,,,,,,,,,,,,,,,,,,,,,,,,,,,,,,,,,,"29.93","4","12","0.00",,,,"70","29.93","CLR:00","29.90","10.00","10","000",,"0",,,,,,,,,,,,,,,,,,,,,,,,,,,,,,,,,,,,,"MET09701/16/20 16:53:01 METAR PASO 170153Z 00000KT 10SM CLR M11/M16 A2993 RMK AO2 SLP135 T11111156 TSNO","FM-15","7",,,,,,,,,,,,,,,,,,,,,,,,,,,,"2005-10-30"
"70362125516","2020-01-16T17:53:00","FM-15","7",,,,,,,,,,,,,,,,,,,,,,,,,,,,,,,,,,,,,,"29.93","4","9","0.00",,"+0.02","6","80","29.93","CLR:00","29.90","10.00","8","000",,"0",,,,,,,,,,,,,,,,,,,,,,,,,,,,,,,,,,,,,"MET10301/16/20 17:53:01 METAR PASO 170253Z 00000KT 10SM CLR M13/M16 A2993 RMK AO2 SLP134 T11281156 56008 TSNO","FM-15","7",,,,,,,,,,,,,,,,,,,,,,,,,,,,"2005-10-30"
"70362125516","2020-01-16T18:53:00","FM-15","7",,,,,,,,,,,,,,,,,,,,,,,,,,,,,,,,,,,,,,"29.92","2","7","0.00",,,,"80","29.91","CLR:00","29.89","10.00","6","000",,"0",,,,,,,,,,,,,,,,,,,,,,,,,,,,,,,,,,,,,"MET09701/16/20 18:53:01 METAR PASO 170353Z 00000KT 10SM CLR M14/M17 A2992 RMK AO2 SLP130 T11391167 TSNO","FM-15","7",,,,,,,,,,,,,,,,,,,,,,,,,,,,"2005-10-30"
"70362125516","2020-01-16T19:53:00","FM-15","7",,,,,,,,,,,,,,,,,,,,,,,,,,,,,,,,,,,,,,"29.92","1","5","0.00",,,,"83","29.92","CLR:00","29.89","10.00","4","000",,"0",,,,,,,,,,,,,,,,,,,,,,,,,,,,,,,,,,,,,"MET09701/16/20 19:53:02 METAR PASO 170453Z 00000KT 10SM CLR M15/M17 A2992 RMK AO2 SLP131 T11501172 TSNO","FM-15","7",,,,,,,,,,,,,,,,,,,,,,,,,,,,"2005-10-30"
"70362125516","2020-01-16T20:53:00","FM-15","7",,,,,,,,,,,,,,,,,,,,,,,,,,,,,,,,,,,,,,"29.92","2","6","0.00",,"+0.01","5","83","29.92","CLR:00","29.89","10.00","5","000",,"0",,,,,,,,,,,,,,,,,,,,,,,,,,,,,,,,,,,,,"MET12701/16/20 20:53:02 METAR PASO 170553Z 00000KT 10SM CLR M14/M17 A2992 RMK AO2 SLP132 I1000 I6000 T11441167 11078 21156 55002 TSNO","FM-15","7",,,,,,,,,,,,,,,,,,,,,,,,,,,,"2005-10-30"
"70362125516","2020-01-16T21:53:00","FM-15","7",,,,,,,,,,,,,,,,,,,,,,,,,,,,,,,,,,,,,,"29.92","0","4","0.00",,,,"83","29.92","CLR:00","29.89","10.00","3","000",,"0",,,,,,,,,,,,,,,,,,,,,,,,,,,,,,,,,,,,,"MET10301/16/20 21:53:02 METAR PASO 170653Z 00000KT 10SM CLR M16/M18 A2992 RMK AO2 SLP132 I1000 T11561178 TSNO","FM-15","7",,,,,,,,,,,,,,,,,,,,,,,,,,,,"2005-10-30"
"70362125516","2020-01-16T22:53:00","FM-15","7",,,,,,,,,,,,,,,,,,,,,,,,,,,,,,,,,,,,,,"29.92","0","5","0.00",,,,"79","29.92","CLR:00","29.89","9.00","4","000",,"0",,,,,,,,,,,,,,,,,,,,,,,,,,,,,,,,,,,,,"MET11101/16/20 22:53:02 METAR PASO 170753Z 00000KT 9SM CLR M15/M18 A2992 RMK SLP132 I1000 T11501178 TSNO VIA AUTODIAL","FM-15","7",,,,,,,,,,,,,,,,,,,,,,,,,,,,"2005-10-30"
"70362125516","2020-01-16T23:53:00","FM-15","7",,,,,,,,,,,,,,,,,,,,,,,,,,,,,,,,,,,,,,"29.92","0","5","0.00",,"-0.00","0","79","29.92","CLR:00","29.89","10.00","4","000",,"0",,,,,,,,,,,,,,,,,,,,,,,,,,,,,,,,,,,,,"MET12501/16/20 23:53:02 METAR PASO 170853Z 00000KT 10SM CLR M15/M18 A2992 RMK AO2 SLP132 I1000 I3000 T11501178 410781161 50000 TSNO","FM-15","7",,,,,,,,,,,,,,,,,,,,,,,,,,,,"2005-10-30"
"70362125516","2020-01-16T23:59:00","SOD  ","6",,,,,,,,,,,,,,,,"11",,,"29.99",,"3.5","0","-14.7","54","18","3","360","23","0.00",,,"010","14",,,,,,,,,,,,,,,,,,,,,,,,,,,,,,,,,,,,,,,,,,,,,,,,,,,,,,,,,"SOD73024 HR PRECIPITATION (IN):0.00  24 HR MAX TEMP (F):18 24 HR MAX TEMP TIME (LST):1545 24 HR MIN TEMP (F):3  24 HR MIN TEMP TIME (LST):2349 AVERAGE STATION PRESSURE:29.995 MINIMUM SEA LEVEL PRESSURE:29.91 TIME OF OCCURRENCE:1908 PEAK WIND SPEED (MPH):23  PEAK WIND DIR (DEG):360 PEAK WIND TIME (LST):1130  FASTEST 2MIN SPEED (MPH):14 FASTEST 2MIN DIR (DEG):10  FASTEST 2MIN TIME (LST):1131 AVERAGE WIND SPEED (MPH):3.5  24 HR AVG TEMP (F):11 HEATING DEGREE DAYS:54  COOLING DEGREE DAYS:0   LATEST DAY MAX TEMP (0700-1900 LST):18  LATEST NIGHT MIN TEMP(1900-0800 LST):12 HOURLY INCREMENTAL PRECIPITATION VALUES (IN):.00 0.00 0.00 0.00 0.00 0.00 0.00 0.00 0.00 0.00 0.00 0.00 0.00 0.00 0.00 0.00 0.00 0.00 0.00 0.00 0.00 0.00 0.00 0.00","SOD  ","6",,,,,,,,,,,,,,,,,,,,,,,,,"0949","1646",,"2005-10-30"
"70362125516","2020-01-17T00:53:00","FM-15","7",,,,,,,,,,,,,,,,,,,,,,,,,,,,,,,,,,,,,,"29.92","0","4","0.00",,,,"83","29.92","CLR:00","29.89","10.00","3","000",,"0",,,,,,,,,,,,,,,,,,,,,,,,,,,,,,,,,,,,,"MET10301/17/20 00:53:02 METAR PASO 170953Z 00000KT 10SM CLR M16/M18 A2992 RMK AO2 SLP131 I1000 T11561178 TSNO","FM-15","7",,,,,,,,,,,,,,,,,,,,,,,,,,,,"2005-10-30"
"70362125516","2020-01-17T01:53:00","FM-15","7",,,,,,,,,,,,,,,,,,,,,,,,,,,,,,,,,,,,,,"29.92","2","6","0.00",,,,"83","29.92","FEW:02 55","29.89","10.00","5","000",,"0",,,,,,,,,,,,,,,,,,,,,,,,,,,,,,,,,,,,,"MET10601/17/20 01:53:02 METAR PASO 171053Z 00000KT 10SM FEW055 M14/M17 A2992 RMK AO2 SLP131 I1000 T11441167 TSNO","FM-15","7",,,,,,,,,,,,,,,,,,,,,,,,,,,,"2005-10-30"
"70362125516","2020-01-17T02:53:00","FM-15","7",,,,,,,,,,,,,,,,,,,,,,,,,,,,,,,,,,,,,,"29.91","2","5","0.00",,"+0.01","8","87","29.91","BKN:07 55","29.88","10.00","4","000",,"0",,,,,,,,,,,,,,,,,,,,,,,,,,,,,,,,,,,,,"MET13001/17/20 02:53:02 METAR PASO 171153Z 00000KT 10SM BKN055 M15/M17 A2991 RMK AO2 SLP129 I1000 I6000 T11501167 11139 21167 58003 TSNO","FM-15","7",,,,,,,,,,,,,,,,,,,,,,,,,,,,"2005-10-30"
"70362125516","2020-01-17T03:53:00","FM-15","7",,,,,,,,,,,,,,,,,,,,,,,,,,,,,,,,,,,,,,"29.90","4","9","0.00",,,,"80","29.90","BKN:07 60","29.87","10.00","8","000",,"0",,,,,,,,,,,,,,,,,,,,,,,,,,,,,,,,,,,,,"MET10001/17/20 03:53:02 METAR PASO 171253Z 00000KT 10SM BKN060 M13/M16 A2990 RMK AO2 SLP126 T11281156 TSNO","FM-15","7",,,,,,,,,,,,,,,,,,,,,,,,,,,,"2005-10-30"
"70362125516","2020-01-17T04:53:00","FM-15","7",,,,,,,,,,,,,,,,,,,,,,,,,,,,,,,,,,,,,,"29.89","5","9","0.00",,,,"84","29.89","BKN:07 60","29.86","10.00","8","210",,"3",,,,,,,,,,,,,,,,,,,,,,,,,,,,,,,,,,,,,"MET10001/17/20 04:53:02 METAR PASO 171353Z 21003KT 10SM BKN060 M13/M15 A2989 RMK AO2 SLP123 T11281150 TSNO","FM-15","7",,,,,,,,,,,,,,,,,,,,,,,,,,,,"2005-10-30"
"70362125516","2020-01-17T05:53:00","FM-15","7",,,,,,,,,,,,,,,,,,,,,,,,,,,,,,,,,,,,,,"29.88","8","12","0.00",,"+0.03","7","84","29.88","OVC:08 65","29.85","10.00","11","000",,"0",,,,,,,,,,,,,,,,,,,,,,,,,,,,,,,,,,,,,"MET10601/17/20 05:53:02 METAR PASO 171453Z 00000KT 10SM OVC065 M11/M13 A2988 RMK AO2 SLP119 T11111133 57010 TSNO","FM-15","7",,,,,,,,,,,,,,,,,,,,,,,,,,,,"2005-10-30"
"70362125516","2020-01-17T06:53:00","FM-15","7",,,,,,,,,,,,,,,,,,,,,,,,,,,,,,,,,,,,,,"29.88","8","12","0.00",,,,"84","29.88","BKN:07 80","29.85","10.00","11","200",,"3",,,,,,,,,,,,,,,,,,,,,,,,,,,,,,,,,,,,,"MET10601/17/20 06:53:02 METAR PASO 171553Z 20003KT 10SM BKN080 M11/M13 A2988 RMK AO2 SLP119 I1000 T11111133 TSNO","FM-15","7",,,,,,,,,,,,,,,,,,,,,,,,,,,,"2005-10-30"
"70362125516","2020-01-17T07:53:00","FM-15","7",,,,,,,,,,,,,,,,,,,,,,,,,,,,,,,,,,,,,,"29.88","10","13","0.00",,,,"88","29.88","FEW:02 44 BKN:07 70 BKN:07 95","29.85","10.00","12","000",,"0",,,,,,,,,,,,,,,,,,,,,,,,,,,,,,,,,,,,,"MET12001/17/20 07:53:02 METAR PASO 171653Z 00000KT 10SM FEW044 BKN070 BKN095 M11/M12 A2988 RMK AO2 SLP117 I1000 T11061122 TSNO","FM-15","7",,,,,,,,,,,,,,,,,,,,,,,,,,,,"2005-10-30"
"70362125516","2020-01-17T08:53:00","FM-15","7",,,,,,,,,,,,,,,,,,,,,,,,,,,,,,,,,,,,,,"29.88","11","14","0.00",,"+0.00","5","88","29.88","BKN:07 60","29.85","10.00","13","000",,"0",,,,,,,,,,,,,,,,,,,,,,,,,,,,,,,,,,,,,"MET12401/17/20 08:53:02 METAR PASO 171753Z 00000KT 10SM BKN060 M10/M12 A2988 RMK AO2 SLP118 I6000 T11001117 11100 21150 55001 TSNO","FM-15","7",,,,,,,,,,,,,,,,,,,,,,,,,,,,"2005-10-30"
"70362125516","2020-01-17T09:53:00","FM-15","7",,,,,,,,,,,,,,,,,,,,,,,,,,,,,,,,,,,,,,"29.87","9","13","0.00",,,,"84","29.87","SCT:04 50","29.84","10.00","12","000",,"0",,,,,,,,,,,,,,,,,,,,,,,,,,,,,,,,,,,,,"MET10601/17/20 09:53:02 METAR PASO 171853Z 00000KT 10SM SCT050 M11/M13 A2987 RMK AO2 SLP115 I1000 T11061128 TSNO","FM-15","7",,,,,,,,,,,,,,,,,,,,,,,,,,,,"2005-10-30"
"70362125516","2020-01-17T10:53:00","FM-15","7",,,,,,,,,,,,,,,,,,,,,,,,,,,,,,,,,,,,,,"29.86","11","14","0.00",,,,"88","29.86","SCT:04 90","29.83","9.00","13","000",,"0",,,,,,,,,,,,,,,,,,,,,,,,,,,,,,,,,,,,,"MET10501/17/20 10:53:02 METAR PASO 171953Z 00000KT 9SM SCT090 M10/M12 A2986 RMK AO2 SLP112 I1000 T11001117 TSNO","FM-15","7",,,,,,,,,,,,,,,,,,,,,,,,,,,,"2005-10-30"
"70362125516","2020-01-17T11:53:00","FM-15","7",,,,,,,,,,,,,,,,,,,,,,,,,,,,,,,,,,,,,,"29.86","10","14","0.00",,"+0.01","5","84","29.86","CLR:00","29.83","10.00","13","000",,"0",,,,,,,,,,,,,,,,,,,,,,,,,,,,,,,,,,,,,"MET11501/17/20 11:53:02 METAR PASO 172053Z 00000KT 10SM CLR M10/M12 A2986 RMK AO2 SLP113 I1000 I3000 T11001122 55005 TSNO","FM-15","7",,,,,,,,,,,,,,,,,,,,,,,,,,,,"2005-10-30"
"70362125516","2020-01-17T12:53:00","FM-15","7",,,,,,,,,,,,,,,,,,,,,,,,,,,,,,,,,,,,,,"29.86","12","15","0.00",,,,"88","29.85","SCT:04 42 BKN:07 55 BKN:07 70","29.83","10.00","14","180",,"5",,,,,,,,,,,,,,,,,,,,,,,,,,,,,,,,,,,,,"MET11401/17/20 12:53:02 METAR PASO 172153Z 18004KT 10SM SCT042 BKN055 BKN070 M09/M11 A2986 RMK AO2 SLP110 T10941111 TSNO","FM-15","7",,,,,,,,,,,,,,,,,,,,,,,,,,,,"2005-10-30"
"70362125516","2020-01-17T13:24:00","FM-16","7",,,,,,,,,,,,,,,,,,,,,,,,,,,,,,,,,,,,,,"29.84","14","18","T","-SN:03 BR:1 |SN |",,,"84",,"OVC:08 28","29.81","3.00","17","000",,"0",,,,,,,,,,,,,,,,,,,,,,,,,,,,,,,,,,,,,"MET11101/17/20 13:24:02 SPECI PASO 172224Z 00000KT 3SM -SN BR OVC028 M08/M10 A2984 RMK AO2 SNB02 P0000 T10781100 TSNO","FM-16","7",,,,,,,,,,,,,,,,,,,,,,,,,,,,"2005-10-30"
"70362125516","2020-01-17T13:31:00","FM-16","7",,,,,,,,,,,,,,,,,,,,,,,,,,,,,,,,,,,,,,"29.84","15","18","T","-SN:03 BR:1 |SN |",,,"88",,"OVC:08 34","29.81","4.00","17","000",,"0",,,,,,,,,,,,,,,,,,,,,,,,,,,,,,,,,,,,,"MET11101/17/20 13:31:02 SPECI PASO 172231Z 00000KT 4SM -SN BR OVC034 M08/M09 A2984 RMK AO2 SNB02 P0000 T10781094 TSNO","FM-16","7",,,,,,,,,,,,,,,,,,,,,,,,,,,,"2005-10-30"
"70362125516","2020-01-17T13:53:00","FM-15","7",,,,,,,,,,,,,,,,,,,,,,,,,,,,,,,,,,,,,,"29.84","15","18","T",,,,"88","29.84","OVC:08 43","29.81","10.00","17","000",,"0",,,,,,,,,,,,,,,,,,,,,,,,,,,,,,,,,,,,,"MET11501/17/20 13:53:02 METAR PASO 172253Z 00000KT 10SM OVC043 M08/M09 A2984 RMK AO2 SNB02E33 SLP105 P0000 T10781094 TSNO","FM-15","7",,,,,,,,,,,,,,,,,,,,,,,,,,,,"2005-10-30"
"70362125516","2020-01-17T14:53:00","FM-15","7",,,,,,,,,,,,,,,,,,,,,,,,,,,,,,,,,,,,,,"29.83","18","21","T",,"+0.04","8","88","29.83","BKN:07 43 OVC:08 55","29.80","10.00","20","000",,"0",,,,,,,,,,,,,,,,,,,,,,,,,,,,,,,,,,,,,"MET15201/17/20 14:53:02 METAR PASO 172353Z 00000KT 10SM BKN043 OVC055 M06/M08 A2983 RMK AO2 SNB04E29 SLP100 P0000 60000 I6000 T10611078 11061 21111 58012 TSNO","FM-15","7",,,,,,,,,,,,,,,,,,,,,,,,,,,,"2005-10-30"
"70362125516","2020-01-17T15:40:00","FM-16","7",,,,,,,,,,,,,,,,,,,,,,,,,,,,,,,,,,,,,,"29.81","19","21","T","-SN:03 BR:1 |SN |",,,"92",,"OVC:08 29","29.78","2.50V","20","000",,"0",,,,,,,,,,,,,,,,,,,,,,,,,,,,,,,,,,,,,"MET12701/17/20 15:40:01 SPECI PASO 180040Z 00000KT 2 1/2SM -SN BR OVC029 M06/M07 A2981 RMK AO2 VIS 1 1/2V5 SNB21 P0000 T10611072 TSNO","FM-16","7",,,,,,,,,,,,,,,,,,,,,,,,,,,,"2005-10-30"
"70362125516","2020-01-17T15:50:00","FM-16","7",,,,,,,,,,,,,,,,,,,,,,,,,,,,,,,,,,,,,,"29.81","19","21","T","-SN:03 BR:1 |SN |",,,"93",,"OVC:08 27","29.78","1.75","20","000",,"0",,,,,,,,,,,,,,,,,,,,,,,,,,,,,,,,,,,,,"MET10501/17/20 15:50:01 SPECI PASO 180050Z 00000KT 1 3/4SM -SN BR OVC027 M06/M07 A2981 RMK AO2 SNB21 P0000 TSNO","FM-16","7",,,,,,,,,,,,,,,,,,,,,,,,,,,,"2005-10-30"
"70362125516","2020-01-17T15:53:00","FM-15","7",,,,,,,,,,,,,,,,,,,,,,,,,,,,,,,,,,,,,,"29.81","19","21","T","-SN:03 BR:1 |SN |",,,"92","29.80","OVC:08 29","29.78","2.00","20","000",,"0",,,,,,,,,,,,,,,,,,,,,,,,,,,,,,,,,,,,,"MET11801/17/20 15:53:01 METAR PASO 180053Z 00000KT 2SM -SN BR OVC029 M06/M07 A2981 RMK AO2 SNB21 SLP093 P0000 T10611072 TSNO","FM-15","7",,,,,,,,,,,,,,,,,,,,,,,,,,,,"2005-10-30"
"70362125516","2020-01-17T15:57:00","FM-16","7",,,,,,,,,,,,,,,,,,,,,,,,,,,,,,,,,,,,,,"29.80","18","20","T","-SN:03 BR:1 |SN |",,,"92",,"BKN:07 36 OVC:08 70","29.77","3.00","19","000",,"0",,,,,,,,,,,,,,,,,,,,,,,,,,,,,,,,,,,,,"MET11201/17/20 15:57:01 SPECI PASO 180057Z 00000KT 3SM -SN BR BKN036 OVC070 M07/M08 A2980 RMK AO2 P0000 T10671078 TSNO","FM-16","7",,,,,,,,,,,,,,,,,,,,,,,,,,,,"2005-10-30"
"70362125516","2020-01-17T16:53:00","FM-15","7",,,,,,,,,,,,,,,,,,,,,,,,,,,,,,,,,,,,,,"29.80","20","25","T","-SN:03 |SN |",,,"81","29.80","OVC:08 38","29.77","5.00","23","040",,"6",,,,,,,,,,,,,,,,,,,,,,,,,,,,,,,,,,,,,"MET11801/17/20 16:53:01 METAR PASO 180153Z 04005KT 5SM -SN OVC038 M04/M07 A2980 RMK AO2 SNE02B48 SLP091 P0000 T10391067 TSNO","FM-15","7",,,,,,,,,,,,,,,,,,,,,,,,,,,,"2005-10-30"
"70362125516","2020-01-17T17:17:00","FM-16","7",,,,,,,,,,,,,,,,,,,,,,,,,,,,,,,,,,,,,,"29.80","22","26","T","-SN:03 BR:1 |SN |",,,"84",,"OVC:08 28","29.77","3.00","25","030",,"6",,,,,,,,,,,,,,,,,,,,,,,,,,,,,,,,,,,,,"MET10501/17/20 17:17:01 SPECI PASO 180217Z 03005KT 3SM -SN BR OVC028 M03/M06 A2980 RMK AO2 P0000 T10331056 TSNO","FM-16","7",,,,,,,,,,,,,,,,,,,,,,,,,,,,"2005-10-30"
"70362125516","2020-01-17T17:25:00","FM-16","7",,,,,,,,,,,,,,,,,,,,,,,,,,,,,,,,,,,,,,"29.80","21","27","T","-SN:03 |SN |",,,"78",,"OVC:08 30","29.77","6.00","25","040",,"7",,,,,,,,,,,,,,,,,,,,,,,,,,,,,,,,,,,,,"MET10201/17/20 17:25:01 SPECI PASO 180225Z 04006KT 6SM -SN OVC030 M03/M06 A2980 RMK AO2 P0000 T10281061 TSNO","FM-16","7",,,,,,,,,,,,,,,,,,,,,,,,,,,,"2005-10-30"
"70362125516","2020-01-17T17:53:00","FM-15","7",,,,,,,,,,,,,,,,,,,,,,,,,,,,,,,,,,,,,,"29.80","21","27","T",,"+0.01","7","78","29.80","OVC:08 39","29.77","10.00","25","040",,"7",,,,,,,,,,,,,,,,,,,,,,,,,,,,,,,,,,,,,"MET12401/17/20 17:53:01 METAR PASO 180253Z 04006KT 10SM OVC039 M03/M06 A2980 RMK AO2 SNE42 SLP090 P0000 60000 T10281061 57003 TSNO","FM-15","7",,,,,,,,,,,,,,,,,,,,,,,,,,,,"2005-10-30"
"70362125516","2020-01-17T18:26:00","FM-16","7",,,,,,,,,,,,,,,,,,,,,,,,,,,,,,,,,,,,,,"29.79","21","28","T","-SN:03 |SN |",,,"75",,"OVC:08 29","29.76","4.00","26","030",,"7",,,,,,,,,,,,,,,,,,,,,,,,,,,,,,,,,,,,,"MET11001/17/20 18:26:01 SPECI PASO 180326Z 03006KT 4SM -SN OVC029 M02/M06 A2979 RMK AO2 SNB0259 P0000 T10221061 TSNO","FM-16","7",,,,,,,,,,,,,,,,,,,,,,,,,,,,"2005-10-30"
"70362125516","2020-01-17T18:39:00","FM-16","7",,,,,,,,,,,,,,,,,,,,,,,,,,,,,,,,,,,,,,"29.79","21","28","T",,,,"75",,"OVC:08 35","29.76","8.00","26","030",,"6",,,,,,,,,,,,,,,,,,,,,,,,,,,,,,,,,,,,,"MET10901/17/20 18:39:01 SPECI PASO 180339Z 03005KT 8SM OVC035 M02/M06 A2979 RMK AO2 SNB0259E38 P0000 T10221061 TSNO","FM-16","7",,,,,,,,,,,,,,,,,,,,,,,,,,,,"2005-10-30"
"70362125516","2020-01-17T18:53:00","FM-15","7",,,,,,,,,,,,,,,,,,,,,,,,,,,,,,,,,,,,,,"29.78","21","26","T",,,,"81","29.78","OVC:08 37","29.75","10.00","24","020",,"6",,,,,,,,,,,,,,,,,,,,,,,,,,,,,,,,,,,,,"MET11701/17/20 18:53:01 METAR PASO 180353Z 02005KT 10SM OVC037 M03/M06 A2978 RMK AO2 SNB0259E38 SLP086 P0000 T10331061 TSNO","FM-15","7",,,,,,,,,,,,,,,,,,,,,,,,,,,,"2005-10-30"
"70362125516","2020-01-17T19:53:00","FM-15","7",,,,,,,,,,,,,,,,,,,,,,,,,,,,,,,,,,,,,,"29.78","20","27","T",,,,"75","29.78","OVC:08 45","29.75","9.00","25","050",,"3",,,,,,,,,,,,,,,,,,,,,,,,,,,,,,,,,,,,,"MET11401/17/20 19:53:02 METAR PASO 180453Z 05003KT 9SM OVC045 M03/M07 A2978 RMK AO2 SNB17E51 SLP084 P0000 T10281067 TSNO","FM-15","7",,,,,,,,,,,,,,,,,,,,,,,,,,,,"2005-10-30"
"70362125516","2020-01-17T20:53:00","FM-15","7",,,,,,,,,,,,,,,,,,,,,,,,,,,,,,,,,,,,,,"29.77","21","24","T",,"+0.03","6","88","29.77","OVC:08 41","29.74","10.00","23","020",,"6",,,,,,,,,,,,,,,,,,,,,,,,,,,,,,,,,,,,,"MET13901/17/20 20:53:02 METAR PASO 180553Z 02005KT 10SM OVC041 M04/M06 A2977 RMK AO2 SNB05E18 SLP081 P0000 60000 T10441061 11022 21067 56010 TSNO","FM-15","7",,,,,,,,,,,,,,,,,,,,,,,,,,,,"2005-10-30"
"70362125516","2020-01-17T21:53:00","FM-15","7",,,,,,,,,,,,,,,,,,,,,,,,,,,,,,,,,,,,,,"29.76","21","27","T","-SN:03 |SN |",,,"78","29.76","OVC:08 43","29.73","9.00","25","000",,"0",,,,,,,,,,,,,,,,,,,,,,,,,,,,,,,,,,,,,"MET11501/17/20 21:53:02 METAR PASO 180653Z 00000KT 9SM -SN OVC043 M03/M06 A2976 RMK AO2 SNB53 SLP078 P0000 T10281061 TSNO","FM-15","7",,,,,,,,,,,,,,,,,,,,,,,,,,,,"2005-10-30"
"70362125516","2020-01-17T22:53:00","FM-15","7",,,,,,,,,,,,,,,,,,,,,,,,,,,,,,,,,,,,,,"29.75","20","27","T",,,,"75","29.75","SCT:04 49 BKN:07 110","29.72","10.00","25","VRB",,"5",,,,,,,,,,,,,,,,,,,,,,,,,,,,,,,,,,,,,"MET11901/17/20 22:53:02 METAR PASO 180753Z VRB04KT 10SM SCT049 BKN110 M03/M07 A2975 RMK AO2 SNE06 SLP074 P0000 T10281067 TSNO","FM-15","7",,,,,,,,,,,,,,,,,,,,,,,,,,,,"2005-10-30"
"70362125516","2020-01-17T23:53:00","FM-15","7",,,,,,,,,,,,,,,,,,,,,,,,,,,,,,,,,,,,,,"29.73","21","26","0.00",,"+0.04","8","81","29.73","BKN:07 50 BKN:07 60 OVC:08 110","29.70","10.00","24","030",,"5",,,,,,,,,,,,,,,,,,,,,,,,,,,,,,,,,,,,,"MET13601/17/20 23:53:02 METAR PASO 180853Z 03004KT 10SM BKN050 BKN060 OVC110 M03/M06 A2973 RMK AO2 SLP069 60000 T10331061 410171167 58012 TSNO","FM-15","7",,,,,,,,,,,,,,,,,,,,,,,,,,,,"2005-10-30"
"70362125516","2020-01-17T23:59:00","SOD  ","6",,,,,,,,,,,,,,,,"16",,,"29.81",,"2.0","0","-9.7","49","29","2","020","17","T",,,"020","13","SN BR",,,,,,,,,,,,,,,,,,,,,,,,,,,,,,,,,,,,,,,,,,,,,,,,,,,,,,,,"SOD73024 HR PRECIPITATION (IN):T     24 HR MAX TEMP (F):29 24 HR MAX TEMP TIME (LST):2323 24 HR MIN TEMP (F):2  24 HR MIN TEMP TIME (LST):0115 AVERAGE STATION PRESSURE:29.810 MINIMUM SEA LEVEL PRESSURE:29.73 TIME OF OCCURRENCE:2359 PEAK WIND SPEED (MPH):17  PEAK WIND DIR (DEG):20  PEAK WIND TIME (LST):2134  FASTEST 2MIN SPEED (MPH):13 FASTEST 2MIN DIR (DEG):20  FASTEST 2MIN TIME (LST):2135 AVERAGE WIND SPEED (MPH):2.0  24 HR AVG TEMP (F):16 HEATING DEGREE DAYS:49  COOLING DEGREE DAYS:0   LATEST DAY MAX TEMP (0700-1900 LST):28  LATEST NIGHT MIN TEMP(1900-0800 LST):2  HOURLY INCREMENTAL PRECIPITATION VALUES (IN):.00 0.00 0.00 0.00 0.00 0.00 0.00 0.00 0.00 0.00 0.00 0.00 0.00 T    T    T    T    T    T    T    T    T    T    0.00","SOD  ","6",,,,,,,,,,,,,,,,,,,,,,,,,"0947","1648",,"2005-10-30"
"70362125516","2020-01-18T00:53:00","FM-15","7",,,,,,,,,,,,,,,,,,,,,,,,,,,,,,,,,,,,,,"29.71","19","27","0.00",,,,"72","29.71","FEW:02 47","29.68","10.00","24","020",,"6",,,,,,,,,,,,,,,,,,,,,,,,,,,,,,,,,,,,,"MET10001/18/20 00:53:02 METAR PASO 180953Z 02005KT 10SM FEW047 M03/M07 A2971 RMK AO2 SLP061 T10281072 TSNO","FM-15","7",,,,,,,,,,,,,,,,,,,,,,,,,,,,"2005-10-30"
"70362125516","2020-01-18T01:53:00","FM-15","7",,,,,,,,,,,,,,,,,,,,,,,,,,,,,,,,,,,,,,"29.69","19","26","0.00",,,,"75","29.69","OVC:08 43","29.66","10.00","24","VRB",,"3",,,,,,,,,,,,,,,,,,,,,,,,,,,,,,,,,,,,,"MET10001/18/20 01:53:02 METAR PASO 181053Z VRB03KT 10SM OVC043 M03/M07 A2969 RMK AO2 SLP054 T10331072 TSNO","FM-15","7",,,,,,,,,,,,,,,,,,,,,,,,,,,,"2005-10-30"
"70362125516","2020-01-18T02:53:00","FM-15","7",,,,,,,,,,,,,,,,,,,,,,,,,,,,,,,,,,,,,,"29.67","19","28","0.00",,"+0.06","6","69","29.67","BKN:07 100 OVC:08 120","29.64","10.00","25","050",,"9",,,,,,,,,,,,,,,,,,,,,,,,,,,,,,,,,,,,,"MET13101/18/20 02:53:02 METAR PASO 181153Z 05008KT 10SM BKN100 OVC120 M02/M07 A2967 RMK AO2 SLP047 60000 T10221072 11017 21044 56021 TSNO","FM-15","7",,,,,,,,,,,,,,,,,,,,,,,,,,,,"2005-10-30"
"70362125516","2020-01-18T03:53:00","FM-15","7",,,,,,,,,,,,,,,,,,,,,,,,,,,,,,,,,,,,,,"29.65","17","28","0.00",,,,"63","29.65","FEW:02 110","29.62","10.00","25","040",,"9",,,,,,,,,,,,,,,,,,,,,,,,,,,,,,,,,,,,,"MET10001/18/20 03:53:02 METAR PASO 181253Z 04008KT 10SM FEW110 M02/M08 A2965 RMK AO2 SLP041 T10221083 TSNO","FM-15","7",,,,,,,,,,,,,,,,,,,,,,,,,,,,"2005-10-30"
"70362125516","2020-01-18T04:53:00","FM-15","7",,,,,,,,,,,,,,,,,,,,,,,,,,,,,,,,,,,,,,"29.63","16","27","0.00",,,,"63","29.63","FEW:02 100 SCT:04 120","29.60","10.00","24","020","20","7",,,,,,,,,,,,,,,,,,,,,,,,,,,,,,,,,,,,,"MET11001/18/20 04:53:02 METAR PASO 181353Z 02006G17KT 10SM FEW100 SCT120 M03/M09 A2963 RMK AO2 SLP035 T10281089 TSNO","FM-15","7",,,,,,,,,,,,,,,,,,,,,,,,,,,,"2005-10-30"
"70362125516","2020-01-18T05:53:00","FM-15","7",,,,,,,,,,,,,,,,,,,,,,,,,,,,,,,,,,,,,,"29.63","16","26","0.00",,"+0.04","6","66","29.63","FEW:02 55 BKN:07 90","29.60","10.00","23","000",,"0",,,,,,,,,,,,,,,,,,,,,,,,,,,,,,,,,,,,,"MET11301/18/20 05:53:02 METAR PASO 181453Z 00000KT 10SM FEW055 BKN090 M03/M09 A2963 RMK AO2 SLP033 T10331089 56015 TSNO","FM-15","7",,,,,,,,,,,,,,,,,,,,,,,,,,,,"2005-10-30"
"70362125516","2020-01-18T06:53:00","FM-15","7",,,,,,,,,,,,,,,,,,,,,,,,,,,,,,,,,,,,,,"29.62","17","28","0.00",,,,"63","29.62","BKN:07 80 OVC:08 90","29.59","10.00","24","040",,"10",,,,,,,,,,,,,,,,,,,,,,,,,,,,,,,,,,,,,"MET10701/18/20 06:53:02 METAR PASO 181553Z 04009KT 10SM BKN080 OVC090 M02/M08 A2962 RMK AO2 SLP030 T10221083 TSNO","FM-15","7",,,,,,,,,,,,,,,,,,,,,,,,,,,,"2005-10-30"
"70362125516","2020-01-18T07:53:00","FM-15","7",,,,,,,,,,,,,,,,,,,,,,,,,,,,,,,,,,,,,,"29.61","17","27","0.00",,,,"66","29.61","OVC:08 110","29.58","10.00","24","030",,"13",,,,,,,,,,,,,,,,,,,,,,,,,,,,,,,,,,,,,"MET10001/18/20 07:53:02 METAR PASO 181653Z 03011KT 10SM OVC110 M03/M08 A2961 RMK AO2 SLP028 T10281083 TSNO","FM-15","7",,,,,,,,,,,,,,,,,,,,,,,,,,,,"2005-10-30"
"70362125516","2020-01-18T08:53:00","FM-15","7",,,,,,,,,,,,,,,,,,,,,,,,,,,,,,,,,,,,,,"29.61","16","27","0.00",,"+0.01","6","63","29.61","OVC:08 110","29.58","10.00","24","020",,"13",,,,,,,,,,,,,,,,,,,,,,,,,,,,,,,,,,,,,"MET11801/18/20 08:53:02 METAR PASO 181753Z 02011KT 10SM OVC110 M03/M09 A2961 RMK AO2 SLP028 T10281089 11022 21039 56005 TSNO","FM-15","7",,,,,,,,,,,,,,,,,,,,,,,,,,,,"2005-10-30"
"70362125516","2020-01-18T09:53:00","FM-15","7",,,,,,,,,,,,,,,,,,,,,,,,,,,,,,,,,,,,,,"29.61","16","25","0.00",,,,"69","29.61","CLR:00","29.58","10.00","22","010",,"13",,,,,,,,,,,,,,,,,,,,,,,,,,,,,,,,,,,,,"MET09701/18/20 09:53:02 METAR PASO 181853Z 01011KT 10SM CLR M04/M09 A2961 RMK AO2 SLP027 T10391089 TSNO","FM-15","7",,,,,,,,,,,,,,,,,,,,,,,,,,,,"2005-10-30"
"70362125516","2020-01-18T10:53:00","FM-15","7",,,,,,,,,,,,,,,,,,,,,,,,,,,,,,,,,,,,,,"29.61","14","24","0.00",,,,"65","29.61","CLR:00","29.58","10.00","21","000",,"0",,,,,,,,,,,,,,,,,,,,,,,,,,,,,,,,,,,,,"MET09701/18/20 10:53:02 METAR PASO 181953Z 00000KT 10SM CLR M04/M10 A2961 RMK AO2 SLP027 T10441100 TSNO","FM-15","7",,,,,,,,,,,,,,,,,,,,,,,,,,,,"2005-10-30"
"70362125516","2020-01-18T11:53:00","FM-15","7",,,,,,,,,,,,,,,,,,,,,,,,,,,,,,,,,,,,,,"29.60","16","22","0.00",,"+0.01","8","78","29.60","CLR:00","29.57","10.00","20","000",,"0",,,,,,,,,,,,,,,,,,,,,,,,,,,,,,,,,,,,,"MET10301/18/20 11:53:02 METAR PASO 182053Z 00000KT 10SM CLR M06/M09 A2960 RMK AO2 SLP025 T10561089 58003 TSNO","FM-15","7",,,,,,,,,,,,,,,,,,,,,,,,,,,,"2005-10-30"
"70362125516","2020-01-18T12:53:00","FM-15","7",,,,,,,,,,,,,,,,,,,,,,,,,,,,,,,,,,,,,,"29.59","15","20","0.00",,,,"81","29.59","CLR:00","29.56","10.00","19","000",,"0",,,,,,,,,,,,,,,,,,,,,,,,,,,,,,,,,,,,,"MET09701/18/20 12:53:02 METAR PASO 182153Z 00000KT 10SM CLR M07/M09 A2959 RMK AO2 SLP021 T10671094 TSNO","FM-15","7",,,,,,,,,,,,,,,,,,,,,,,,,,,,"2005-10-30"
"70362125516","2020-01-18T13:53:00","FM-15","7",,,,,,,,,,,,,,,,,,,,,,,,,,,,,,,,,,,,,,"29.58","16","24","0.00",,,,"71","29.58","CLR:00","29.55","10.00","22","VRB",,"5",,,,,,,,,,,,,,,,,,,,,,,,,,,,,,,,,,,,,"MET09701/18/20 13:53:02 METAR PASO 182253Z VRB04KT 10SM CLR M04/M09 A2958 RMK AO2 SLP017 T10441089 TSNO","FM-15","7",,,,,,,,,,,,,,,,,,,,,,,,,,,,"2005-10-30"
"70362125516","2020-01-18T14:53:00","FM-15","7",,,,,,,,,,,,,,,,,,,,,,,,,,,,,,,,,,,,,,"29.57","14","24","0.00",,"+0.03","6","65","29.57","CLR:00","29.54","10.00","21","350",,"5",,,,,,,,,,,,,,,,,,,,,,,,,,,,,,,,,,,,,"MET11501/18/20 14:53:02 METAR PASO 182353Z 35004KT 10SM CLR M04/M10 A2957 RMK AO2 SLP014 T10441100 11028 21072 56011 TSNO","FM-15","7",,,,,,,,,,,,,,,,,,,,,,,,,,,,"2005-10-30"
"70362125516","2020-01-18T15:53:00","FM-15","7",,,,,,,,,,,,,,,,,,,,,,,,,,,,,,,,,,,,,,"29.56","14","23","0.00",,,,"68","29.56","CLR:00","29.53","10.00","20","360",,"9",,,,,,,,,,,,,,,,,,,,,,,,,,,,,,,,,,,,,"MET09701/18/20 15:53:01 METAR PASO 190053Z 36008KT 10SM CLR M05/M10 A2956 RMK AO2 SLP011 T10501100 TSNO","FM-15","7",,,,,,,,,,,,,,,,,,,,,,,,,,,,"2005-10-30"
"70362125516","2020-01-18T16:53:00","FM-15","7",,,,,,,,,,,,,,,,,,,,,,,,,,,,,,,,,,,,,,"29.55","14","22","0.00",,,,"71","29.55","CLR:00","29.52","10.00","20","360",,"8",,,,,,,,,,,,,,,,,,,,,,,,,,,,,,,,,,,,,"MET09701/18/20 16:53:01 METAR PASO 190153Z 36007KT 10SM CLR M06/M10 A2955 RMK AO2 SLP007 T10561100 TSNO","FM-15","7",,,,,,,,,,,,,,,,,,,,,,,,,,,,"2005-10-30"
"70362125516","2020-01-18T17:53:00","FM-15","7",,,,,,,,,,,,,,,,,,,,,,,,,,,,,,,,,,,,,,"29.54","14","21","0.00",,"+0.03","6","74","29.54","CLR:00","29.51","10.00","19","350",,"8",,,,,,,,,,,,,,,,,,,,,,,,,,,,,,,,,,,,,"MET10301/18/20 17:53:01 METAR PASO 190253Z 35007KT 10SM CLR M06/M10 A2954 RMK AO2 SLP005 T10611100 56009 TSNO","FM-15","7",,,,,,,,,,,,,,,,,,,,,,,,,,,,"2005-10-30"
"70362125516","2020-01-18T18:53:00","FM-15","7",,,,,,,,,,,,,,,,,,,,,,,,,,,,,,,,,,,,,,"29.53","14","19","0.00",,,,"81","29.53","CLR:00","29.50","10.00","18","010",,"5",,,,,,,,,,,,,,,,,,,,,,,,,,,,,,,,,,,,,"MET09701/18/20 18:53:01 METAR PASO 190353Z 01004KT 10SM CLR M07/M10 A2953 RMK AO2 SLP999 T10721100 TSNO","FM-15","7",,,,,,,,,,,,,,,,,,,,,,,,,,,,"2005-10-30"
"70362125516","2020-01-18T19:53:00","FM-15","7",,,,,,,,,,,,,,,,,,,,,,,,,,,,,,,,,,,,,,"29.53","13","20","0.00",,,,"74","29.53","CLR:00","29.50","10.00","18","330",,"6",,,,,,,,,,,,,,,,,,,,,,,,,,,,,,,,,,,,,"MET09701/18/20 19:53:01 METAR PASO 190453Z 33005KT 10SM CLR M07/M11 A2953 RMK AO2 SLP999 T10671106 TSNO","FM-15","7",,,,,,,,,,,,,,,,,,,,,,,,,,,,"2005-10-30"
"70362125516","2020-01-18T20:53:00","FM-15","7",,,,,,,,,,,,,,,,,,,,,,,,,,,,,,,,,,,,,,"29.52","13","20","0.00",,"+0.03","6","74","29.52","CLR:00","29.49","10.00","18","340",,"8",,,,,,,,,,,,,,,,,,,,,,,,,,,,,,,,,,,,,"MET11501/18/20 20:53:01 METAR PASO 190553Z 34007KT 10SM CLR M07/M11 A2952 RMK AO2 SLP995 T10671106 11044 21083 56009 TSNO","FM-15","7",,,,,,,,,,,,,,,,,,,,,,,,,,,,"2005-10-30"
"70362125516","2020-01-18T21:53:00","FM-15","7",,,,,,,,,,,,,,,,,,,,,,,,,,,,,,,,,,,,,,"29.51","12","20","0.00",,,,"71","29.51","CLR:00","29.48","10.00","18","350",,"10",,,,,,,,,,,,,,,,,,,,,,,,,,,,,,,,,,,,,"MET09701/18/20 21:53:01 METAR PASO 190653Z 35009KT 10SM CLR M07/M11 A2951 RMK AO2 SLP993 T10671111 TSNO","FM-15","7",,,,,,,,,,,,,,,,,,,,,,,,,,,,"2005-10-30"
"70362125516","2020-01-18T22:53:00","FM-15","7",,,,,,,,,,,,,,,,,,,,,,,,,,,,,,,,,,,,,,"29.50","11","20","0.00",,,,"68","29.50","CLR:00","29.47","10.00","18","350",,"7",,,,,,,,,,,,,,,,,,,,,,,,,,,,,,,,,,,,,"MET09701/18/20 22:53:01 METAR PASO 190753Z 35006KT 10SM CLR M07/M12 A2950 RMK AO2 SLP989 T10671117 TSNO","FM-15","7",,,,,,,,,,,,,,,,,,,,,,,,,,,,"2005-10-30"
"70362125516","2020-01-18T23:53:00","FM-15","7",,,,,,,,,,,,,,,,,,,,,,,,,,,,,,,,,,,,,,"29.49","11","20","0.00",,"+0.03","8","68","29.49","CLR:00","29.46","10.00","18","VRB",,"9",,,,,,,,,,,,,,,,,,,,,,,,,,,,,,,,,,,,,"MET11301/18/20 23:53:01 METAR PASO 190853Z 35008KT 10SM CLR M07/M12 A2949 RMK AO2 SLP985 T10671117 410221100 58010 TSNO","FM-15","7",,,,,,,,,,,,,,,,,,,,,,,,,,,,"2005-10-30"
"70362125516","2020-01-18T23:59:00","SOD  ","6",,,,,,,,,,,,,,,,"21",,,"29.56",,"6.8","0","-4.7","44","28","14","040","21","0.00",,,"020","16",,,,,,,,,,,,,,,,,,,,,,,,,,,,,,,,,,,,,,,,,,,,,,,,,,,,,,,,,"SOD73424 HR PRECIPITATION (IN): 0.00 24 HR MAX TEMP (F):28 24 HR MAX TEMP TIME (LST):0827 24 HR MIN TEMP (F):14 24 HR MIN TEMP TIME (LST):2126 AVERAGE STATION PRESSURE(D):29.557 MINIMUM SEA LEVEL PRESSURE:29.48 TIME OF OCCURRENCE:2359 PEAK WIND SPEED (MPH):21  PEAK WIND DIR (DEG): 40 PEAK WIND TIME (LST):0642  FASTEST 2MIN SPEED (MPH):16 FASTEST 2MIN DIR (DEG): 20 FASTEST 2MIN TIME (LST):0913 AVERAGE WIND SPEED (MPH): 6.8 24 HR AVG TEMP (F):21 HEATING DEGREE DAYS: 44 COOLING DEGREE DAYS:  0 LATEST DAY MAX TEMP (0700-1900 LST): 28 LATEST NIGHT MIN TEMP(1900-0800 LST):24 HOURLY INCREMENTAL PRECIPITATION VALUES (IN):0.00 0.00 0.00 0.00 0.00 0.00 0.00 0.00 0.00 0.00 0.00 0.00 0.00 0.00 0.00 0.00 0.00 0.00 0.00 0.00 0.00 0.00 0.00 0.00","SOD  ","6",,,,,,,,,,,,,,,,,,,,,,,,,"0946","1650",,"2005-10-30"
"70362125516","2020-01-19T00:53:00","FM-15","7",,,,,,,,,,,,,,,,,,,,,,,,,,,,,,,,,,,,,,"29.47","9","19","0.00",,,,"65","29.47","CLR:00","29.44","10.00","16","340",,"8",,,,,,,,,,,,,,,,,,,,,,,,,,,,,,,,,,,,,"MET09701/19/20 00:53:02 METAR PASO 190953Z 34007KT 10SM CLR M07/M13 A2947 RMK AO2 SLP980 T10721128 TSNO","FM-15","7",,,,,,,,,,,,,,,,,,,,,,,,,,,,"2005-10-30"
"70362125516","2020-01-19T01:53:00","FM-15","7",,,,,,,,,,,,,,,,,,,,,,,,,,,,,,,,,,,,,,"29.47","9","14","0.00",,,,"80","29.47","CLR:00","29.44","10.00","13","000",,"0",,,,,,,,,,,,,,,,,,,,,,,,,,,,,,,,,,,,,"MET09701/19/20 01:53:02 METAR PASO 191053Z 00000KT 10SM CLR M10/M13 A2947 RMK AO2 SLP979 T11001128 TSNO","FM-15","7",,,,,,,,,,,,,,,,,,,,,,,,,,,,"2005-10-30"
"70362125516","2020-01-19T02:53:00","FM-15","7",,,,,,,,,,,,,,,,,,,,,,,,,,,,,,,,,,,,,,"29.46","10","19","0.00",,"+0.03","6","68","29.46","CLR:00","29.43","10.00","17","350",,"9",,,,,,,,,,,,,,,,,,,,,,,,,,,,,,,,,,,,,"MET11501/19/20 02:53:02 METAR PASO 191153Z 35008KT 10SM CLR M07/M12 A2946 RMK AO2 SLP976 T10721122 11067 21106 56009 TSNO","FM-15","7",,,,,,,,,,,,,,,,,,,,,,,,,,,,"2005-10-30"
"70362125516","2020-01-19T03:53:00","FM-15","7",,,,,,,,,,,,,,,,,,,,,,,,,,,,,,,,,,,,,,"29.45","8","12","0.00",,,,"84","29.45","CLR:00","29.42","10.00","11","000",,"0",,,,,,,,,,,,,,,,,,,,,,,,,,,,,,,,,,,,,"MET09701/19/20 03:53:02 METAR PASO 191253Z 00000KT 10SM CLR M11/M13 A2945 RMK AO2 SLP974 T11111133 TSNO","FM-15","7",,,,,,,,,,,,,,,,,,,,,,,,,,,,"2005-10-30"
"70362125516","2020-01-19T04:53:00","FM-15","7",,,,,,,,,,,,,,,,,,,,,,,,,,,,,,,,,,,,,,"29.44","9","13","0.00",,,,"84","29.44","CLR:00","29.41","10.00","12","000",,"0",,,,,,,,,,,,,,,,,,,,,,,,,,,,,,,,,,,,,"MET09701/19/20 04:53:02 METAR PASO 191353Z 00000KT 10SM CLR M11/M13 A2944 RMK AO2 SLP970 T11061128 TSNO","FM-15","7",,,,,,,,,,,,,,,,,,,,,,,,,,,,"2005-10-30"
"70362125516","2020-01-19T05:53:00","FM-15","7",,,,,,,,,,,,,,,,,,,,,,,,,,,,,,,,,,,,,,"29.44","8","12","0.00",,"+0.02","6","84","29.44","CLR:00","29.41","10.00","11","000",,"0",,,,,,,,,,,,,,,,,,,,,,,,,,,,,,,,,,,,,"MET10301/19/20 05:53:02 METAR PASO 191453Z 00000KT 10SM CLR M11/M13 A2944 RMK AO2 SLP969 T11111133 56007 TSNO","FM-15","7",,,,,,,,,,,,,,,,,,,,,,,,,,,,"2005-10-30"
"70362125516","2020-01-19T06:53:00","FM-15","7",,,,,,,,,,,,,,,,,,,,,,,,,,,,,,,,,,,,,,"29.44","7","11","0.00",,,,"84","29.44","CLR:00","29.41","10.00","10","000",,"0",,,,,,,,,,,,,,,,,,,,,,,,,,,,,,,,,,,,,"MET09701/19/20 06:53:02 METAR PASO 191553Z 00000KT 10SM CLR M12/M14 A2944 RMK AO2 SLP970 T11171139 TSNO","FM-15","7",,,,,,,,,,,,,,,,,,,,,,,,,,,,"2005-10-30"
"70362125516","2020-01-19T07:53:00","FM-15","7",,,,,,,,,,,,,,,,,,,,,,,,,,,,,,,,,,,,,,"29.45","6","10","0.00",,,,"84","29.45","CLR:00","29.42","10.00","9","000",,"0",,,,,,,,,,,,,,,,,,,,,,,,,,,,,,,,,,,,,"MET10301/19/20 07:53:02 METAR PASO 191653Z 00000KT 10SM CLR M12/M14 A2945 RMK AO2 SLP972 I1000 T11221144 TSNO","FM-15","7",,,,,,,,,,,,,,,,,,,,,,,,,,,,"2005-10-30"
"70362125516","2020-01-19T08:53:00","FM-15","7",,,,,,,,,,,,,,,,,,,,,,,,,,,,,,,,,,,,,,"29.45","6","10","0.00",,"-0.01","1","84","29.45","CLR:00","29.42","10.00","9","000",,"0",,,,,,,,,,,,,,,,,,,,,,,,,,,,,,,,,,,,,"MET12701/19/20 08:53:02 METAR PASO 191753Z 00000KT 10SM CLR M12/M14 A2945 RMK AO2 SLP972 I1000 I6000 T11221144 11072 21128 51003 TSNO","FM-15","7",,,,,,,,,,,,,,,,,,,,,,,,,,,,"2005-10-30"
"70362125516","2020-01-19T09:53:00","FM-15","7",,,,,,,,,,,,,,,,,,,,,,,,,,,,,,,,,,,,,,"29.45","7","11","0.00",,,,"84","29.45","CLR:00","29.42","10.00","10","000",,"0",,,,,,,,,,,,,,,,,,,,,,,,,,,,,,,,,,,,,"MET10301/19/20 09:53:02 METAR PASO 191853Z 00000KT 10SM CLR M12/M14 A2945 RMK AO2 SLP974 I1000 T11171139 TSNO","FM-15","7",,,,,,,,,,,,,,,,,,,,,,,,,,,,"2005-10-30"
"70362125516","2020-01-19T10:53:00","FM-15","7",,,,,,,,,,,,,,,,,,,,,,,,,,,,,,,,,,,,,,"29.46","7","12","0.00",,,,"80","29.46","CLR:00","29.43","10.00","11","000",,"0",,,,,,,,,,,,,,,,,,,,,,,,,,,,,,,,,,,,,"MET09701/19/20 10:53:02 METAR PASO 191953Z 00000KT 10SM CLR M11/M14 A2946 RMK AO2 SLP975 T11111139 TSNO","FM-15","7",,,,,,,,,,,,,,,,,,,,,,,,,,,,"2005-10-30"
"70362125516","2020-01-19T11:53:00","FM-15","7",,,,,,,,,,,,,,,,,,,,,,,,,,,,,,,,,,,,,,"29.46","9","14","0.00",,"-0.01","1","80","29.46","CLR:00","29.43","10.00","13","000",,"0",,,,,,,,,,,,,,,,,,,,,,,,,,,,,,,,,,,,,"MET10901/19/20 11:53:02 METAR PASO 192053Z 00000KT 10SM CLR M10/M13 A2946 RMK AO2 SLP975 I3000 T11001128 51003 TSNO","FM-15","7",,,,,,,,,,,,,,,,,,,,,,,,,,,,"2005-10-30"
"70362125516","2020-01-19T12:53:00","FM-15","7",,,,,,,,,,,,,,,,,,,,,,,,,,,,,,,,,,,,,,"29.45","10","15","0.00",,,,"80","29.45","FEW:02 120","29.42","10.00","14","000",,"0",,,,,,,,,,,,,,,,,,,,,,,,,,,,,,,,,,,,,"MET10001/19/20 12:53:02 METAR PASO 192153Z 00000KT 10SM FEW120 M09/M12 A2945 RMK AO2 SLP972 T10941122 TSNO","FM-15","7",,,,,,,,,,,,,,,,,,,,,,,,,,,,"2005-10-30"
"70362125516","2020-01-19T13:53:00","FM-15","7",,,,,,,,,,,,,,,,,,,,,,,,,,,,,,,,,,,,,,"29.44","11","17","0.00",,,,"77","29.44","CLR:00","29.41","10.00","15","000",,"0",,,,,,,,,,,,,,,,,,,,,,,,,,,,,,,,,,,,,"MET09701/19/20 13:53:02 METAR PASO 192253Z 00000KT 10SM CLR M08/M12 A2944 RMK AO2 SLP970 T10831117 TSNO","FM-15","7",,,,,,,,,,,,,,,,,,,,,,,,,,,,"2005-10-30"
"70362125516","2020-01-19T14:53:00","FM-15","7",,,,,,,,,,,,,,,,,,,,,,,,,,,,,,,,,,,,,,"29.43","12","17","0.00",,"+0.03","6","80","29.43","CLR:00","29.40","10.00","16","000",,"0",,,,,,,,,,,,,,,,,,,,,,,,,,,,,,,,,,,,,"MET12101/19/20 14:53:02 METAR PASO 192353Z 00000KT 10SM CLR M08/M11 A2943 RMK AO2 SLP967 I6000 T10831111 11078 21128 56009 TSNO","FM-15","7",,,,,,,,,,,,,,,,,,,,,,,,,,,,"2005-10-30"
"70362125516","2020-01-19T15:53:00","FM-15","7",,,,,,,,,,,,,,,,,,,,,,,,,,,,,,,,,,,,,,"29.42","11","17","0.00",,,,"77","29.42","CLR:00","29.39","10.00","15","000",,"0",,,,,,,,,,,,,,,,,,,,,,,,,,,,,,,,,,,,,"MET09701/19/20 15:53:01 METAR PASO 200053Z 00000KT 10SM CLR M08/M12 A2942 RMK AO2 SLP964 T10831117 TSNO","FM-15","7",,,,,,,,,,,,,,,,,,,,,,,,,,,,"2005-10-30"
"70362125516","2020-01-19T16:53:00","FM-15","7",,,,,,,,,,,,,,,,,,,,,,,,,,,,,,,,,,,,,,"29.41","10","15","0.00",,,,"80","29.41","CLR:00","29.38","10.00","14","000",,"0",,,,,,,,,,,,,,,,,,,,,,,,,,,,,,,,,,,,,"MET09701/19/20 16:53:01 METAR PASO 200153Z 00000KT 10SM CLR M09/M12 A2941 RMK AO2 SLP960 T10941122 TSNO","FM-15","7",,,,,,,,,,,,,,,,,,,,,,,,,,,,"2005-10-30"
"70362125516","2020-01-19T17:53:00","FM-15","7",,,,,,,,,,,,,,,,,,,,,,,,,,,,,,,,,,,,,,"29.41","9","13","0.00",,"+0.02","6","84","29.41","CLR:00","29.38","10.00","12","000",,"0",,,,,,,,,,,,,,,,,,,,,,,,,,,,,,,,,,,,,"MET10301/19/20 17:53:01 METAR PASO 200253Z 00000KT 10SM CLR M11/M13 A2941 RMK AO2 SLP960 T11061128 56007 TSNO","FM-15","7",,,,,,,,,,,,,,,,,,,,,,,,,,,,"2005-10-30"
"70362125516","2020-01-19T18:53:00","FM-15","7",,,,,,,,,,,,,,,,,,,,,,,,,,,,,,,,,,,,,,"29.41","9","13","0.00",,,,"84","29.41","CLR:00","29.38","10.00","12","000",,"0",,,,,,,,,,,,,,,,,,,,,,,,,,,,,,,,,,,,,"MET09701/19/20 18:53:01 METAR PASO 200353Z 00000KT 10SM CLR M11/M13 A2941 RMK AO2 SLP959 T11061128 TSNO","FM-15","7",,,,,,,,,,,,,,,,,,,,,,,,,,,,"2005-10-30"
"70362125516","2020-01-19T19:53:00","FM-15","7",,,,,,,,,,,,,,,,,,,,,,,,,,,,,,,,,,,,,,"29.41","8","12","0.00",,,,"84","29.41","CLR:00","29.38","10.00","11","000",,"0",,,,,,,,,,,,,,,,,,,,,,,,,,,,,,,,,,,,,"MET10301/19/20 19:53:01 METAR PASO 200453Z 00000KT 10SM CLR M11/M13 A2941 RMK AO2 SLP958 I1000 T11111133 TSNO","FM-15","7",,,,,,,,,,,,,,,,,,,,,,,,,,,,"2005-10-30"
"70362125516","2020-01-19T20:53:00","FM-15","7",,,,,,,,,,,,,,,,,,,,,,,,,,,,,,,,,,,,,,"29.40","8","12","0.00",,"+0.01","8","84","29.40","CLR:00","29.37","10.00","11","000",,"0",,,,,,,,,,,,,,,,,,,,,,,,,,,,,,,,,,,,,"MET12701/19/20 20:53:01 METAR PASO 200553Z 00000KT 10SM CLR M11/M13 A2940 RMK AO2 SLP955 I1000 I6000 T11111133 11078 21117 58005 TSNO","FM-15","7",,,,,,,,,,,,,,,,,,,,,,,,,,,,"2005-10-30"
"70362125516","2020-01-19T21:53:00","FM-15","7",,,,,,,,,,,,,,,,,,,,,,,,,,,,,,,,,,,,,,"29.38","9","13","0.00",,,,"84","29.39","FEW:02 70 BKN:07 95","29.35","10.00","12","000",,"0",,,,,,,,,,,,,,,,,,,,,,,,,,,,,,,,,,,,,"MET11301/19/20 21:53:01 METAR PASO 200653Z 00000KT 10SM FEW070 BKN095 M11/M13 A2938 RMK AO2 SLP951 I1000 T11061128 TSNO","FM-15","7",,,,,,,,,,,,,,,,,,,,,,,,,,,,"2005-10-30"
"70362125516","2020-01-19T22:53:00","FM-15","7",,,,,,,,,,,,,,,,,,,,,,,,,,,,,,,,,,,,,,"29.37","9","13","0.00",,,,"84","29.37","OVC:08 75","29.34","10.00","12","000",,"0",,,,,,,,,,,,,,,,,,,,,,,,,,,,,,,,,,,,,"MET10601/19/20 22:53:01 METAR PASO 200753Z 00000KT 10SM OVC075 M11/M13 A2937 RMK AO2 SLP947 I1000 T11061128 TSNO","FM-15","7",,,,,,,,,,,,,,,,,,,,,,,,,,,,"2005-10-30"
"70362125516","2020-01-19T23:53:00","FM-15","7",,,,,,,,,,,,,,,,,,,,,,,,,,,,,,,,,,,,,,"29.36","13","18","0.00",,"+0.04","8","81","29.36","FEW:02 80 BKN:07 90 OVC:08 120","29.33","10.00","17","VRB",,"5",,,,,,,,,,,,,,,,,,,,,,,,,,,,,,,,,,,,,"MET13601/19/20 23:53:01 METAR PASO 200853Z VRB04KT 10SM FEW080 BKN090 OVC120 M08/M11 A2936 RMK AO2 SLP941 I3000 T10781106 410671128 58014 TSNO","FM-15","7",,,,,,,,,,,,,,,,,,,,,,,,,,,,"2005-10-30"
"70362125516","2020-01-19T23:59:00","SOD  ","6",,,,,,,,,,,,,,,,"15",,,"29.40",,"0.9","0","-10.7","50","20","9","010","20","0.00",,,"010","15",,,,,,,,,,,,,,,,,,,,,,,,,,,,,,,,,,,,,,,,,,,,,,,,,,,,,,,,,"SOD73024 HR PRECIPITATION (IN):0.00  24 HR MAX TEMP (F):20 24 HR MAX TEMP TIME (LST):0244 24 HR MIN TEMP (F):9  24 HR MIN TEMP TIME (LST):0942 AVERAGE STATION PRESSURE:29.400 MINIMUM SEA LEVEL PRESSURE:29.36 TIME OF OCCURRENCE:2359 PEAK WIND SPEED (MPH):20  PEAK WIND DIR (DEG):10  PEAK WIND TIME (LST):0210  FASTEST 2MIN SPEED (MPH):15 FASTEST 2MIN DIR (DEG):10  FASTEST 2MIN TIME (LST):0210 AVERAGE WIND SPEED (MPH):0.9  24 HR AVG TEMP (F):15 HEATING DEGREE DAYS:50  COOLING DEGREE DAYS:0   LATEST DAY MAX TEMP (0700-1900 LST):18  LATEST NIGHT MIN TEMP(1900-0800 LST):9  HOURLY INCREMENTAL PRECIPITATION VALUES (IN):.00 0.00 0.00 0.00 0.00 0.00 0.00 0.00 0.00 0.00 0.00 0.00 0.00 0.00 0.00 0.00 0.00 0.00 0.00 0.00 0.00 0.00 0.00 0.00","SOD  ","6",,,,,,,,,,,,,,,,,,,,,,,,,"0944","1652",,"2005-10-30"
"70362125516","2020-01-20T00:31:00","FM-16","7",,,,,,,,,,,,,,,,,,,,,,,,,,,,,,,,,,,,,,"29.36","14","20","T","-SN:03 |SN |",,,"78",,"OVC:08 25","29.33","1.75","18","350",,"6",,,,,,,,,,,,,,,,,,,,,,,,,,,,,,,,,,,,,"MET11201/20/20 00:31:02 SPECI PASO 200931Z 35005KT 1 3/4SM -SN OVC025 M07/M10 A2936 RMK AO2 SNB10 P0000 T10671100 TSNO","FM-16","7",,,,,,,,,,,,,,,,,,,,,,,,,,,,"2005-10-30"
"70362125516","2020-01-20T00:51:00","FM-16","6",,,,,,,,,,,,,,,,,,,,,,,,,,,,,,,,,,,,,,"29.36","16","19",,"-SN:03 |SN |",,,"86",,"OVC:08 21","29.33","2.00","18","340",,"6",,,,,,,,,,,,,,,,,,,,,,,,,,,,,,,,,,,,,"MET10301/20/20 00:51:02 SPECI PASO 200951Z 34005KT 2SM -SN OVC021 M07/M09 A2936 RMK AO2 SNB10 P0000 TSNO FIBI","FM-16","6",,,,,,,,,,,,,,,,,,,,,,,,,,,,"2005-10-30"
"70362125516","2020-01-20T00:53:00","FM-15","7",,,,,,,,,,,,,,,,,,,,,,,,,,,,,,,,,,,,,,"29.36","15","20","T","-SN:03 |SN |",,,"81","29.36","OVC:08 21","29.33","2.00","19","350",,"6",,,,,,,,,,,,,,,,,,,,,,,,,,,,,,,,,,,,,"MET11501/20/20 00:53:02 METAR PASO 200953Z 35005KT 2SM -SN OVC021 M07/M09 A2936 RMK AO2 SNB10 SLP942 P0000 T10671094 TSNO","FM-15","7",,,,,,,,,,,,,,,,,,,,,,,,,,,,"2005-10-30"
"70362125516","2020-01-20T01:11:00","FM-16","7",,,,,,,,,,,,,,,,,,,,,,,,,,,,,,,,,,,,,,"29.36","16","20","T","-SN:03 BR:1 |SN |",,,"85",,"OVC:08 22","29.33","1.75","19","350",,"5",,,,,,,,,,,,,,,,,,,,,,,,,,,,,,,,,,,,,"MET10901/20/20 01:11:02 SPECI PASO 201011Z 35004KT 1 3/4SM -SN BR OVC022 M07/M09 A2936 RMK AO2 P0000 T10671089 TSNO","FM-16","7",,,,,,,,,,,,,,,,,,,,,,,,,,,,"2005-10-30"
"70362125516","2020-01-20T01:53:00","FM-15","7",,,,,,,,,,,,,,,,,,,,,,,,,,,,,,,,,,,,,,"29.35","17","20","T","-SN:03 BR:1 |SN |",,,"89","29.35","OVC:08 20","29.32","1.50","19","000",,"0",,,,,,,,,,,,,,,,,,,,,,,,,,,,,,,,,,,,,"MET11601/20/20 01:53:02 METAR PASO 201053Z 00000KT 1 1/2SM -SN BR OVC020 M07/M08 A2935 RMK AO2 SLP940 P0000 T10671083 TSNO","FM-15","7",,,,,,,,,,,,,,,,,,,,,,,,,,,,"2005-10-30"
"70362125516","2020-01-20T02:43:00","FM-16","7",,,,,,,,,,,,,,,,,,,,,,,,,,,,,,,,,,,,,,"29.36","17","20","T","-SN:03 BR:1 |SN |",,,"89",,"FEW:02 14 OVC:08 26","29.33","2.00","19","000",,"0",,,,,,,,,,,,,,,,,,,,,,,,,,,,,,,,,,,,,"MET11201/20/20 02:43:02 SPECI PASO 201143Z 00000KT 2SM -SN BR FEW014 OVC026 M07/M08 A2936 RMK AO2 P0000 T10671083 TSNO","FM-16","7",,,,,,,,,,,,,,,,,,,,,,,,,,,,"2005-10-30"
"70362125516","2020-01-20T02:51:00","FM-16","6",,,,,,,,,,,,,,,,,,,,,,,,,,,,,,,,,,,,,,"29.36","18","19",,"-SN:03 BR:1 |SN |",,,"93",,"BKN:07 14 OVC:08 26","29.33","2.50","19","000",,"0",,,,,,,,,,,,,,,,,,,,,,,,,,,,,,,,,,,,,"MET11101/20/20 02:51:02 SPECI PASO 201151Z 00000KT 2 1/2SM -SN BR BKN014 OVC026 M07/M08 A2936 RMK AO2 P0000 TSNO FIBI","FM-16","6",,,,,,,,,,,,,,,,,,,,,,,,,,,,"2005-10-30"
"70362125516","2020-01-20T02:53:00","FM-15","7",,,,,,,,,,,,,,,,,,,,,,,,,,,,,,,,,,,,,,"29.36","17","20","T","-SN:03 BR:1 |SN |","+0.00","8","89","29.36","BKN:07 14 OVC:08 26","29.33","2.50","19","000",,"0",,,,,,,,,,,,,,,,,,,,,,,,,,,,,,,,,,,,,"MET15301/20/20 02:53:02 METAR PASO 201153Z 00000KT 2 1/2SM -SN BR BKN014 OVC026 M07/M08 A2936 RMK AO2 SLP941 P0000 60000 I6000 T10671083 11067 21117 58000 TSNO","FM-15","7",,,,,,,,,,,,,,,,,,,,,,,,,,,,"2005-10-30"
"70362125516","2020-01-20T03:05:00","FM-16","7",,,,,,,,,,,,,,,,,,,,,,,,,,,,,,,,,,,,,,"29.35","17","20","T","-SN:03 BR:1 |SN |",,,"89",,"SCT:04 14 OVC:08 34","29.32","3.00","19","000",,"0",,,,,,,,,,,,,,,,,,,,,,,,,,,,,,,,,,,,,"MET11201/20/20 03:05:02 SPECI PASO 201205Z 00000KT 3SM -SN BR SCT014 OVC034 M07/M08 A2935 RMK AO2 P0000 T10671083 TSNO","FM-16","7",,,,,,,,,,,,,,,,,,,,,,,,,,,,"2005-10-30"
"70362125516","2020-01-20T03:18:00","FM-16","6",,,,,,,,,,,,,,,,,,,,,,,,,,,,,,,,,,,,,,"29.36","18","20",,"-SN:03 BR:1 |SN |",,,"92",,"SCT:04 14 OVC:08 30","29.33","2.00","19","000",,"0",,,,,,,,,,,,,,,,,,,,,,,,,,,,,,,,,,,,,"MET11201/20/20 03:18:02 SPECI PASO 201218Z 00000KT 2SM -SN BR SCT014 OVC030 M07/M08 A2936 RMK AO2 P0000 T10671078 TSNO","FM-16","6",,,,,,,,,,,,,,,,,,,,,,,,,,,,"2005-10-30"
"70362125516","2020-01-20T03:23:00","FM-16","7",,,,,,,,,,,,,,,,,,,,,,,,,,,,,,,,,,,,,,"29.35","18","20","T","-SN:03 BR:1 |SN |",,,"92",,"BKN:07 12 OVC:08 30","29.32","1.50","19","VRB",,"3",,,,,,,,,,,,,,,,,,,,,,,,,,,,,,,,,,,,,"MET11601/20/20 03:23:02 SPECI PASO 201223Z VRB03KT 1 1/2SM -SN BR BKN012 OVC030 M07/M08 A2935 RMK AO2 P0000 T10671078 TSNO","FM-16","7",,,,,,,,,,,,,,,,,,,,,,,,,,,,"2005-10-30"
"70362125516","2020-01-20T03:31:00","FM-16","7",,,,,,,,,,,,,,,,,,,,,,,,,,,,,,,,,,,,,,"29.35","17","21","T","-SN:03 BR:1 |SN |",,,"85",,"SCT:04 12 OVC:08 26","29.32","1.25","20","350",,"3",,,,,,,,,,,,,,,,,,,,,,,,,,,,,,,,,,,,,"MET11601/20/20 03:31:02 SPECI PASO 201231Z 35003KT 1 1/4SM -SN BR SCT012 OVC026 M06/M08 A2935 RMK AO2 P0000 T10611083 TSNO","FM-16","7",,,,,,,,,,,,,,,,,,,,,,,,,,,,"2005-10-30"
"70362125516","2020-01-20T03:51:00","FM-16","6",,,,,,,,,,,,,,,,,,,,,,,,,,,,,,,,,,,,,,"29.35","18","21",,"-SN:03 BR:1 |SN |",,,"86",,"FEW:02 12 OVC:08 26","29.32","2.00","20","360",,"7",,,,,,,,,,,,,,,,,,,,,,,,,,,,,,,,,,,,,"MET10701/20/20 03:51:02 SPECI PASO 201251Z 36006KT 2SM -SN BR FEW012 OVC026 M06/M08 A2935 RMK AO2 P0000 TSNO FIBI","FM-16","6",,,,,,,,,,,,,,,,,,,,,,,,,,,,"2005-10-30"
"70362125516","2020-01-20T03:53:00","FM-15","7",,,,,,,,,,,,,,,,,,,,,,,,,,,,,,,,,,,,,,"29.35","17","21","T","-SN:03 BR:1 |SN |",,,"85","29.35","FEW:02 12 OVC:08 28","29.32","2.00","20","350",,"6",,,,,,,,,,,,,,,,,,,,,,,,,,,,,,,,,,,,,"MET11901/20/20 03:53:02 METAR PASO 201253Z 35005KT 2SM -SN BR FEW012 OVC028 M06/M08 A2935 RMK AO2 SLP939 P0000 T10611083 TSNO","FM-15","7",,,,,,,,,,,,,,,,,,,,,,,,,,,,"2005-10-30"
"70362125516","2020-01-20T04:04:00","FM-16","7",,,,,,,,,,,,,,,,,,,,,,,,,,,,,,,,,,,,,,"29.35","17","21","T","-SN:03 BR:1 |SN |",,,"85",,"FEW:02 12 OVC:08 32","29.32","2.50","20","360",,"7",,,,,,,,,,,,,,,,,,,,,,,,,,,,,,,,,,,,,"MET11601/20/20 04:04:02 SPECI PASO 201304Z 36006KT 2 1/2SM -SN BR FEW012 OVC032 M06/M08 A2935 RMK AO2 P0000 T10611083 TSNO","FM-16","7",,,,,,,,,,,,,,,,,,,,,,,,,,,,"2005-10-30"
"70362125516","2020-01-20T04:15:00","FM-16","7",,,,,,,,,,,,,,,,,,,,,,,,,,,,,,,,,,,,,,"29.35","17","21","T","-SN:03 BR:1 |SN |",,,"85",,"FEW:02 12 OVC:08 36","29.32","3.00","20","340",,"5",,,,,,,,,,,,,,,,,,,,,,,,,,,,,,,,,,,,,"MET11201/20/20 04:15:02 SPECI PASO 201315Z 34004KT 3SM -SN BR FEW012 OVC036 M06/M08 A2935 RMK AO2 P0000 T10611083 TSNO","FM-16","7",,,,,,,,,,,,,,,,,,,,,,,,,,,,"2005-10-30"
"70362125516","2020-01-20T04:24:00","FM-16","7",,,,,,,,,,,,,,,,,,,,,,,,,,,,,,,,,,,,,,"29.35","17","21","T","-SN:03 BR:1 |SN |",,,"85",,"OVC:08 32","29.32","2.50","20","350",,"6",,,,,,,,,,,,,,,,,,,,,,,,,,,,,,,,,,,,,"MET10901/20/20 04:24:02 SPECI PASO 201324Z 35005KT 2 1/2SM -SN BR OVC032 M06/M08 A2935 RMK AO2 P0000 T10611083 TSNO","FM-16","7",,,,,,,,,,,,,,,,,,,,,,,,,,,,"2005-10-30"
"70362125516","2020-01-20T04:39:00","FM-16","7",,,,,,,,,,,,,,,,,,,,,,,,,,,,,,,,,,,,,,"29.34","17","21","T","-SN:03 BR:1 |SN |",,,"85",,"OVC:08 28","29.31","2.00","20","VRB",,"6",,,,,,,,,,,,,,,,,,,,,,,,,,,,,,,,,,,,,"MET10501/20/20 04:39:02 SPECI PASO 201339Z VRB05KT 2SM -SN BR OVC028 M06/M08 A2934 RMK AO2 P0000 T10611083 TSNO","FM-16","7",,,,,,,,,,,,,,,,,,,,,,,,,,,,"2005-10-30"
"70362125516","2020-01-20T04:53:00","FM-15","7",,,,,,,,,,,,,,,,,,,,,,,,,,,,,,,,,,,,,,"29.34","17","21","T","-SN:03 BR:1 |SN |",,,"85","29.34","OVC:08 24","29.31","2.00","20","350",,"7",,,,,,,,,,,,,,,,,,,,,,,,,,,,,,,,,,,,,"MET11201/20/20 04:53:02 METAR PASO 201353Z 35006KT 2SM -SN BR OVC024 M06/M08 A2934 RMK AO2 SLP937 P0000 T10611083 TSNO","FM-15","7",,,,,,,,,,,,,,,,,,,,,,,,,,,,"2005-10-30"
"70362125516","2020-01-20T05:12:00","FM-16","7",,,,,,,,,,,,,,,,,,,,,,,,,,,,,,,,,,,,,,"29.34","18","22","T","-SN:03 BR:1 |SN |",,,"85",,"OVC:08 20","29.31","1.75","21","350",,"6",,,,,,,,,,,,,,,,,,,,,,,,,,,,,,,,,,,,,"MET10901/20/20 05:12:02 SPECI PASO 201412Z 35005KT 1 3/4SM -SN BR OVC020 M06/M08 A2934 RMK AO2 P0000 T10561078 TSNO","FM-16","7",,,,,,,,,,,,,,,,,,,,,,,,,,,,"2005-10-30"
"70362125516","2020-01-20T05:43:00","FM-16","6",,,,,,,,,,,,,,,,,,,,,,,,,,,,,,,,,,,,,,"29.34","18","22",,"-SN:03 BR:1 |SN |",,,"85",,"OVC:08 21","29.31","2.00","21","VRB",,"5",,,,,,,,,,,,,,,,,,,,,,,,,,,,,,,,,,,,,"MET10501/20/20 05:43:02 SPECI PASO 201443Z VRB04KT 2SM -SN BR OVC021 M06/M08 A2934 RMK AO2 P0000 T10561078 TSNO","FM-16","6",,,,,,,,,,,,,,,,,,,,,,,,,,,,"2005-10-30"
"70362125516","2020-01-20T05:53:00","FM-15","7",,,,,,,,,,,,,,,,,,,,,,,,,,,,,,,,,,,,,,"29.34","18","22","T","-SN:03 BR:1 |SN |","+0.01","8","85","29.34","OVC:08 21","29.31","2.00","21","330",,"6",,,,,,,,,,,,,,,,,,,,,,,,,,,,,,,,,,,,,"MET12401/20/20 05:53:02 METAR PASO 201453Z 33005KT 2SM -SN BR OVC021 M06/M08 A2934 RMK AO2 SLP935 P0000 60000 T10561078 58003 TSNO","FM-15","7",,,,,,,,,,,,,,,,,,,,,,,,,,,,"2005-10-30"
"70362125516","2020-01-20T06:07:00","FM-16","7",,,,,,,,,,,,,,,,,,,,,,,,,,,,,,,,,,,,,,"29.34","18","22","T","-SN:03 BR:1 |SN |",,,"85",,"OVC:08 20","29.31","1.75","21","350",,"5",,,,,,,,,,,,,,,,,,,,,,,,,,,,,,,,,,,,,"MET10901/20/20 06:07:02 SPECI PASO 201507Z 35004KT 1 3/4SM -SN BR OVC020 M06/M08 A2934 RMK AO2 P0000 T10561078 TSNO","FM-16","7",,,,,,,,,,,,,,,,,,,,,,,,,,,,"2005-10-30"
"70362125516","2020-01-20T06:30:00","FM-16","7",,,,,,,,,,,,,,,,,,,,,,,,,,,,,,,,,,,,,,"29.34","18","22","T","-SN:03 BR:1 |SN |",,,"85",,"OVC:08 24","29.31","2.50","21","350",,"6",,,,,,,,,,,,,,,,,,,,,,,,,,,,,,,,,,,,,"MET10901/20/20 06:30:02 SPECI PASO 201530Z 35005KT 2 1/2SM -SN BR OVC024 M06/M08 A2934 RMK AO2 P0000 T10561078 TSNO","FM-16","7",,,,,,,,,,,,,,,,,,,,,,,,,,,,"2005-10-30"
"70362125516","2020-01-20T06:45:00","FM-16","7",,,,,,,,,,,,,,,,,,,,,,,,,,,,,,,,,,,,,,"29.34","18","22","T","-SN:03 BR:1 |SN |",,,"85",,"OVC:08 27","29.31","1.75","21","340",,"3",,,,,,,,,,,,,,,,,,,,,,,,,,,,,,,,,,,,,"MET10901/20/20 06:45:02 SPECI PASO 201545Z 34003KT 1 3/4SM -SN BR OVC027 M06/M08 A2934 RMK AO2 P0000 T10561078 TSNO","FM-16","7",,,,,,,,,,,,,,,,,,,,,,,,,,,,"2005-10-30"
"70362125516","2020-01-20T06:49:00","FM-16","7",,,,,,,,,,,,,,,,,,,,,,,,,,,,,,,,,,,,,,"29.34","18","21","T","-SN:03 BR:1 |SN |",,,"86",,"OVC:08 31","29.31","2.00","20","330",,"3",,,,,,,,,,,,,,,,,,,,,,,,,,,,,,,,,,,,,"MET09501/20/20 06:49:02 SPECI PASO 201549Z 33003KT 2SM -SN BR OVC031 M06/M08 A2934 RMK AO2 P0000 TSNO","FM-16","7",,,,,,,,,,,,,,,,,,,,,,,,,,,,"2005-10-30"
"70362125516","2020-01-20T06:53:00","FM-15","7",,,,,,,,,,,,,,,,,,,,,,,,,,,,,,,,,,,,,,"29.34","18","22","T","-SN:03 BR:1 |SN |",,,"85","29.34","OVC:08 33","29.31","2.00","21","330",,"5",,,,,,,,,,,,,,,,,,,,,,,,,,,,,,,,,,,,,"MET11201/20/20 06:53:02 METAR PASO 201553Z 33004KT 2SM -SN BR OVC033 M06/M08 A2934 RMK AO2 SLP935 P0000 T10561078 TSNO","FM-15","7",,,,,,,,,,,,,,,,,,,,,,,,,,,,"2005-10-30"
"70362125516","2020-01-20T07:34:00","FM-16","7",,,,,,,,,,,,,,,,,,,,,,,,,,,,,,,,,,,,,,"29.34","19","22","T","-SN:03 BR:1 |SN |",,,"89",,"BKN:07 13 OVC:08 32","29.31","2.50","21","360",,"7",,,,,,,,,,,,,,,,,,,,,,,,,,,,,,,,,,,,,"MET11601/20/20 07:34:02 SPECI PASO 201634Z 36006KT 2 1/2SM -SN BR BKN013 OVC032 M06/M07 A2934 RMK AO2 P0000 T10561072 TSNO","FM-16","7",,,,,,,,,,,,,,,,,,,,,,,,,,,,"2005-10-30"
"70362125516","2020-01-20T07:46:00","FM-16","7",,,,,,,,,,,,,,,,,,,,,,,,,,,,,,,,,,,,,,"29.34","19","22","T","-SN:03 BR:1 |SN |",,,"89",,"OVC:08 13","29.31","3.00","21","360",,"5",,,,,,,,,,,,,,,,,,,,,,,,,,,,,,,,,,,,,"MET10501/20/20 07:46:02 SPECI PASO 201646Z 36004KT 3SM -SN BR OVC013 M06/M07 A2934 RMK AO2 P0000 T10561072 TSNO","FM-16","7",,,,,,,,,,,,,,,,,,,,,,,,,,,,"2005-10-30"
"70362125516","2020-01-20T07:53:00","FM-15","7",,,,,,,,,,,,,,,,,,,,,,,,,,,,,,,,,,,,,,"29.34","19","22","T","-SN:03 BR:1 |SN |",,,"89","29.34","OVC:08 13","29.31","3.00","21","360",,"5",,,,,,,,,,,,,,,,,,,,,,,,,,,,,,,,,,,,,"MET11201/20/20 07:53:02 METAR PASO 201653Z 36004KT 3SM -SN BR OVC013 M06/M07 A2934 RMK AO2 SLP935 P0000 T10561072 TSNO","FM-15","7",,,,,,,,,,,,,,,,,,,,,,,,,,,,"2005-10-30"
"70362125516","2020-01-20T08:53:00","FM-15","7",,,,,,,,,,,,,,,,,,,,,,,,,,,,,,,,,,,,,,"29.34","20","23","T","-SN:03 |SN |","-0.00","3","88","29.34","OVC:08 11","29.31","7.00","22","350",,"5",,,,,,,,,,,,,,,,,,,,,,,,,,,,,,,,,,,,,"MET13301/20/20 08:53:02 METAR PASO 201753Z 35004KT 7SM -SN OVC011 M05/M07 A2934 RMK AO2 SLP936 P0000 60000 T10501067 11050 21067 53001 TSNO","FM-15","7",,,,,,,,,,,,,,,,,,,,,,,,,,,,"2005-10-30"
"70362125516","2020-01-20T09:53:00","FM-15","7",,,,,,,,,,,,,,,,,,,,,,,,,,,,,,,,,,,,,,"29.34","20","23","T","-SN:03 |SN |",,,"88","29.34","OVC:08 11","29.31","7.00","22","VRB",,"6",,,,,,,,,,,,,,,,,,,,,,,,,,,,,,,,,,,,,"MET12001/20/20 09:53:02 METAR PASO 201853Z VRB05KT 7SM -SN OVC011 M05/M07 A2934 RMK AO2 SNE1755B32 SLP936 P0000 T10501067 TSNO","FM-15","7",,,,,,,,,,,,,,,,,,,,,,,,,,,,"2005-10-30"
"70362125516","2020-01-20T10:53:00","FM-15","7",,,,,,,,,,,,,,,,,,,,,,,,,,,,,,,,,,,,,,"29.35","20","24","0.00",,,,"84","29.35","OVC:08 11","29.32","10.00","23","340",,"3",,,,,,,,,,,,,,,,,,,,,,,,,,,,,,,,,,,,,"MET11401/20/20 10:53:02 METAR PASO 201953Z 34003KT 10SM OVC011 M04/M07 A2935 RMK AO2 SNE1856 SLP940 P0000 T10441067 TSNO","FM-15","7",,,,,,,,,,,,,,,,,,,,,,,,,,,,"2005-10-30"
"70362125516","2020-01-20T11:38:00","FM-16","7",,,,,,,,,,,,,,,,,,,,,,,,,,,,,,,,,,,,,,"29.36","20","25",,,,,"81",,"FEW:02 10 SCT:04 100 BKN:07 120","29.33","10.00","23","360",,"8",,,,,,,,,,,,,,,,,,,,,,,,,,,,,,,,,,,,,"MET10701/20/20 11:38:02 SPECI PASO 202038Z 36007KT 10SM FEW010 SCT100 BKN120 M04/M07 A2936 RMK AO2 T10391067 TSNO","FM-16","7",,,,,,,,,,,,,,,,,,,,,,,,,,,,"2005-10-30"
"70362125516","2020-01-20T11:50:00","FM-16","7",,,,,,,,,,,,,,,,,,,,,,,,,,,,,,,,,,,,,,"29.36","19","25",,,,,"80",,"FEW:02 9 BKN:07 120","29.33","10.00","23","360",,"6",,,,,,,,,,,,,,,,,,,,,,,,,,,,,,,,,,,,,"MET09001/20/20 11:50:02 SPECI PASO 202050Z 36005KT 10SM FEW009 BKN120 M04/M07 A2936 RMK AO2 TSNO","FM-16","7",,,,,,,,,,,,,,,,,,,,,,,,,,,,"2005-10-30"
"70362125516","2020-01-20T11:53:00","FM-15","7",,,,,,,,,,,,,,,,,,,,,,,,,,,,,,,,,,,,,,"29.36","21","25","0.00",,"-0.02","0","85","29.36","BKN:07 120","29.33","10.00","24","360",,"6",,,,,,,,,,,,,,,,,,,,,,,,,,,,,,,,,,,,,"MET11201/20/20 11:53:02 METAR PASO 202053Z 36005KT 10SM BKN120 M04/M06 A2936 RMK AO2 SLP943 60000 T10391061 50007 TSNO","FM-15","7",,,,,,,,,,,,,,,,,,,,,,,,,,,,"2005-10-30"
"70362125516","2020-01-20T12:53:00","FM-15","7",,,,,,,,,,,,,,,,,,,,,,,,,,,,,,,,,,,,,,"29.36","20","24","0.00",,,,"84","29.36","CLR:00","29.33","10.00","23","000",,"0",,,,,,,,,,,,,,,,,,,,,,,,,,,,,,,,,,,,,"MET09701/20/20 12:53:02 METAR PASO 202153Z 00000KT 10SM CLR M04/M07 A2936 RMK AO2 SLP943 T10441067 TSNO","FM-15","7",,,,,,,,,,,,,,,,,,,,,,,,,,,,"2005-10-30"
"70362125516","2020-01-20T13:01:00","FM-16","7",,,,,,,,,,,,,,,,,,,,,,,,,,,,,,,,,,,,,,"29.36","20","24",,,,,"84",,"FEW:02 9","29.33","10.00","23","000",,"0",,,,,,,,,,,,,,,,,,,,,,,,,,,,,,,,,,,,,"MET09301/20/20 13:01:02 SPECI PASO 202201Z 00000KT 10SM FEW009 M04/M07 A2936 RMK AO2 T10441067 TSNO","FM-16","7",,,,,,,,,,,,,,,,,,,,,,,,,,,,"2005-10-30"
"70362125516","2020-01-20T13:25:00","FM-16","7",,,,,,,,,,,,,,,,,,,,,,,,,,,,,,,,,,,,,,"29.37","22","24",,,,,"91",,"BKN:07 11","29.34","10.00","23","000",,"0",,,,,,,,,,,,,,,,,,,,,,,,,,,,,,,,,,,,,"MET09301/20/20 13:25:02 SPECI PASO 202225Z 00000KT 10SM BKN011 M04/M06 A2937 RMK AO2 T10441056 TSNO","FM-16","7",,,,,,,,,,,,,,,,,,,,,,,,,,,,"2005-10-30"
"70362125516","2020-01-20T13:53:00","FM-15","7",,,,,,,,,,,,,,,,,,,,,,,,,,,,,,,,,,,,,,"29.38","21","26","0.00",,,,"81","29.38","OVC:08 12","29.35","10.00","24","000",,"0",,,,,,,,,,,,,,,,,,,,,,,,,,,,,,,,,,,,,"MET10001/20/20 13:53:02 METAR PASO 202253Z 00000KT 10SM OVC012 M03/M06 A2938 RMK AO2 SLP948 T10331061 TSNO","FM-15","7",,,,,,,,,,,,,,,,,,,,,,,,,,,,"2005-10-30"
"70362125516","2020-01-20T14:53:00","FM-15","7",,,,,,,,,,,,,,,,,,,,,,,,,,,,,,,,,,,,,,"29.38","21","26","0.00",,"-0.02","3","81","29.38","OVC:08 12","29.35","10.00","24","130",,"3",,,,,,,,,,,,,,,,,,,,,,,,,,,,,,,,,,,,,"MET12401/20/20 14:53:02 METAR PASO 202353Z 13003KT 10SM OVC012 M03/M06 A2938 RMK AO2 SLP949 60000 T10331061 11033 21050 53007 TSNO","FM-15","7",,,,,,,,,,,,,,,,,,,,,,,,,,,,"2005-10-30"
"70362125516","2020-01-20T15:53:00","FM-15","7",,,,,,,,,,,,,,,,,,,,,,,,,,,,,,,,,,,,,,"29.39","20","24","0.00",,,,"84","29.39","OVC:08 10","29.36","10.00","23","130",,"5",,,,,,,,,,,,,,,,,,,,,,,,,,,,,,,,,,,,,"MET10001/20/20 15:53:01 METAR PASO 210053Z 13004KT 10SM OVC010 M04/M07 A2939 RMK AO2 SLP951 T10441067 TSNO","FM-15","7",,,,,,,,,,,,,,,,,,,,,,,,,,,,"2005-10-30"
"70362125516","2020-01-20T16:12:00","FM-16","7",,,,,,,,,,,,,,,,,,,,,,,,,,,,,,,,,,,,,,"29.39","20","23",,,,,"88",,"SCT:04 9","29.36","10.00","22","000",,"0",,,,,,,,,,,,,,,,,,,,,,,,,,,,,,,,,,,,,"MET09301/20/20 16:12:01 SPECI PASO 210112Z 00000KT 10SM SCT009 M05/M07 A2939 RMK AO2 T10501067 TSNO","FM-16","7",,,,,,,,,,,,,,,,,,,,,,,,,,,,"2005-10-30"
"70362125516","2020-01-20T16:53:00","FM-15","7",,,,,,,,,,,,,,,,,,,,,,,,,,,,,,,,,,,,,,"29.39","18","21","0.00",,,,"88","29.39","CLR:00","29.36","10.00","20","000",,"0",,,,,,,,,,,,,,,,,,,,,,,,,,,,,,,,,,,,,"MET09701/20/20 16:53:01 METAR PASO 210153Z 00000KT 10SM CLR M06/M08 A2939 RMK AO2 SLP952 T10611078 TSNO","FM-15","7",,,,,,,,,,,,,,,,,,,,,,,,,,,,"2005-10-30"
"70362125516","2020-01-20T17:53:00","FM-15","7",,,,,,,,,,,,,,,,,,,,,,,,,,,,,,,,,,,,,,"29.40","15","18","0.00",,"-0.02","3","88","29.40","CLR:00","29.37","10.00","17","000",,"0",,,,,,,,,,,,,,,,,,,,,,,,,,,,,,,,,,,,,"MET11501/20/20 17:53:01 METAR PASO 210253Z 00000KT 10SM CLR M08/M09 A2940 RMK AO2 SLP956 I1000 I3000 T10781094 53006 TSNO","FM-15","7",,,,,,,,,,,,,,,,,,,,,,,,,,,,"2005-10-30"
"70362125516","2020-01-20T18:53:00","FM-15","7",,,,,,,,,,,,,,,,,,,,,,,,,,,,,,,,,,,,,,"29.41","14","17","0.00",,,,"88","29.41","CLR:00","29.38","10.00","16","000",,"0",,,,,,,,,,,,,,,,,,,,,,,,,,,,,,,,,,,,,"MET10301/20/20 18:53:01 METAR PASO 210353Z 00000KT 10SM CLR M08/M10 A2941 RMK AO2 SLP959 I1001 T10831100 TSNO","FM-15","7",,,,,,,,,,,,,,,,,,,,,,,,,,,,"2005-10-30"
"70362125516","2020-01-20T19:53:00","FM-15","7",,,,,,,,,,,,,,,,,,,,,,,,,,,,,,,,,,,,,,"29.42","13","17","0.00",,,,"84","29.41","CLR:00","29.39","10.00","16","000",,"0",,,,,,,,,,,,,,,,,,,,,,,,,,,,,,,,,,,,,"MET09701/20/20 19:53:01 METAR PASO 210453Z 00000KT 10SM CLR M08/M11 A2942 RMK AO2 SLP961 T10831106 TSNO","FM-15","7",,,,,,,,,,,,,,,,,,,,,,,,,,,,"2005-10-30"
"70362125516","2020-01-20T20:53:00","FM-15","7",,,,,,,,,,,,,,,,,,,,,,,,,,,,,,,,,,,,,,"29.43","12","16","0.00",,"-0.03","3","84","29.43","CLR:00","29.40","10.00","15","000",,"0",,,,,,,,,,,,,,,,,,,,,,,,,,,,,,,,,,,,,"MET12701/20/20 20:53:01 METAR PASO 210553Z 00000KT 10SM CLR M09/M11 A2943 RMK AO2 SLP966 I1000 I6001 T10891111 11033 21100 53010 TSNO","FM-15","7",,,,,,,,,,,,,,,,,,,,,,,,,,,,"2005-10-30"
"70362125516","2020-01-20T21:53:00","FM-15","7",,,,,,,,,,,,,,,,,,,,,,,,,,,,,,,,,,,,,,"29.44","11","15","0.00",,,,"84","29.44","SCT:04 110","29.41","10.00","14","000",,"0",,,,,,,,,,,,,,,,,,,,,,,,,,,,,,,,,,,,,"MET10601/20/20 21:53:01 METAR PASO 210653Z 00000KT 10SM SCT110 M09/M12 A2944 RMK AO2 SLP970 I1000 T10941117 TSNO","FM-15","7",,,,,,,,,,,,,,,,,,,,,,,,,,,,"2005-10-30"
"70362125516","2020-01-20T22:53:00","FM-15","7",,,,,,,,,,,,,,,,,,,,,,,,,,,,,,,,,,,,,,"29.45","10","14","0.00",,,,"84","29.45","CLR:00","29.42","10.00","13","000",,"0",,,,,,,,,,,,,,,,,,,,,,,,,,,,,,,,,,,,,"MET10301/20/20 22:53:01 METAR PASO 210753Z 00000KT 10SM CLR M10/M12 A2945 RMK AO2 SLP973 I1000 T11001122 TSNO","FM-15","7",,,,,,,,,,,,,,,,,,,,,,,,,,,,"2005-10-30"
"70362125516","2020-01-20T23:53:00","FM-15","7",,,,,,,,,,,,,,,,,,,,,,,,,,,,,,,,,,,,,,"29.46","12","15","0.00",,"-0.04","3","88","29.47","SCT:04 110","29.43","10.00","14","000",,"0",,,,,,,,,,,,,,,,,,,,,,,,,,,,,,,,,,,,,"MET12801/20/20 23:53:01 METAR PASO 210853Z 00000KT 10SM SCT110 M09/M11 A2946 RMK AO2 SLP978 I1000 I3000 T10941111 410331106 53012 TSNO","FM-15","7",,,,,,,,,,,,,,,,,,,,,,,,,,,,"2005-10-30"
"70362125516","2020-01-20T23:59:00","SOD  ","6",,,,,,,,,,,,,,,,"20",,,"29.34",,"2.5","0","-5.7","45","26","13","330","12","T",,,"360","9","SN BR",,,,,,,,,,,,,,,,,,,,,,,,,,,,,,,,,,,,,,,,,,,,,,,,,,,,,,,,"SOD73024 HR PRECIPITATION (IN):T     24 HR MAX TEMP (F):26 24 HR MAX TEMP TIME (LST):1510 24 HR MIN TEMP (F):13 24 HR MIN TEMP TIME (LST):2251 AVERAGE STATION PRESSURE:29.340 MINIMUM SEA LEVEL PRESSURE:29.33 TIME OF OCCURRENCE:0531 PEAK WIND SPEED (MPH):12  PEAK WIND DIR (DEG):330 PEAK WIND TIME (LST):0959  FASTEST 2MIN SPEED (MPH):9  FASTEST 2MIN DIR (DEG):360 FASTEST 2MIN TIME (LST):1142 AVERAGE WIND SPEED (MPH):2.5  24 HR AVG TEMP (F):20 HEATING DEGREE DAYS:45  COOLING DEGREE DAYS:0   LATEST DAY MAX TEMP (0700-1900 LST):26  LATEST NIGHT MIN TEMP(1900-0800 LST):11 HOURLY INCREMENTAL PRECIPITATION VALUES (IN):    T    T    T    T    T    T    T    T    T    0.00 0.00 0.00 0.00 0.00 0.00 0.00 0.00 0.00 0.00 0.00 0.00 0.00 0.00","SOD  ","6",,,,,,,,,,,,,,,,,,,,,,,,,"0942","1655",,"2005-10-30"
"70362125516","2020-01-21T00:53:00","FM-15","7",,,,,,,,,,,,,,,,,,,,,,,,,,,,,,,,,,,,,,"29.47","11","14","0.00",,,,"88","29.47","SCT:04 120","29.44","10.00","13","000",,"0",,,,,,,,,,,,,,,,,,,,,,,,,,,,,,,,,,,,,"MET10001/21/20 00:53:02 METAR PASO 210953Z 00000KT 10SM SCT120 M10/M12 A2947 RMK AO2 SLP980 T11001117 TSNO","FM-15","7",,,,,,,,,,,,,,,,,,,,,,,,,,,,"2005-10-30"
"70362125516","2020-01-21T01:53:00","FM-15","7",,,,,,,,,,,,,,,,,,,,,,,,,,,,,,,,,,,,,,"29.47","14","17","0.00",,,,"88","29.47","BKN:07 110","29.44","10.00","16","000",,"0",,,,,,,,,,,,,,,,,,,,,,,,,,,,,,,,,,,,,"MET10001/21/20 01:53:02 METAR PASO 211053Z 00000KT 10SM BKN110 M08/M10 A2947 RMK AO2 SLP979 T10831100 TSNO","FM-15","7",,,,,,,,,,,,,,,,,,,,,,,,,,,,"2005-10-30"
"70362125516","2020-01-21T02:53:00","FM-15","7",,,,,,,,,,,,,,,,,,,,,,,,,,,,,,,,,,,,,,"29.48","14","17","0.00",,"-0.01","3","88","29.47","BKN:07 110","29.45","10.00","16","000",,"0",,,,,,,,,,,,,,,,,,,,,,,,,,,,,,,,,,,,,"MET13001/21/20 02:53:02 METAR PASO 211153Z 00000KT 10SM BKN110 M08/M10 A2948 RMK AO2 SLP981 I1000 I6000 T10831100 11078 21106 53003 TSNO","FM-15","7",,,,,,,,,,,,,,,,,,,,,,,,,,,,"2005-10-30"
"70362125516","2020-01-21T03:53:00","FM-15","7",,,,,,,,,,,,,,,,,,,,,,,,,,,,,,,,,,,,,,"29.47","13","16","0.00",,,,"88","29.47","FEW:02 110","29.44","10.00","15","000",,"0",,,,,,,,,,,,,,,,,,,,,,,,,,,,,,,,,,,,,"MET10601/21/20 03:53:02 METAR PASO 211253Z 00000KT 10SM FEW110 M09/M11 A2947 RMK AO2 SLP979 I1000 T10891106 TSNO","FM-15","7",,,,,,,,,,,,,,,,,,,,,,,,,,,,"2005-10-30"
"70362125516","2020-01-21T04:53:00","FM-15","7",,,,,,,,,,,,,,,,,,,,,,,,,,,,,,,,,,,,,,"29.46","12","15","0.00",,,,"88","29.46","FEW:02 110","29.43","10.00","14","000",,"0",,,,,,,,,,,,,,,,,,,,,,,,,,,,,,,,,,,,,"MET10601/21/20 04:53:02 METAR PASO 211353Z 00000KT 10SM FEW110 M09/M11 A2946 RMK AO2 SLP977 I1000 T10941111 TSNO","FM-15","7",,,,,,,,,,,,,,,,,,,,,,,,,,,,"2005-10-30"
"70362125516","2020-01-21T05:53:00","FM-15","7",,,,,,,,,,,,,,,,,,,,,,,,,,,,,,,,,,,,,,"29.46","11","15","0.00",,"+0.01","6","84","29.46","CLR:00","29.43","10.00","14","000",,"0",,,,,,,,,,,,,,,,,,,,,,,,,,,,,,,,,,,,,"MET11501/21/20 05:53:02 METAR PASO 211453Z 00000KT 10SM CLR M09/M12 A2946 RMK AO2 SLP976 I1000 I3000 T10941117 56005 TSNO","FM-15","7",,,,,,,,,,,,,,,,,,,,,,,,,,,,"2005-10-30"
"70362125516","2020-01-21T06:53:00","FM-15","7",,,,,,,,,,,,,,,,,,,,,,,,,,,,,,,,,,,,,,"29.46","11","14","0.00",,,,"88","29.46","FEW:02 120","29.43","10.00","13","000",,"0",,,,,,,,,,,,,,,,,,,,,,,,,,,,,,,,,,,,,"MET10601/21/20 06:53:02 METAR PASO 211553Z 00000KT 10SM FEW120 M10/M12 A2946 RMK AO2 SLP976 I1000 T11001117 TSNO","FM-15","7",,,,,,,,,,,,,,,,,,,,,,,,,,,,"2005-10-30"
"70362125516","2020-01-21T07:53:00","FM-15","7",,,,,,,,,,,,,,,,,,,,,,,,,,,,,,,,,,,,,,"29.46","10","14","0.00",,,,"84","29.46","CLR:00","29.43","9.00","13","000",,"0",,,,,,,,,,,,,,,,,,,,,,,,,,,,,,,,,,,,,"MET10201/21/20 07:53:02 METAR PASO 211653Z 00000KT 9SM CLR M10/M12 A2946 RMK AO2 SLP975 I1000 T11001122 TSNO","FM-15","7",,,,,,,,,,,,,,,,,,,,,,,,,,,,"2005-10-30"
"70362125516","2020-01-21T08:53:00","FM-15","7",,,,,,,,,,,,,,,,,,,,,,,,,,,,,,,,,,,,,,"29.45","10","14","0.00",,"+0.01","8","84","29.45","SCT:04 24","29.42","10.00","13","000",,"0",,,,,,,,,,,,,,,,,,,,,,,,,,,,,,,,,,,,,"MET13001/21/20 08:53:02 METAR PASO 211753Z 00000KT 10SM SCT024 M10/M12 A2945 RMK AO2 SLP974 I1000 I6000 T11001122 11083 21106 58002 TSNO","FM-15","7",,,,,,,,,,,,,,,,,,,,,,,,,,,,"2005-10-30"
"70362125516","2020-01-21T09:01:00","FM-16","7",,,,,,,,,,,,,,,,,,,,,,,,,,,,,,,,,,,,,,"29.46","10","14",,,,,"84",,"BKN:07 24","29.43","10.00","13","000",,"0",,,,,,,,,,,,,,,,,,,,,,,,,,,,,,,,,,,,,"MET09301/21/20 09:01:02 SPECI PASO 211801Z 00000KT 10SM BKN024 M10/M12 A2946 RMK AO2 T11001122 TSNO","FM-16","7",,,,,,,,,,,,,,,,,,,,,,,,,,,,"2005-10-30"
"70362125516","2020-01-21T09:53:00","FM-15","7",,,,,,,,,,,,,,,,,,,,,,,,,,,,,,,,,,,,,,"29.46","11","15","0.00",,,,"84","29.46","OVC:08 25","29.43","9.00","14","000",,"0",,,,,,,,,,,,,,,,,,,,,,,,,,,,,,,,,,,,,"MET09901/21/20 09:53:02 METAR PASO 211853Z 00000KT 9SM OVC025 M09/M12 A2946 RMK AO2 SLP976 T10941117 TSNO","FM-15","7",,,,,,,,,,,,,,,,,,,,,,,,,,,,"2005-10-30"
"70362125516","2020-01-21T10:53:00","FM-15","7",,,,,,,,,,,,,,,,,,,,,,,,,,,,,,,,,,,,,,"29.47","16","18","0.00",,,,"92","29.47","OVC:08 24","29.44","8.00","17","000",,"0",,,,,,,,,,,,,,,,,,,,,,,,,,,,,,,,,,,,,"MET09901/21/20 10:53:02 METAR PASO 211953Z 00000KT 8SM OVC024 M08/M09 A2947 RMK AO2 SLP980 T10781089 TSNO","FM-15","7",,,,,,,,,,,,,,,,,,,,,,,,,,,,"2005-10-30"
"70362125516","2020-01-21T11:53:00","FM-15","7",,,,,,,,,,,,,,,,,,,,,,,,,,,,,,,,,,,,,,"29.48","19","22","0.00",,"-0.02","3","89","29.48","OVC:08 19","29.45","9.00","21","000",,"0",,,,,,,,,,,,,,,,,,,,,,,,,,,,,,,,,,,,,"MET10501/21/20 11:53:02 METAR PASO 212053Z 00000KT 9SM OVC019 M06/M07 A2948 RMK AO2 SLP983 T10561072 53008 TSNO","FM-15","7",,,,,,,,,,,,,,,,,,,,,,,,,,,,"2005-10-30"
"70362125516","2020-01-21T12:53:00","FM-15","7",,,,,,,,,,,,,,,,,,,,,,,,,,,,,,,,,,,,,,"29.48","22","26","0.00",,,,"84","29.48","OVC:08 19","29.45","10.00","25","010",,"3",,,,,,,,,,,,,,,,,,,,,,,,,,,,,,,,,,,,,"MET10001/21/20 12:53:02 METAR PASO 212153Z 01003KT 10SM OVC019 M03/M06 A2948 RMK AO2 SLP984 T10331056 TSNO","FM-15","7",,,,,,,,,,,,,,,,,,,,,,,,,,,,"2005-10-30"
"70362125516","2020-01-21T13:53:00","FM-15","7",,,,,,,,,,,,,,,,,,,,,,,,,,,,,,,,,,,,,,"29.49","22","26","0.00",,,,"84","29.49","OVC:08 20","29.46","10.00","25","010",,"8",,,,,,,,,,,,,,,,,,,,,,,,,,,,,,,,,,,,,"MET10001/21/20 13:53:02 METAR PASO 212253Z 01007KT 10SM OVC020 M03/M06 A2949 RMK AO2 SLP987 T10331056 TSNO","FM-15","7",,,,,,,,,,,,,,,,,,,,,,,,,,,,"2005-10-30"
"70362125516","2020-01-21T14:53:00","FM-15","7",,,,,,,,,,,,,,,,,,,,,,,,,,,,,,,,,,,,,,"29.50","20","24","0.00",,"-0.02","3","84","29.50","OVC:08 15","29.47","10.00","23","010",,"9",,,,,,,,,,,,,,,,,,,,,,,,,,,,,,,,,,,,,"MET11801/21/20 14:53:02 METAR PASO 212353Z 01008KT 10SM OVC015 M04/M07 A2950 RMK AO2 SLP991 T10441067 11028 21106 53008 TSNO","FM-15","7",,,,,,,,,,,,,,,,,,,,,,,,,,,,"2005-10-30"
"70362125516","2020-01-21T15:07:00","FM-16","7",,,,,,,,,,,,,,,,,,,,,,,,,,,,,,,,,,,,,,"29.51","19","24",,,,,"81",,"OVC:08 14","29.48","10.00","22","VRB",,"7",,,,,,,,,,,,,,,,,,,,,,,,,,,,,,,,,,,,,"MET09301/21/20 15:07:01 SPECI PASO 220007Z VRB06KT 10SM OVC014 M04/M07 A2951 RMK AO2 T10441072 TSNO","FM-16","7",,,,,,,,,,,,,,,,,,,,,,,,,,,,"2005-10-30"
"70362125516","2020-01-21T15:32:00","FM-16","7",,,,,,,,,,,,,,,,,,,,,,,,,,,,,,,,,,,,,,"29.51","19","24",,,,,"81",,"OVC:08 15","29.48","10.00","22","VRB",,"7",,,,,,,,,,,,,,,,,,,,,,,,,,,,,,,,,,,,,"MET09301/21/20 15:32:01 SPECI PASO 220032Z VRB06KT 10SM OVC015 M04/M07 A2951 RMK AO2 T10441072 TSNO","FM-16","7",,,,,,,,,,,,,,,,,,,,,,,,,,,,"2005-10-30"
"70362125516","2020-01-21T15:53:00","FM-15","7",,,,,,,,,,,,,,,,,,,,,,,,,,,,,,,,,,,,,,"29.51","19","24","0.00",,,,"81","29.51","OVC:08 16","29.48","10.00","22","010",,"7",,,,,,,,,,,,,,,,,,,,,,,,,,,,,,,,,,,,,"MET10001/21/20 15:53:01 METAR PASO 220053Z 01006KT 10SM OVC016 M04/M07 A2951 RMK AO2 SLP993 T10441072 TSNO","FM-15","7",,,,,,,,,,,,,,,,,,,,,,,,,,,,"2005-10-30"
"70362125516","2020-01-21T16:29:00","FM-16","7",,,,,,,,,,,,,,,,,,,,,,,,,,,,,,,,,,,,,,"29.51","19","24",,,,,"81",,"OVC:08 14","29.48","10.00","22","030",,"5",,,,,,,,,,,,,,,,,,,,,,,,,,,,,,,,,,,,,"MET09301/21/20 16:29:01 SPECI PASO 220129Z 03004KT 10SM OVC014 M04/M07 A2951 RMK AO2 T10441072 TSNO","FM-16","7",,,,,,,,,,,,,,,,,,,,,,,,,,,,"2005-10-30"
"70362125516","2020-01-21T16:53:00","FM-15","7",,,,,,,,,,,,,,,,,,,,,,,,,,,,,,,,,,,,,,"29.51","19","24","0.00",,,,"81","29.52","OVC:08 14","29.48","10.00","22","000",,"0",,,,,,,,,,,,,,,,,,,,,,,,,,,,,,,,,,,,,"MET10001/21/20 16:53:01 METAR PASO 220153Z 00000KT 10SM OVC014 M04/M07 A2951 RMK AO2 SLP995 T10441072 TSNO","FM-15","7",,,,,,,,,,,,,,,,,,,,,,,,,,,,"2005-10-30"
"70362125516","2020-01-21T17:53:00","FM-15","7",,,,,,,,,,,,,,,,,,,,,,,,,,,,,,,,,,,,,,"29.52","19","24","0.00",,"-0.02","2","81","29.52","OVC:08 14","29.49","10.00","22","000",,"0",,,,,,,,,,,,,,,,,,,,,,,,,,,,,,,,,,,,,"MET10601/21/20 17:53:01 METAR PASO 220253Z 00000KT 10SM OVC014 M04/M07 A2952 RMK AO2 SLP997 T10441072 52006 TSNO","FM-15","7",,,,,,,,,,,,,,,,,,,,,,,,,,,,"2005-10-30"
"70362125516","2020-01-21T18:02:00","FM-16","7",,,,,,,,,,,,,,,,,,,,,,,,,,,,,,,,,,,,,,"29.52","19","24",,,,,"81",,"OVC:08 15","29.49","10.00","22","000",,"0",,,,,,,,,,,,,,,,,,,,,,,,,,,,,,,,,,,,,"MET09301/21/20 18:02:01 SPECI PASO 220302Z 00000KT 10SM OVC015 M04/M07 A2952 RMK AO2 T10441072 TSNO","FM-16","7",,,,,,,,,,,,,,,,,,,,,,,,,,,,"2005-10-30"
"70362125516","2020-01-21T18:53:00","FM-15","7",,,,,,,,,,,,,,,,,,,,,,,,,,,,,,,,,,,,,,"29.53","20","23","0.00",,,,"88","29.53","OVC:08 19","29.50","10.00","22","000",,"0",,,,,,,,,,,,,,,,,,,,,,,,,,,,,,,,,,,,,"MET10001/21/20 18:53:01 METAR PASO 220353Z 00000KT 10SM OVC019 M05/M07 A2953 RMK AO2 SLP999 T10501067 TSNO","FM-15","7",,,,,,,,,,,,,,,,,,,,,,,,,,,,"2005-10-30"
"70362125516","2020-01-21T19:53:00","FM-15","7",,,,,,,,,,,,,,,,,,,,,,,,,,,,,,,,,,,,,,"29.53","20","24","0.00",,,,"84","29.53","OVC:08 20","29.50","10.00","23","000",,"0",,,,,,,,,,,,,,,,,,,,,,,,,,,,,,,,,,,,,"MET10001/21/20 19:53:01 METAR PASO 220453Z 00000KT 10SM OVC020 M04/M07 A2953 RMK AO2 SLP001 T10441067 TSNO","FM-15","7",,,,,,,,,,,,,,,,,,,,,,,,,,,,"2005-10-30"
"70362125516","2020-01-21T20:53:00","FM-15","7",,,,,,,,,,,,,,,,,,,,,,,,,,,,,,,,,,,,,,"29.54","18","24","0.00",,"-0.02","2","77","29.54","OVC:08 19","29.51","10.00","22","030",,"6",,,,,,,,,,,,,,,,,,,,,,,,,,,,,,,,,,,,,"MET11801/21/20 20:53:01 METAR PASO 220553Z 03005KT 10SM OVC019 M04/M08 A2954 RMK AO2 SLP004 T10441078 11044 21050 52007 TSNO","FM-15","7",,,,,,,,,,,,,,,,,,,,,,,,,,,,"2005-10-30"
"70362125516","2020-01-21T21:53:00","FM-15","7",,,,,,,,,,,,,,,,,,,,,,,,,,,,,,,,,,,,,,"29.55","19","23","0.00",,,,"85","29.55","OVC:08 23","29.52","10.00","22","020",,"3",,,,,,,,,,,,,,,,,,,,,,,,,,,,,,,,,,,,,"MET10001/21/20 21:53:01 METAR PASO 220653Z 02003KT 10SM OVC023 M05/M07 A2955 RMK AO2 SLP007 T10501072 TSNO","FM-15","7",,,,,,,,,,,,,,,,,,,,,,,,,,,,"2005-10-30"
"70362125516","2020-01-21T22:53:00","FM-15","7",,,,,,,,,,,,,,,,,,,,,,,,,,,,,,,,,,,,,,"29.57","19","23","0.00",,,,"85","29.57","OVC:08 21","29.54","10.00","22","000",,"0",,,,,,,,,,,,,,,,,,,,,,,,,,,,,,,,,,,,,"MET10001/21/20 22:53:01 METAR PASO 220753Z 00000KT 10SM OVC021 M05/M07 A2957 RMK AO2 SLP012 T10501072 TSNO","FM-15","7",,,,,,,,,,,,,,,,,,,,,,,,,,,,"2005-10-30"
"70362125516","2020-01-21T23:53:00","FM-15","7",,,,,,,,,,,,,,,,,,,,,,,,,,,,,,,,,,,,,,"29.58","19","22","0.00",,"-0.04","2","89","29.58","OVC:08 20","29.55","10.00","21","000",,"0",,,,,,,,,,,,,,,,,,,,,,,,,,,,,,,,,,,,,"MET11601/21/20 23:53:01 METAR PASO 220853Z 00000KT 10SM OVC020 M06/M07 A2958 RMK AO2 SLP016 T10561072 410281106 52012 TSNO","FM-15","7",,,,,,,,,,,,,,,,,,,,,,,,,,,,"2005-10-30"
"70362125516","2020-01-21T23:59:00","SOD  ","6",,,,,,,,,,,,,,,,"20",,,"29.47",,"1.5","0","-5.7","45","27","13","020","14","0.00",,,"010","10",,,,,,,,,,,,,,,,,,,,,,,,,,,,,,,,,,,,,,,,,,,,,,,,,,,,,,,,,"SOD73424 HR PRECIPITATION (IN): 0.00 24 HR MAX TEMP (F):27 24 HR MAX TEMP TIME (LST):1327 24 HR MIN TEMP (F):13 24 HR MIN TEMP TIME (LST):0914 AVERAGE STATION PRESSURE(D):29.466 MINIMUM SEA LEVEL PRESSURE:29.45 TIME OF OCCURRENCE:0859 PEAK WIND SPEED (MPH):14  PEAK WIND DIR (DEG): 20 PEAK WIND TIME (LST):1330  FASTEST 2MIN SPEED (MPH):10 FASTEST 2MIN DIR (DEG): 10 FASTEST 2MIN TIME (LST):1336 AVERAGE WIND SPEED (MPH): 1.5 24 HR AVG TEMP (F):20 HEATING DEGREE DAYS: 45 COOLING DEGREE DAYS:  0 LATEST DAY MAX TEMP (0700-1900 LST): 27 LATEST NIGHT MIN TEMP(1900-0800 LST):13 HOURLY INCREMENTAL PRECIPITATION VALUES (IN):0.00 0.00 0.00 0.00 0.00 0.00 0.00 0.00 0.00 0.00 0.00 0.00 0.00 0.00 0.00 0.00 0.00 0.00 0.00 0.00 0.00 0.00 0.00 0.00","SOD  ","6",,,,,,,,,,,,,,,,,,,,,,,,,"0941","1657",,"2005-10-30"
"70362125516","2020-01-22T00:53:00","FM-15","7",,,,,,,,,,,,,,,,,,,,,,,,,,,,,,,,,,,,,,"29.59","19","22","0.00",,,,"89","29.59","OVC:08 18","29.56","10.00","21","000",,"0",,,,,,,,,,,,,,,,,,,,,,,,,,,,,,,,,,,,,"MET10001/22/20 00:53:02 METAR PASO 220953Z 00000KT 10SM OVC018 M06/M07 A2959 RMK AO2 SLP021 T10561072 TSNO","FM-15","7",,,,,,,,,,,,,,,,,,,,,,,,,,,,"2005-10-30"
"70362125516","2020-01-22T01:53:00","FM-15","7",,,,,,,,,,,,,,,,,,,,,,,,,,,,,,,,,,,,,,"29.60","19","22","0.00",,,,"89","29.60","OVC:08 21","29.57","10.00","21","000",,"0",,,,,,,,,,,,,,,,,,,,,,,,,,,,,,,,,,,,,"MET10001/22/20 01:53:02 METAR PASO 221053Z 00000KT 10SM OVC021 M06/M07 A2960 RMK AO2 SLP023 T10561072 TSNO","FM-15","7",,,,,,,,,,,,,,,,,,,,,,,,,,,,"2005-10-30"
"70362125516","2020-01-22T02:53:00","FM-15","7",,,,,,,,,,,,,,,,,,,,,,,,,,,,,,,,,,,,,,"29.61","19","21","0.00",,"-0.03","1","92","29.60","OVC:08 24","29.58","10.00","20","000",,"0",,,,,,,,,,,,,,,,,,,,,,,,,,,,,,,,,,,,,"MET11801/22/20 02:53:02 METAR PASO 221153Z 00000KT 10SM OVC024 M06/M07 A2961 RMK AO2 SLP025 T10611072 11044 21061 51009 TSNO","FM-15","7",,,,,,,,,,,,,,,,,,,,,,,,,,,,"2005-10-30"
"70362125516","2020-01-22T03:53:00","FM-15","7",,,,,,,,,,,,,,,,,,,,,,,,,,,,,,,,,,,,,,"29.62","16","20","0.00",,,,"85","29.62","BKN:07 25","29.59","10.00","19","000",,"0",,,,,,,,,,,,,,,,,,,,,,,,,,,,,,,,,,,,,"MET10001/22/20 03:53:02 METAR PASO 221253Z 00000KT 10SM BKN025 M07/M09 A2962 RMK AO2 SLP029 T10671089 TSNO","FM-15","7",,,,,,,,,,,,,,,,,,,,,,,,,,,,"2005-10-30"
"70362125516","2020-01-22T04:09:00","FM-16","7",,,,,,,,,,,,,,,,,,,,,,,,,,,,,,,,,,,,,,"29.62","16","19",,,,,"88",,"SCT:04 24","29.59","10.00","18","000",,"0",,,,,,,,,,,,,,,,,,,,,,,,,,,,,,,,,,,,,"MET09901/22/20 04:09:02 SPECI PASO 221309Z 00000KT 10SM SCT024 M07/M09 A2962 RMK AO2 I1000 T10721089 TSNO","FM-16","7",,,,,,,,,,,,,,,,,,,,,,,,,,,,"2005-10-30"
"70362125516","2020-01-22T04:53:00","FM-15","7",,,,,,,,,,,,,,,,,,,,,,,,,,,,,,,,,,,,,,"29.62","14","17","0.00",,,,"88","29.62","CLR:00","29.59","10.00","16","160",,"3",,,,,,,,,,,,,,,,,,,,,,,,,,,,,,,,,,,,,"MET10301/22/20 04:53:02 METAR PASO 221353Z 16003KT 10SM CLR M08/M10 A2962 RMK AO2 SLP029 I1001 T10831100 TSNO","FM-15","7",,,,,,,,,,,,,,,,,,,,,,,,,,,,"2005-10-30"
"70362125516","2020-01-22T05:53:00","FM-15","7",,,,,,,,,,,,,,,,,,,,,,,,,,,,,,,,,,,,,,"29.62","12","15","0.00",,"-0.01","1","88","29.62","FEW:02 29","29.59","10.00","14","170",,"3",,,,,,,,,,,,,,,,,,,,,,,,,,,,,,,,,,,,,"MET11201/22/20 05:53:02 METAR PASO 221453Z 17003KT 10SM FEW029 M09/M11 A2962 RMK AO2 SLP030 I3001 T10941111 51004 TSNO","FM-15","7",,,,,,,,,,,,,,,,,,,,,,,,,,,,"2005-10-30"
"70362125516","2020-01-22T06:04:00","FM-16","7",,,,,,,,,,,,,,,,,,,,,,,,,,,,,,,,,,,,,,"29.62","14","17",,,,,"88",,"BKN:07 29","29.59","10.00","16","200",,"3",,,,,,,,,,,,,,,,,,,,,,,,,,,,,,,,,,,,,"MET09301/22/20 06:04:02 SPECI PASO 221504Z 20003KT 10SM BKN029 M08/M10 A2962 RMK AO2 T10831100 TSNO","FM-16","7",,,,,,,,,,,,,,,,,,,,,,,,,,,,"2005-10-30"
"70362125516","2020-01-22T06:53:00","FM-15","7",,,,,,,,,,,,,,,,,,,,,,,,,,,,,,,,,,,,,,"29.62","15","18","0.00",,,,"88","29.62","OVC:08 27","29.59","10.00","17","000",,"0",,,,,,,,,,,,,,,,,,,,,,,,,,,,,,,,,,,,,"MET10001/22/20 06:53:02 METAR PASO 221553Z 00000KT 10SM OVC027 M08/M09 A2962 RMK AO2 SLP030 T10781094 TSNO","FM-15","7",,,,,,,,,,,,,,,,,,,,,,,,,,,,"2005-10-30"
"70362125516","2020-01-22T07:53:00","FM-15","7",,,,,,,,,,,,,,,,,,,,,,,,,,,,,,,,,,,,,,"29.63","16","19","0.00",,,,"88","29.63","OVC:08 29","29.60","10.00","18","000",,"0",,,,,,,,,,,,,,,,,,,,,,,,,,,,,,,,,,,,,"MET10001/22/20 07:53:02 METAR PASO 221653Z 00000KT 10SM OVC029 M07/M09 A2963 RMK AO2 SLP033 T10721089 TSNO","FM-15","7",,,,,,,,,,,,,,,,,,,,,,,,,,,,"2005-10-30"
"70362125516","2020-01-22T08:48:00","FM-16","7",,,,,,,,,,,,,,,,,,,,,,,,,,,,,,,,,,,,,,"29.63","16","19",,,,,"86",,"SCT:04 31","29.60","10.00","18","200",,"3",,,,,,,,,,,,,,,,,,,,,,,,,,,,,,,,,,,,,"MET08301/22/20 08:48:02 SPECI PASO 221748Z 20003KT 10SM SCT031 M07/M09 A2963 RMK AO2 TSNO","FM-16","7",,,,,,,,,,,,,,,,,,,,,,,,,,,,"2005-10-30"
"70362125516","2020-01-22T08:53:00","FM-15","7",,,,,,,,,,,,,,,,,,,,,,,,,,,,,,,,,,,,,,"29.63","16","19","0.00",,"-0.01","1","88","29.63","SCT:04 31","29.60","10.00","18","200",,"3",,,,,,,,,,,,,,,,,,,,,,,,,,,,,,,,,,,,,"MET12401/22/20 08:53:02 METAR PASO 221753Z 20003KT 10SM SCT031 M07/M09 A2963 RMK AO2 SLP035 I6001 T10721089 11056 21094 51005 TSNO","FM-15","7",,,,,,,,,,,,,,,,,,,,,,,,,,,,"2005-10-30"
"70362125516","2020-01-22T09:37:00","FM-16","7",,,,,,,,,,,,,,,,,,,,,,,,,,,,,,,,,,,,,,"29.65","17","20",,,,,"89",,"BKN:07 26 OVC:08 36","29.62","10.00","19","200",,"5",,,,,,,,,,,,,,,,,,,,,,,,,,,,,,,,,,,,,"MET10001/22/20 09:37:02 SPECI PASO 221837Z 20004KT 10SM BKN026 OVC036 M07/M08 A2965 RMK AO2 T10671083 TSNO","FM-16","7",,,,,,,,,,,,,,,,,,,,,,,,,,,,"2005-10-30"
"70362125516","2020-01-22T09:53:00","FM-15","7",,,,,,,,,,,,,,,,,,,,,,,,,,,,,,,,,,,,,,"29.65","17","21","0.00",,,,"85","29.65","BKN:07 26 OVC:08 35","29.62","10.00","20","170",,"3",,,,,,,,,,,,,,,,,,,,,,,,,,,,,,,,,,,,,"MET10701/22/20 09:53:02 METAR PASO 221853Z 17003KT 10SM BKN026 OVC035 M06/M08 A2965 RMK AO2 SLP041 T10611083 TSNO","FM-15","7",,,,,,,,,,,,,,,,,,,,,,,,,,,,"2005-10-30"
"70362125516","2020-01-22T10:08:00","FM-16","7",,,,,,,,,,,,,,,,,,,,,,,,,,,,,,,,,,,,,,"29.65","18","23",,,,,"81",,"SCT:04 26 OVC:08 35","29.62","10.00","21","140",,"6",,,,,,,,,,,,,,,,,,,,,,,,,,,,,,,,,,,,,"MET10001/22/20 10:08:02 SPECI PASO 221908Z 14005KT 10SM SCT026 OVC035 M05/M08 A2965 RMK AO2 T10501078 TSNO","FM-16","7",,,,,,,,,,,,,,,,,,,,,,,,,,,,"2005-10-30"
"70362125516","2020-01-22T10:32:00","FM-16","7",,,,,,,,,,,,,,,,,,,,,,,,,,,,,,,,,,,,,,"29.66","19","24",,,,,"81",,"BKN:07 29 OVC:08 36","29.63","10.00","22","VRB",,"7",,,,,,,,,,,,,,,,,,,,,,,,,,,,,,,,,,,,,"MET10001/22/20 10:32:02 SPECI PASO 221932Z VRB06KT 10SM BKN029 OVC036 M04/M07 A2966 RMK AO2 T10441072 TSNO","FM-16","7",,,,,,,,,,,,,,,,,,,,,,,,,,,,"2005-10-30"
"70362125516","2020-01-22T10:40:00","FM-16","7",,,,,,,,,,,,,,,,,,,,,,,,,,,,,,,,,,,,,,"29.66","18","25",,,,,"75",,"SCT:04 30 OVC:08 36","29.63","10.00","23","170",,"7",,,,,,,,,,,,,,,,,,,,,,,,,,,,,,,,,,,,,"MET10001/22/20 10:40:02 SPECI PASO 221940Z 17006KT 10SM SCT030 OVC036 M04/M08 A2966 RMK AO2 T10391078 TSNO","FM-16","7",,,,,,,,,,,,,,,,,,,,,,,,,,,,"2005-10-30"
"70362125516","2020-01-22T10:53:00","FM-15","7",,,,,,,,,,,,,,,,,,,,,,,,,,,,,,,,,,,,,,"29.67","18","24","0.00",,,,"77","29.67","BKN:07 30 OVC:08 36","29.64","10.00","22","140",,"5",,,,,,,,,,,,,,,,,,,,,,,,,,,,,,,,,,,,,"MET10701/22/20 10:53:02 METAR PASO 221953Z 14004KT 10SM BKN030 OVC036 M04/M08 A2967 RMK AO2 SLP046 T10441078 TSNO","FM-15","7",,,,,,,,,,,,,,,,,,,,,,,,,,,,"2005-10-30"
"70362125516","2020-01-22T11:53:00","FM-15","7",,,,,,,,,,,,,,,,,,,,,,,,,,,,,,,,,,,,,,"29.67","17","25","0.00",,"-0.04","1","72","29.67","BKN:07 30 OVC:08 36","29.64","10.00","23","180",,"5",,,,,,,,,,,,,,,,,,,,,,,,,,,,,,,,,,,,,"MET11301/22/20 11:53:02 METAR PASO 222053Z 18004KT 10SM BKN030 OVC036 M04/M08 A2967 RMK AO2 SLP048 T10391083 51013 TSNO","FM-15","7",,,,,,,,,,,,,,,,,,,,,,,,,,,,"2005-10-30"
"70362125516","2020-01-22T12:53:00","FM-15","7",,,,,,,,,,,,,,,,,,,,,,,,,,,,,,,,,,,,,,"29.67","16","28","0.00",,,,"60","29.67","OVC:08 33","29.64","10.00","24","000",,"0",,,,,,,,,,,,,,,,,,,,,,,,,,,,,,,,,,,,,"MET10001/22/20 12:53:02 METAR PASO 222153Z 00000KT 10SM OVC033 M02/M09 A2967 RMK AO2 SLP048 T10221089 TSNO","FM-15","7",,,,,,,,,,,,,,,,,,,,,,,,,,,,"2005-10-30"
"70362125516","2020-01-22T13:22:00","FM-16","7",,,,,,,,,,,,,,,,,,,,,,,,,,,,,,,,,,,,,,"29.68","19","27",,,,,"72",,"SCT:04 23 BKN:07 28 OVC:08 38","29.65","10.00","24","010",,"7",,,,,,,,,,,,,,,,,,,,,,,,,,,,,,,,,,,,,"MET10701/22/20 13:22:02 SPECI PASO 222222Z 01006KT 10SM SCT023 BKN028 OVC038 M03/M07 A2968 RMK AO2 T10281072 TSNO","FM-16","7",,,,,,,,,,,,,,,,,,,,,,,,,,,,"2005-10-30"
"70362125516","2020-01-22T13:53:00","FM-15","7",,,,,,,,,,,,,,,,,,,,,,,,,,,,,,,,,,,,,,"29.68","20","27","T",,,,"75","29.67","BKN:07 22 BKN:07 28 OVC:08 39","29.65","10.00","25","360",,"6",,,,,,,,,,,,,,,,,,,,,,,,,,,,,,,,,,,,,"MET12901/22/20 13:53:02 METAR PASO 222253Z 36005KT 10SM BKN022 BKN028 OVC039 M03/M07 A2968 RMK AO2 SNB24E34 SLP049 P0000 T10281067 TSNO","FM-15","7",,,,,,,,,,,,,,,,,,,,,,,,,,,,"2005-10-30"
"70362125516","2020-01-22T14:06:00","FM-16","7",,,,,,,,,,,,,,,,,,,,,,,,,,,,,,,,,,,,,,"29.68","20","27",,,,,"75",,"SCT:04 20 BKN:07 30 OVC:08 47","29.65","10.00","25","010",,"9",,,,,,,,,,,,,,,,,,,,,,,,,,,,,,,,,,,,,"MET10701/22/20 14:06:02 SPECI PASO 222306Z 01008KT 10SM SCT020 BKN030 OVC047 M03/M07 A2968 RMK AO2 T10281067 TSNO","FM-16","7",,,,,,,,,,,,,,,,,,,,,,,,,,,,"2005-10-30"
"70362125516","2020-01-22T14:14:00","FM-16","7",,,,,,,,,,,,,,,,,,,,,,,,,,,,,,,,,,,,,,"29.68","19","27",,,,,"72",,"FEW:02 20 BKN:07 25 OVC:08 47","29.65","10.00","24","010",,"8",,,,,,,,,,,,,,,,,,,,,,,,,,,,,,,,,,,,,"MET10701/22/20 14:14:02 SPECI PASO 222314Z 01007KT 10SM FEW020 BKN025 OVC047 M03/M07 A2968 RMK AO2 T10281072 TSNO","FM-16","7",,,,,,,,,,,,,,,,,,,,,,,,,,,,"2005-10-30"
"70362125516","2020-01-22T14:44:00","FM-16","7",,,,,,,,,,,,,,,,,,,,,,,,,,,,,,,,,,,,,,"29.68","17","26",,,,,"69",,"FEW:02 24 SCT:04 30 OVC:08 47","29.65","10.00","23","010","20","13",,,,,,,,,,,,,,,,,,,,,,,,,,,,,,,,,,,,,"MET11001/22/20 14:44:02 SPECI PASO 222344Z 01011G17KT 10SM FEW024 SCT030 OVC047 M03/M08 A2968 RMK AO2 T10331083 TSNO","FM-16","7",,,,,,,,,,,,,,,,,,,,,,,,,,,,"2005-10-30"
"70362125516","2020-01-22T14:53:00","FM-15","7",,,,,,,,,,,,,,,,,,,,,,,,,,,,,,,,,,,,,,"29.69","17","25","0.00",,"-0.01","3","72","29.69","FEW:02 28 BKN:07 47 OVC:08 55","29.66","10.00","23","010",,"9",,,,,,,,,,,,,,,,,,,,,,,,,,,,,,,,,,,,,"MET13801/22/20 14:53:02 METAR PASO 222353Z 01008KT 10SM FEW028 BKN047 OVC055 M04/M08 A2969 RMK AO2 SLP053 60000 T10391083 11022 21072 53005 TSNO","FM-15","7",,,,,,,,,,,,,,,,,,,,,,,,,,,,"2005-10-30"
"70362125516","2020-01-22T15:41:00","FM-16","7",,,,,,,,,,,,,,,,,,,,,,,,,,,,,,,,,,,,,,"29.69","17","24",,,,,"75",,"BKN:07 19 BKN:07 36 OVC:08 43","29.66","10.00","22","020",,"13",,,,,,,,,,,,,,,,,,,,,,,,,,,,,,,,,,,,,"MET10701/22/20 15:41:01 SPECI PASO 230041Z 02011KT 10SM BKN019 BKN036 OVC043 M04/M08 A2969 RMK AO2 T10441083 TSNO","FM-16","7",,,,,,,,,,,,,,,,,,,,,,,,,,,,"2005-10-30"
"70362125516","2020-01-22T15:53:00","FM-15","7",,,,,,,,,,,,,,,,,,,,,,,,,,,,,,,,,,,,,,"29.69","17","24","0.00",,,,"75","29.69","BKN:07 21 OVC:08 43","29.66","10.00","22","360",,"8",,,,,,,,,,,,,,,,,,,,,,,,,,,,,,,,,,,,,"MET10701/22/20 15:53:01 METAR PASO 230053Z 36007KT 10SM BKN021 OVC043 M04/M08 A2969 RMK AO2 SLP055 T10441083 TSNO","FM-15","7",,,,,,,,,,,,,,,,,,,,,,,,,,,,"2005-10-30"
"70362125516","2020-01-22T16:10:00","FM-16","7",,,,,,,,,,,,,,,,,,,,,,,,,,,,,,,,,,,,,,"29.70","15","24",,,,,"68",,"FEW:02 18 SCT:04 24 OVC:08 60","29.67","10.00","21","010",,"11",,,,,,,,,,,,,,,,,,,,,,,,,,,,,,,,,,,,,"MET10701/22/20 16:10:01 SPECI PASO 230110Z 01010KT 10SM FEW018 SCT024 OVC060 M04/M09 A2970 RMK AO2 T10441094 TSNO","FM-16","7",,,,,,,,,,,,,,,,,,,,,,,,,,,,"2005-10-30"
"70362125516","2020-01-22T16:53:00","FM-15","7",,,,,,,,,,,,,,,,,,,,,,,,,,,,,,,,,,,,,,"29.69","15","23","0.00",,,,"72","29.69","OVC:08 60","29.66","10.00","21","020",,"13",,,,,,,,,,,,,,,,,,,,,,,,,,,,,,,,,,,,,"MET10001/22/20 16:53:01 METAR PASO 230153Z 02011KT 10SM OVC060 M05/M09 A2969 RMK AO2 SLP055 T10501094 TSNO","FM-15","7",,,,,,,,,,,,,,,,,,,,,,,,,,,,"2005-10-30"
"70362125516","2020-01-22T17:53:00","FM-15","7",,,,,,,,,,,,,,,,,,,,,,,,,,,,,,,,,,,,,,"29.70","16","21","0.00",,"-0.01","1","81","29.70","CLR:00","29.67","10.00","20","010",,"6",,,,,,,,,,,,,,,,,,,,,,,,,,,,,,,,,,,,,"MET11201/22/20 17:53:01 METAR PASO 230253Z 01005KT 10SM CLR M06/M09 A2970 RMK SLP057 T10611089 51004 TSNO VIA AUTODIAL","FM-15","7",,,,,,,,,,,,,,,,,,,,,,,,,,,,"2005-10-30"
"70362125516","2020-01-22T18:53:00","FM-15","7",,,,,,,,,,,,,,,,,,,,,,,,,,,,,,,,,,,,,,"29.70","14","20","0.00",,,,"78","29.70","CLR:00","29.67","10.00","18","010",,"5",,,,,,,,,,,,,,,,,,,,,,,,,,,,,,,,,,,,,"MET09701/22/20 18:53:01 METAR PASO 230353Z 01004KT 10SM CLR M07/M10 A2970 RMK AO2 SLP056 T10671100 TSNO","FM-15","7",,,,,,,,,,,,,,,,,,,,,,,,,,,,"2005-10-30"
"70362125516","2020-01-22T19:53:00","FM-15","7",,,,,,,,,,,,,,,,,,,,,,,,,,,,,,,,,,,,,,"29.70","11","21","0.00",,,,"65","29.70","SCT:04 30","29.67","10.00","18","010",,"10",,,,,,,,,,,,,,,,,,,,,,,,,,,,,,,,,,,,,"MET10901/22/20 19:53:01 METAR PASO 230453Z 01009KT 10SM SCT030 M06/M12 A2970 RMK SLP056 T10611117 TSNO VIA AUTODIAL","FM-15","7",,,,,,,,,,,,,,,,,,,,,,,,,,,,"2005-10-30"
"70362125516","2020-01-22T20:51:00","FM-16","7",,,,,,,,,,,,,,,,,,,,,,,,,,,,,,,,,,,,,,"29.70","12","19",,,,,"73",,"BKN:07 21","29.67","10.00","17","010",,"9",,,,,,,,,,,,,,,,,,,,,,,,,,,,,,,,,,,,,"MET08301/22/20 20:51:01 SPECI PASO 230551Z 01008KT 10SM BKN021 M07/M11 A2970 RMK AO2 TSNO","FM-16","7",,,,,,,,,,,,,,,,,,,,,,,,,,,,"2005-10-30"
"70362125516","2020-01-22T20:53:00","FM-15","7",,,,,,,,,,,,,,,,,,,,,,,,,,,,,,,,,,,,,,"29.70","13","20","0.00",,"-0.00","1","74","29.70","BKN:07 21","29.67","10.00","18","010",,"9",,,,,,,,,,,,,,,,,,,,,,,,,,,,,,,,,,,,,"MET11801/22/20 20:53:01 METAR PASO 230553Z 01008KT 10SM BKN021 M07/M11 A2970 RMK AO2 SLP057 T10671106 11039 21072 51001 TSNO","FM-15","7",,,,,,,,,,,,,,,,,,,,,,,,,,,,"2005-10-30"
"70362125516","2020-01-22T21:22:00","FM-16","7",,,,,,,,,,,,,,,,,,,,,,,,,,,,,,,,,,,,,,"29.69","12","21",,,,,"68",,"SCT:04 21 BKN:07 30","29.66","10.00","18","360",,"7",,,,,,,,,,,,,,,,,,,,,,,,,,,,,,,,,,,,,"MET10001/22/20 21:22:01 SPECI PASO 230622Z 36006KT 10SM SCT021 BKN030 M06/M11 A2969 RMK AO2 T10611111 TSNO","FM-16","7",,,,,,,,,,,,,,,,,,,,,,,,,,,,"2005-10-30"
"70362125516","2020-01-22T21:31:00","FM-16","7",,,,,,,,,,,,,,,,,,,,,,,,,,,,,,,,,,,,,,"29.69","12","21",,,,,"68",,"BKN:07 26 BKN:07 31","29.66","10.00","18","VRB",,"5",,,,,,,,,,,,,,,,,,,,,,,,,,,,,,,,,,,,,"MET10001/22/20 21:31:01 SPECI PASO 230631Z VRB04KT 10SM BKN026 BKN031 M06/M11 A2969 RMK AO2 T10611111 TSNO","FM-16","7",,,,,,,,,,,,,,,,,,,,,,,,,,,,"2005-10-30"
"70362125516","2020-01-22T21:53:00","FM-15","7",,,,,,,,,,,,,,,,,,,,,,,,,,,,,,,,,,,,,,"29.69","13","20","0.00",,,,"74","29.69","BKN:07 21 OVC:08 29","29.66","10.00","18","VRB",,"3",,,,,,,,,,,,,,,,,,,,,,,,,,,,,,,,,,,,,"MET10701/22/20 21:53:01 METAR PASO 230653Z VRB03KT 10SM BKN021 OVC029 M07/M11 A2969 RMK AO2 SLP054 T10671106 TSNO","FM-15","7",,,,,,,,,,,,,,,,,,,,,,,,,,,,"2005-10-30"
"70362125516","2020-01-22T22:53:00","FM-15","7",,,,,,,,,,,,,,,,,,,,,,,,,,,,,,,,,,,,,,"29.68","12","19","0.00",,,,"74","29.68","BKN:07 24","29.65","10.00","17","020",,"6",,,,,,,,,,,,,,,,,,,,,,,,,,,,,,,,,,,,,"MET10001/22/20 22:53:01 METAR PASO 230753Z 02005KT 10SM BKN024 M07/M11 A2968 RMK AO2 SLP050 T10721111 TSNO","FM-15","7",,,,,,,,,,,,,,,,,,,,,,,,,,,,"2005-10-30"
"70362125516","2020-01-22T23:53:00","FM-15","7",,,,,,,,,,,,,,,,,,,,,,,,,,,,,,,,,,,,,,"29.67","14","20","0.00",,"+0.03","8","78","29.67","OVC:08 25","29.64","10.00","18","020",,"6",,,,,,,,,,,,,,,,,,,,,,,,,,,,,,,,,,,,,"MET11601/22/20 23:53:01 METAR PASO 230853Z 02005KT 10SM OVC025 M07/M10 A2967 RMK AO2 SLP047 T10671100 410221094 58010 TSNO","FM-15","7",,,,,,,,,,,,,,,,,,,,,,,,,,,,"2005-10-30"
"70362125516","2020-01-22T23:59:00","SOD  ","6",,,,,,,,,,,,,,,,"22",,,"29.62",,"4.3","0","-3.7","43","28","15","010s","19s","T",,,"020","14",,,,,,,,,,,,,,,,,,,,,,,,,,,,,,,,,,,,,,,,,,,,,,,,,,,,,,,,,"SOD73024 HR PRECIPITATION (IN):T     24 HR MAX TEMP (F):28 24 HR MAX TEMP TIME (LST):1254 24 HR MIN TEMP (F):15 24 HR MIN TEMP TIME (LST):0556 AVERAGE STATION PRESSURE:29.620 MINIMUM SEA LEVEL PRESSURE:29.58 TIME OF OCCURRENCE:0030 PEAK WIND SPEED (MPH):19  PEAK WIND DIR (DEG):10  PEAK WIND TIME (LST):1443  FASTEST 2MIN SPEED (MPH):14 FASTEST 2MIN DIR (DEG):20  FASTEST 2MIN TIME (LST):1703 AVERAGE WIND SPEED (MPH):4.3  24 HR AVG TEMP (F):22 HEATING DEGREE DAYS:43  COOLING DEGREE DAYS:0   LATEST DAY MAX TEMP (0700-1900 LST):28  LATEST NIGHT MIN TEMP(1900-0800 LST):15 HOURLY INCREMENTAL PRECIPITATION VALUES (IN):.00 0.00 0.00 0.00 0.00 0.00 0.00 0.00 0.00 0.00 0.00 0.00 0.00 T    0.00 0.00 0.00 0.00 0.00 0.00 0.00 0.00 0.00 0.00","SOD  ","6",,,,,,,,,,,,,,,,,,,,,,,,,"0939","1659",,"2005-10-30"
"70362125516","2020-01-23T00:53:00","FM-15","7",,,,,,,,,,,,,,,,,,,,,,,,,,,,,,,,,,,,,,"29.65","13","20","0.00",,,,"74","29.65","OVC:08 21","29.62","10.00","18","VRB",,"5",,,,,,,,,,,,,,,,,,,,,,,,,,,,,,,,,,,,,"MET10001/23/20 00:53:02 METAR PASO 230953Z VRB04KT 10SM OVC021 M07/M11 A2965 RMK AO2 SLP041 T10671106 TSNO","FM-15","7",,,,,,,,,,,,,,,,,,,,,,,,,,,,"2005-10-30"
"70362125516","2020-01-23T01:53:00","FM-15","7",,,,,,,,,,,,,,,,,,,,,,,,,,,,,,,,,,,,,,"29.63","13","20","0.00",,,,"74","29.63","OVC:08 23","29.60","10.00","18","350",,"5",,,,,,,,,,,,,,,,,,,,,,,,,,,,,,,,,,,,,"MET10001/23/20 01:53:02 METAR PASO 231053Z 35004KT 10SM OVC023 M07/M11 A2963 RMK AO2 SLP033 T10671106 TSNO","FM-15","7",,,,,,,,,,,,,,,,,,,,,,,,,,,,"2005-10-30"
"70362125516","2020-01-23T02:53:00","FM-15","7",,,,,,,,,,,,,,,,,,,,,,,,,,,,,,,,,,,,,,"29.61","13","20","0.00",,"+0.06","8","74","29.61","BKN:07 22 OVC:08 28","29.58","10.00","18","010",,"5",,,,,,,,,,,,,,,,,,,,,,,,,,,,,,,,,,,,,"MET12501/23/20 02:53:02 METAR PASO 231153Z 01004KT 10SM BKN022 OVC028 M07/M11 A2961 RMK AO2 SLP026 T10671106 11061 21072 58021 TSNO","FM-15","7",,,,,,,,,,,,,,,,,,,,,,,,,,,,"2005-10-30"
"70362125516","2020-01-23T03:46:00","FM-16","7",,,,,,,,,,,,,,,,,,,,,,,,,,,,,,,,,,,,,,"29.60","13","20",,,,,"74",,"SCT:04 24 OVC:08 32","29.57","10.00","18","030",,"5",,,,,,,,,,,,,,,,,,,,,,,,,,,,,,,,,,,,,"MET10001/23/20 03:46:02 SPECI PASO 231246Z 03004KT 10SM SCT024 OVC032 M07/M11 A2960 RMK AO2 T10671106 TSNO","FM-16","7",,,,,,,,,,,,,,,,,,,,,,,,,,,,"2005-10-30"
"70362125516","2020-01-23T03:51:00","FM-16","6",,,,,,,,,,,,,,,,,,,,,,,,,,,,,,,,,,,,,,"29.59","12","19",,,,,"73",,"BKN:07 25 OVC:08 32","29.56","10.00","17","020",,"6",,,,,,,,,,,,,,,,,,,,,,,,,,,,,,,,,,,,,"MET09501/23/20 03:51:02 SPECI PASO 231251Z 02005KT 10SM BKN025 OVC032 M07/M11 A2959 RMK AO2 TSNO FIBI","FM-16","6",,,,,,,,,,,,,,,,,,,,,,,,,,,,"2005-10-30"
"70362125516","2020-01-23T03:53:00","FM-15","7",,,,,,,,,,,,,,,,,,,,,,,,,,,,,,,,,,,,,,"29.59","13","20","0.00",,,,"74","29.59","SCT:04 25 BKN:07 32 OVC:08 80","29.56","10.00","18","020",,"5",,,,,,,,,,,,,,,,,,,,,,,,,,,,,,,,,,,,,"MET11401/23/20 03:53:02 METAR PASO 231253Z 02004KT 10SM SCT025 BKN032 OVC080 M07/M11 A2959 RMK AO2 SLP021 T10671106 TSNO","FM-15","7",,,,,,,,,,,,,,,,,,,,,,,,,,,,"2005-10-30"
"70362125516","2020-01-23T04:02:00","FM-16","7",,,,,,,,,,,,,,,,,,,,,,,,,,,,,,,,,,,,,,"29.59","13","20",,,,,"74",,"BKN:07 26 BKN:07 32 OVC:08 80","29.56","10.00","18","020",,"6",,,,,,,,,,,,,,,,,,,,,,,,,,,,,,,,,,,,,"MET10701/23/20 04:02:02 SPECI PASO 231302Z 02005KT 10SM BKN026 BKN032 OVC080 M07/M11 A2959 RMK AO2 T10671106 TSNO","FM-16","7",,,,,,,,,,,,,,,,,,,,,,,,,,,,"2005-10-30"
"70362125516","2020-01-23T04:14:00","FM-16","7",,,,,,,,,,,,,,,,,,,,,,,,,,,,,,,,,,,,,,"29.59","12","19",,,,,"74",,"FEW:02 26 SCT:04 33 OVC:08 80","29.56","10.00","17","020",,"7",,,,,,,,,,,,,,,,,,,,,,,,,,,,,,,,,,,,,"MET10701/23/20 04:14:02 SPECI PASO 231314Z 02006KT 10SM FEW026 SCT033 OVC080 M07/M11 A2959 RMK AO2 T10721111 TSNO","FM-16","7",,,,,,,,,,,,,,,,,,,,,,,,,,,,"2005-10-30"
"70362125516","2020-01-23T04:53:00","FM-15","7",,,,,,,,,,,,,,,,,,,,,,,,,,,,,,,,,,,,,,"29.58","11","18","0.00",,,,"74","29.58","SCT:04 32 OVC:08 80","29.55","10.00","16","030",,"5",,,,,,,,,,,,,,,,,,,,,,,,,,,,,,,,,,,,,"MET10701/23/20 04:53:02 METAR PASO 231353Z 03004KT 10SM SCT032 OVC080 M08/M12 A2958 RMK AO2 SLP016 T10781117 TSNO","FM-15","7",,,,,,,,,,,,,,,,,,,,,,,,,,,,"2005-10-30"
"70362125516","2020-01-23T05:31:00","FM-16","7",,,,,,,,,,,,,,,,,,,,,,,,,,,,,,,,,,,,,,"29.56","12","19",,,,,"74",,"BKN:07 28 BKN:07 34 OVC:08 80","29.53","10.00","17","020",,"6",,,,,,,,,,,,,,,,,,,,,,,,,,,,,,,,,,,,,"MET10701/23/20 05:31:02 SPECI PASO 231431Z 02005KT 10SM BKN028 BKN034 OVC080 M07/M11 A2956 RMK AO2 T10721111 TSNO","FM-16","7",,,,,,,,,,,,,,,,,,,,,,,,,,,,"2005-10-30"
"70362125516","2020-01-23T05:53:00","FM-15","7",,,,,,,,,,,,,,,,,,,,,,,,,,,,,,,,,,,,,,"29.56","11","19","0.00",,"+0.05","6","71","29.56","OVC:08 27","29.53","10.00","17","360",,"6",,,,,,,,,,,,,,,,,,,,,,,,,,,,,,,,,,,,,"MET10601/23/20 05:53:02 METAR PASO 231453Z 36005KT 10SM OVC027 M07/M12 A2956 RMK AO2 SLP011 T10721117 56016 TSNO","FM-15","7",,,,,,,,,,,,,,,,,,,,,,,,,,,,"2005-10-30"
"70362125516","2020-01-23T06:53:00","FM-15","7",,,,,,,,,,,,,,,,,,,,,,,,,,,,,,,,,,,,,,"29.55","10","18","0.00",,,,"71","29.55","BKN:07 25 OVC:08 85","29.52","10.00","16","020",,"8",,,,,,,,,,,,,,,,,,,,,,,,,,,,,,,,,,,,,"MET10701/23/20 06:53:02 METAR PASO 231553Z 02007KT 10SM BKN025 OVC085 M08/M12 A2955 RMK AO2 SLP006 T10781122 TSNO","FM-15","7",,,,,,,,,,,,,,,,,,,,,,,,,,,,"2005-10-30"
"70362125516","2020-01-23T07:14:00","FM-16","7",,,,,,,,,,,,,,,,,,,,,,,,,,,,,,,,,,,,,,"29.55","8","18",,,,,"65",,"SCT:04 25 BKN:07 85","29.52","10.00","15","360",,"6",,,,,,,,,,,,,,,,,,,,,,,,,,,,,,,,,,,,,"MET10001/23/20 07:14:02 SPECI PASO 231614Z 36005KT 10SM SCT025 BKN085 M08/M13 A2955 RMK AO2 T10781133 TSNO","FM-16","7",,,,,,,,,,,,,,,,,,,,,,,,,,,,"2005-10-30"
"70362125516","2020-01-23T07:25:00","FM-16","7",,,,,,,,,,,,,,,,,,,,,,,,,,,,,,,,,,,,,,"29.55","9","18",,,,,"68",,"BKN:07 25 OVC:08 85","29.52","10.00","16","VRB",,"5",,,,,,,,,,,,,,,,,,,,,,,,,,,,,,,,,,,,,"MET10001/23/20 07:25:02 SPECI PASO 231625Z VRB04KT 10SM BKN025 OVC085 M08/M13 A2955 RMK AO2 T10781128 TSNO","FM-16","7",,,,,,,,,,,,,,,,,,,,,,,,,,,,"2005-10-30"
"70362125516","2020-01-23T07:53:00","FM-15","7",,,,,,,,,,,,,,,,,,,,,,,,,,,,,,,,,,,,,,"29.54","8","18","0.00",,,,"65","29.54","BKN:07 28","29.51","10.00","15","020",,"9",,,,,,,,,,,,,,,,,,,,,,,,,,,,,,,,,,,,,"MET10001/23/20 07:53:02 METAR PASO 231653Z 02008KT 10SM BKN028 M08/M13 A2954 RMK AO2 SLP003 T10781133 TSNO","FM-15","7",,,,,,,,,,,,,,,,,,,,,,,,,,,,"2005-10-30"
"70362125516","2020-01-23T08:53:00","FM-15","7",,,,,,,,,,,,,,,,,,,,,,,,,,,,,,,,,,,,,,"29.54","7","18","0.00",,"+0.02","6","62","29.54","OVC:08 29","29.51","10.00","15","360",,"7",,,,,,,,,,,,,,,,,,,,,,,,,,,,,,,,,,,,,"MET11801/23/20 08:53:02 METAR PASO 231753Z 36006KT 10SM OVC029 M08/M14 A2954 RMK AO2 SLP002 T10781139 11067 21083 56008 TSNO","FM-15","7",,,,,,,,,,,,,,,,,,,,,,,,,,,,"2005-10-30"
"70362125516","2020-01-23T09:53:00","FM-15","7",,,,,,,,,,,,,,,,,,,,,,,,,,,,,,,,,,,,,,"29.54","10","19","0.00",,,,"68","29.54","BKN:07 26 OVC:08 90","29.51","10.00","17","010",,"14",,,,,,,,,,,,,,,,,,,,,,,,,,,,,,,,,,,,,"MET10701/23/20 09:53:02 METAR PASO 231853Z 01012KT 10SM BKN026 OVC090 M07/M12 A2954 RMK AO2 SLP002 T10721122 TSNO","FM-15","7",,,,,,,,,,,,,,,,,,,,,,,,,,,,"2005-10-30"
"70362125516","2020-01-23T10:14:00","FM-16","7",,,,,,,,,,,,,,,,,,,,,,,,,,,,,,,,,,,,,,"29.53","10","19",,,,,"68",,"SCT:04 26 OVC:08 90","29.50","10.00","17","020","20","14",,,,,,,,,,,,,,,,,,,,,,,,,,,,,,,,,,,,,"MET10301/23/20 10:14:02 SPECI PASO 231914Z 02012G17KT 10SM SCT026 OVC090 M07/M12 A2953 RMK AO2 T10721122 TSNO","FM-16","7",,,,,,,,,,,,,,,,,,,,,,,,,,,,"2005-10-30"
"70362125516","2020-01-23T10:53:00","FM-15","7",,,,,,,,,,,,,,,,,,,,,,,,,,,,,,,,,,,,,,"29.54","8","19","0.00",,,,"62","29.54","OVC:08 85","29.51","10.00","16","020",,"10",,,,,,,,,,,,,,,,,,,,,,,,,,,,,,,,,,,,,"MET10001/23/20 10:53:02 METAR PASO 231953Z 02009KT 10SM OVC085 M07/M13 A2954 RMK AO2 SLP002 T10721133 TSNO","FM-15","7",,,,,,,,,,,,,,,,,,,,,,,,,,,,"2005-10-30"
"70362125516","2020-01-23T11:53:00","FM-15","7",,,,,,,,,,,,,,,,,,,,,,,,,,,,,,,,,,,,,,"29.53","8","19","0.00",,"+0.01","8","62","29.53","FEW:02 85","29.50","10.00","16","010",,"11",,,,,,,,,,,,,,,,,,,,,,,,,,,,,,,,,,,,,"MET10601/23/20 11:53:02 METAR PASO 232053Z 01010KT 10SM FEW085 M07/M13 A2953 RMK AO2 SLP000 T10721133 58003 TSNO","FM-15","7",,,,,,,,,,,,,,,,,,,,,,,,,,,,"2005-10-30"
"70362125516","2020-01-23T12:53:00","FM-15","7",,,,,,,,,,,,,,,,,,,,,,,,,,,,,,,,,,,,,,"29.53","10","20","0.00",,,,"65","29.53","FEW:02 27","29.50","10.00","17","VRB",,"11",,,,,,,,,,,,,,,,,,,,,,,,,,,,,,,,,,,,,"MET10001/23/20 12:53:02 METAR PASO 232153Z 02010KT 10SM FEW027 M07/M12 A2953 RMK AO2 SLP999 T10671122 TSNO","FM-15","7",,,,,,,,,,,,,,,,,,,,,,,,,,,,"2005-10-30"
"70362125516","2020-01-23T13:53:00","FM-15","7",,,,,,,,,,,,,,,,,,,,,,,,,,,,,,,,,,,,,,"29.52","10","20","0.00",,,,"65","29.52","CLR:00","29.49","10.00","17","010",,"9",,,,,,,,,,,,,,,,,,,,,,,,,,,,,,,,,,,,,"MET09701/23/20 13:53:02 METAR PASO 232253Z 01008KT 10SM CLR M07/M12 A2952 RMK AO2 SLP996 T10671122 TSNO","FM-15","7",,,,,,,,,,,,,,,,,,,,,,,,,,,,"2005-10-30"
"70362125516","2020-01-23T14:53:00","FM-15","7",,,,,,,,,,,,,,,,,,,,,,,,,,,,,,,,,,,,,,"29.50","11","21","0.00",,"+0.02","8","65","29.50","FEW:02 26 BKN:07 80","29.47","10.00","18","020",,"14",,,,,,,,,,,,,,,,,,,,,,,,,,,,,,,,,,,,,"MET12501/23/20 14:53:02 METAR PASO 232353Z 02012KT 10SM FEW026 BKN080 M06/M12 A2950 RMK AO2 SLP991 T10611117 11061 21083 58008 TSNO","FM-15","7",,,,,,,,,,,,,,,,,,,,,,,,,,,,"2005-10-30"
"70362125516","2020-01-23T15:53:00","FM-15","7",,,,,,,,,,,,,,,,,,,,,,,,,,,,,,,,,,,,,,"29.50","10","21","0.00",,,,"62","29.49","CLR:00","29.47","10.00","18","030",,"11",,,,,,,,,,,,,,,,,,,,,,,,,,,,,,,,,,,,,"MET09701/23/20 15:53:01 METAR PASO 240053Z 03010KT 10SM CLR M06/M12 A2950 RMK AO2 SLP988 T10611122 TSNO","FM-15","7",,,,,,,,,,,,,,,,,,,,,,,,,,,,"2005-10-30"
"70362125516","2020-01-23T16:53:00","FM-15","7",,,,,,,,,,,,,,,,,,,,,,,,,,,,,,,,,,,,,,"29.49","10","19","0.00",,,,"68","29.49","FEW:02 40 FEW:02 50","29.46","10.00","17","VRB",,"6",,,,,,,,,,,,,,,,,,,,,,,,,,,,,,,,,,,,,"MET10701/23/20 16:53:01 METAR PASO 240153Z VRB05KT 10SM FEW040 FEW050 M07/M12 A2949 RMK AO2 SLP986 T10721122 TSNO","FM-15","7",,,,,,,,,,,,,,,,,,,,,,,,,,,,"2005-10-30"
"70362125516","2020-01-23T17:53:00","FM-15","7",,,,,,,,,,,,,,,,,,,,,,,,,,,,,,,,,,,,,,"29.48","9","19","0.00",,"+0.02","6","65","29.49","CLR:00","29.45","10.00","16","020",,"9",,,,,,,,,,,,,,,,,,,,,,,,,,,,,,,,,,,,,"MET10301/23/20 17:53:01 METAR PASO 240253Z 02008KT 10SM CLR M07/M13 A2948 RMK AO2 SLP985 T10721128 56006 TSNO","FM-15","7",,,,,,,,,,,,,,,,,,,,,,,,,,,,"2005-10-30"
"70362125516","2020-01-23T18:53:00","FM-15","7",,,,,,,,,,,,,,,,,,,,,,,,,,,,,,,,,,,,,,"29.49","9","18","0.00",,,,"68","29.49","CLR:00","29.46","10.00","16","030",,"6",,,,,,,,,,,,,,,,,,,,,,,,,,,,,,,,,,,,,"MET09701/23/20 18:53:01 METAR PASO 240353Z 03005KT 10SM CLR M08/M13 A2949 RMK AO2 SLP985 T10781128 TSNO","FM-15","7",,,,,,,,,,,,,,,,,,,,,,,,,,,,"2005-10-30"
"70362125516","2020-01-23T19:53:00","FM-15","7",,,,,,,,,,,,,,,,,,,,,,,,,,,,,,,,,,,,,,"29.49","5","19","0.00",,,,"54","29.49","CLR:00","29.46","10.00","16","020",,"13",,,,,,,,,,,,,,,,,,,,,,,,,,,,,,,,,,,,,"MET09701/23/20 19:53:01 METAR PASO 240453Z 02011KT 10SM CLR M07/M15 A2949 RMK AO2 SLP986 T10721150 TSNO","FM-15","7",,,,,,,,,,,,,,,,,,,,,,,,,,,,"2005-10-30"
"70362125516","2020-01-23T20:53:00","FM-15","7",,,,,,,,,,,,,,,,,,,,,,,,,,,,,,,,,,,,,,"29.49","3","19","0.00",,"-0.01","2","49","29.49","CLR:00","29.46","10.00","15","010","28","15",,,,,,,,,,,,,,,,,,,,,,,,,,,,,,,,,,,,,"MET13601/23/20 20:53:01 METAR PASO 240553Z 01013G24KT 10SM CLR M07/M16 A2949 RMK AO2 PK WND 01026/0536 SLP986 T10721161 11056 21078 52002 TSNO","FM-15","7",,,,,,,,,,,,,,,,,,,,,,,,,,,,"2005-10-30"
"70362125516","2020-01-23T21:53:00","FM-15","7",,,,,,,,,,,,,,,,,,,,,,,,,,,,,,,,,,,,,,"29.49","3","18","0.00",,,,"52","29.49","CLR:00","29.46","10.00","14","010","24","16",,,,,,,,,,,,,,,,,,,,,,,,,,,,,,,,,,,,,"MET11801/23/20 21:53:01 METAR PASO 240653Z 01014G21KT 10SM CLR M08/M16 A2949 RMK AO2 PK WND 03027/0609 SLP987 T10781161 TSNO","FM-15","7",,,,,,,,,,,,,,,,,,,,,,,,,,,,"2005-10-30"
"70362125516","2020-01-23T22:53:00","FM-15","7",,,,,,,,,,,,,,,,,,,,,,,,,,,,,,,,,,,,,,"29.49","2","18","0.00",,,,"49","29.49","CLR:00","29.46","10.00","14","010","29","16",,,,,,,,,,,,,,,,,,,,,,,,,,,,,,,,,,,,,"MET11801/23/20 22:53:01 METAR PASO 240753Z 01014G25KT 10SM CLR M08/M17 A2949 RMK AO2 PK WND 36027/0724 SLP985 T10781167 TSNO","FM-15","7",,,,,,,,,,,,,,,,,,,,,,,,,,,,"2005-10-30"
"70362125516","2020-01-23T23:53:00","FM-15","7",,,,,,,,,,,,,,,,,,,,,,,,,,,,,,,,,,,,,,"29.49","2","17","0.00",,"+0.00","8","51","29.49","CLR:00","29.46","10.00","14","010","25","13",,,,,,,,,,,,,,,,,,,,,,,,,,,,,,,,,,,,,"MET13401/23/20 23:53:01 METAR PASO 240853Z 01011G22KT 10SM CLR M08/M17 A2949 RMK AO2 PK WND 36027/0758 SLP986 T10831167 410561083 58000 TSNO","FM-15","7",,,,,,,,,,,,,,,,,,,,,,,,,,,,"2005-10-30"
"70362125516","2020-01-23T23:59:00","SOD  ","6",,,,,,,,,,,,,,,,"20",,,"29.50",,"9.5","0","-5.7","45","22","17","360","32","0.00",,,"020","23",,,,,,,,,,,,,,,,,,,,,,,,,,,,,,,,,,,,,,,,,,,,,,,,,,,,,,,,,"SOD73024 HR PRECIPITATION (IN):0.00  24 HR MAX TEMP (F):22 24 HR MAX TEMP TIME (LST):1631 24 HR MIN TEMP (F):17 24 HR MIN TEMP TIME (LST):2359 AVERAGE STATION PRESSURE:29.500 MINIMUM SEA LEVEL PRESSURE:29.48 TIME OF OCCURRENCE:2258 PEAK WIND SPEED (MPH):32  PEAK WIND DIR (DEG):360 PEAK WIND TIME (LST):2258  FASTEST 2MIN SPEED (MPH):23 FASTEST 2MIN DIR (DEG):20  FASTEST 2MIN TIME (LST):2230 AVERAGE WIND SPEED (MPH):9.5  24 HR AVG TEMP (F):20 HEATING DEGREE DAYS:45  COOLING DEGREE DAYS:0   LATEST DAY MAX TEMP (0700-1900 LST):22  LATEST NIGHT MIN TEMP(1900-0800 LST):17 HOURLY INCREMENTAL PRECIPITATION VALUES (IN):.00 0.00 0.00 0.00 0.00 0.00 0.00 0.00 0.00 0.00 0.00 0.00 0.00 0.00 0.00 0.00 0.00 0.00 0.00 0.00 0.00 0.00 0.00 0.00","SOD  ","6",,,,,,,,,,,,,,,,,,,,,,,,,"0937","1702",,"2005-10-30"
"70362125516","2020-01-24T00:53:00","FM-15","7",,,,,,,,,,,,,,,,,,,,,,,,,,,,,,,,,,,,,,"29.48","3","17","0.00",,,,"54","29.48","CLR:00","29.45","10.00","14","010","23","13",,,,,,,,,,,,,,,,,,,,,,,,,,,,,,,,,,,,,"MET10001/24/20 00:53:02 METAR PASO 240953Z 01011G20KT 10SM CLR M08/M16 A2948 RMK AO2 SLP983 T10831161 TSNO","FM-15","7",,,,,,,,,,,,,,,,,,,,,,,,,,,,"2005-10-30"
"70362125516","2020-01-24T01:53:00","FM-15","7",,,,,,,,,,,,,,,,,,,,,,,,,,,,,,,,,,,,,,"29.47","3","18","0.00",,,,"52","29.47","CLR:00","29.44","10.00","14","010",,"13",,,,,,,,,,,,,,,,,,,,,,,,,,,,,,,,,,,,,"MET09701/24/20 01:53:02 METAR PASO 241053Z 01011KT 10SM CLR M08/M16 A2947 RMK AO2 SLP978 T10781161 TSNO","FM-15","7",,,,,,,,,,,,,,,,,,,,,,,,,,,,"2005-10-30"
"70362125516","2020-01-24T02:53:00","FM-15","7",,,,,,,,,,,,,,,,,,,,,,,,,,,,,,,,,,,,,,"29.46","4","17","0.00",,"+0.02","6","56","29.47","CLR:00","29.43","10.00","14","010",,"11",,,,,,,,,,,,,,,,,,,,,,,,,,,,,,,,,,,,,"MET11501/24/20 02:53:02 METAR PASO 241153Z 01010KT 10SM CLR M08/M16 A2946 RMK AO2 SLP978 T10831156 11072 21083 56008 TSNO","FM-15","7",,,,,,,,,,,,,,,,,,,,,,,,,,,,"2005-10-30"
"70362125516","2020-01-24T03:53:00","FM-15","7",,,,,,,,,,,,,,,,,,,,,,,,,,,,,,,,,,,,,,"29.45","3","18","0.00",,,,"52","29.45","FEW:02 55","29.42","10.00","14","010","23","15",,,,,,,,,,,,,,,,,,,,,,,,,,,,,,,,,,,,,"MET10301/24/20 03:53:02 METAR PASO 241253Z 01013G20KT 10SM FEW055 M08/M16 A2945 RMK AO2 SLP972 T10781161 TSNO","FM-15","7",,,,,,,,,,,,,,,,,,,,,,,,,,,,"2005-10-30"
"70362125516","2020-01-24T04:53:00","FM-15","7",,,,,,,,,,,,,,,,,,,,,,,,,,,,,,,,,,,,,,"29.44","2","18","0.00",,,,"49","29.44","FEW:02 65","29.41","10.00","14","010","26","17",,,,,,,,,,,,,,,,,,,,,,,,,,,,,,,,,,,,,"MET10301/24/20 04:53:02 METAR PASO 241353Z 01015G23KT 10SM FEW065 M08/M17 A2944 RMK AO2 SLP969 T10781167 TSNO","FM-15","7",,,,,,,,,,,,,,,,,,,,,,,,,,,,"2005-10-30"
"70362125516","2020-01-24T05:53:00","FM-15","7",,,,,,,,,,,,,,,,,,,,,,,,,,,,,,,,,,,,,,"29.43","1","18","0.00",,"+0.04","6","47","29.43","FEW:02 70","29.40","10.00","14","010","24","17",,,,,,,,,,,,,,,,,,,,,,,,,,,,,,,,,,,,,"MET12701/24/20 05:53:02 METAR PASO 241453Z 01015G21KT 10SM FEW070 M08/M17 A2943 RMK AO2 PK WND 36026/1408 SLP965 T10781172 56013 TSNO","FM-15","7",,,,,,,,,,,,,,,,,,,,,,,,,,,,"2005-10-30"
"70362125516","2020-01-24T06:53:00","FM-15","7",,,,,,,,,,,,,,,,,,,,,,,,,,,,,,,,,,,,,,"29.42","3","17","0.00",,,,"54","29.42","CLR:00","29.39","10.00","14","010","30","15",,,,,,,,,,,,,,,,,,,,,,,,,,,,,,,,,,,,,"MET11801/24/20 06:53:02 METAR PASO 241553Z 01013G26KT 10SM CLR M08/M16 A2942 RMK AO2 PK WND 01026/1544 SLP963 T10831161 TSNO","FM-15","7",,,,,,,,,,,,,,,,,,,,,,,,,,,,"2005-10-30"
"70362125516","2020-01-24T07:53:00","FM-15","7",,,,,,,,,,,,,,,,,,,,,,,,,,,,,,,,,,,,,,"29.41","1","16","0.00",,,,"51","29.41","CLR:00","29.38","10.00","13","010","21","14",,,,,,,,,,,,,,,,,,,,,,,,,,,,,,,,,,,,,"MET10001/24/20 07:53:02 METAR PASO 241653Z 01012G18KT 10SM CLR M09/M17 A2941 RMK AO2 SLP959 T10891172 TSNO","FM-15","7",,,,,,,,,,,,,,,,,,,,,,,,,,,,"2005-10-30"
"70362125516","2020-01-24T08:53:00","FM-15","7",,,,,,,,,,,,,,,,,,,,,,,,,,,,,,,,,,,,,,"29.41","2","16","0.00",,"+0.01","5","54","29.41","CLR:00","29.38","10.00","13","010","21","11",,,,,,,,,,,,,,,,,,,,,,,,,,,,,,,,,,,,,"MET11801/24/20 08:53:02 METAR PASO 241753Z 01010G18KT 10SM CLR M09/M17 A2941 RMK AO2 SLP960 T10891167 11078 21094 55005 TSNO","FM-15","7",,,,,,,,,,,,,,,,,,,,,,,,,,,,"2005-10-30"
"70362125516","2020-01-24T09:53:00","FM-15","7",,,,,,,,,,,,,,,,,,,,,,,,,,,,,,,,,,,,,,"29.41","3","15","0.00",,,,"59","29.41","CLR:00","29.38","10.00","12","360","18","11",,,,,,,,,,,,,,,,,,,,,,,,,,,,,,,,,,,,,"MET10001/24/20 09:53:02 METAR PASO 241853Z 36010G16KT 10SM CLR M09/M16 A2941 RMK AO2 SLP959 T10941161 TSNO","FM-15","7",,,,,,,,,,,,,,,,,,,,,,,,,,,,"2005-10-30"
"70362125516","2020-01-24T10:53:00","FM-15","7",,,,,,,,,,,,,,,,,,,,,,,,,,,,,,,,,,,,,,"29.42","2","16","0.00",,,,"54","29.42","CLR:00","29.39","10.00","13","360",,"10",,,,,,,,,,,,,,,,,,,,,,,,,,,,,,,,,,,,,"MET09701/24/20 10:53:02 METAR PASO 241953Z 36009KT 10SM CLR M09/M17 A2942 RMK AO2 SLP963 T10891167 TSNO","FM-15","7",,,,,,,,,,,,,,,,,,,,,,,,,,,,"2005-10-30"
"70362125516","2020-01-24T11:53:00","FM-15","7",,,,,,,,,,,,,,,,,,,,,,,,,,,,,,,,,,,,,,"29.42","3","17","0.00",,"-0.01","3","54","29.42","CLR:00","29.39","10.00","14","010",,"13",,,,,,,,,,,,,,,,,,,,,,,,,,,,,,,,,,,,,"MET10301/24/20 11:53:02 METAR PASO 242053Z 01011KT 10SM CLR M08/M16 A2942 RMK AO2 SLP963 T10831161 53004 TSNO","FM-15","7",,,,,,,,,,,,,,,,,,,,,,,,,,,,"2005-10-30"
"70362125516","2020-01-24T12:53:00","FM-15","7",,,,,,,,,,,,,,,,,,,,,,,,,,,,,,,,,,,,,,"29.42","5","18","0.00",,,,"57","29.42","BKN:07 65","29.39","10.00","15","020",,"11",,,,,,,,,,,,,,,,,,,,,,,,,,,,,,,,,,,,,"MET10001/24/20 12:53:02 METAR PASO 242153Z 02010KT 10SM BKN065 M08/M15 A2942 RMK AO2 SLP962 T10781150 TSNO","FM-15","7",,,,,,,,,,,,,,,,,,,,,,,,,,,,"2005-10-30"
"70362125516","2020-01-24T13:53:00","FM-15","7",,,,,,,,,,,,,,,,,,,,,,,,,,,,,,,,,,,,,,"29.42","3","18","0.00",,,,"52","29.42","SCT:04 75","29.39","10.00","14","360","20","11",,,,,,,,,,,,,,,,,,,,,,,,,,,,,,,,,,,,,"MET10301/24/20 13:53:02 METAR PASO 242253Z 36010G17KT 10SM SCT075 M08/M16 A2942 RMK AO2 SLP963 T10781161 TSNO","FM-15","7",,,,,,,,,,,,,,,,,,,,,,,,,,,,"2005-10-30"
"70362125516","2020-01-24T14:53:00","FM-15","7",,,,,,,,,,,,,,,,,,,,,,,,,,,,,,,,,,,,,,"29.41","5","18","0.00",,"+0.01","8","57","29.41","FEW:02 40","29.38","10.00","15","010","20","11",,,,,,,,,,,,,,,,,,,,,,,,,,,,,,,,,,,,,"MET12101/24/20 14:53:02 METAR PASO 242353Z 01010G17KT 10SM FEW040 M08/M15 A2941 RMK AO2 SLP958 T10781150 11072 21094 58005 TSNO","FM-15","7",,,,,,,,,,,,,,,,,,,,,,,,,,,,"2005-10-30"
"70362125516","2020-01-24T15:53:00","FM-15","7",,,,,,,,,,,,,,,,,,,,,,,,,,,,,,,,,,,,,,"29.41","5","18","0.00",,,,"57","29.41","FEW:02 35 BKN:07 90","29.38","10.00","15","010","23","13",,,,,,,,,,,,,,,,,,,,,,,,,,,,,,,,,,,,,"MET11001/24/20 15:53:01 METAR PASO 250053Z 01011G20KT 10SM FEW035 BKN090 M08/M15 A2941 RMK AO2 SLP959 T10781150 TSNO","FM-15","7",,,,,,,,,,,,,,,,,,,,,,,,,,,,"2005-10-30"
"70362125516","2020-01-24T16:53:00","FM-15","7",,,,,,,,,,,,,,,,,,,,,,,,,,,,,,,,,,,,,,"29.41","6","18","0.00",,,,"59","29.41","OVC:08 35","29.38","10.00","15","020","21","14",,,,,,,,,,,,,,,,,,,,,,,,,,,,,,,,,,,,,"MET10301/24/20 16:53:01 METAR PASO 250153Z 02012G18KT 10SM OVC035 M08/M14 A2941 RMK AO2 SLP961 T10781144 TSNO","FM-15","7",,,,,,,,,,,,,,,,,,,,,,,,,,,,"2005-10-30"
"70362125516","2020-01-24T17:53:00","FM-15","7",,,,,,,,,,,,,,,,,,,,,,,,,,,,,,,,,,,,,,"29.42","3","17","0.00",,"-0.01","3","54","29.42","SCT:04 80","29.39","10.00","14","010","25","13",,,,,,,,,,,,,,,,,,,,,,,,,,,,,,,,,,,,,"MET10901/24/20 17:53:01 METAR PASO 250253Z 01011G22KT 10SM SCT080 M08/M16 A2942 RMK AO2 SLP963 T10831161 53005 TSNO","FM-15","7",,,,,,,,,,,,,,,,,,,,,,,,,,,,"2005-10-30"
"70362125516","2020-01-24T18:53:00","FM-15","7",,,,,,,,,,,,,,,,,,,,,,,,,,,,,,,,,,,,,,"29.42","2","16","0.00",,,,"54","29.42","CLR:00","29.39","10.00","13","010","23","13",,,,,,,,,,,,,,,,,,,,,,,,,,,,,,,,,,,,,"MET10001/24/20 18:53:01 METAR PASO 250353Z 01011G20KT 10SM CLR M09/M17 A2942 RMK AO2 SLP962 T10891167 TSNO","FM-15","7",,,,,,,,,,,,,,,,,,,,,,,,,,,,"2005-10-30"
"70362125516","2020-01-24T19:53:00","FM-15","7",,,,,,,,,,,,,,,,,,,,,,,,,,,,,,,,,,,,,,"29.42","2","16","0.00",,,,"54","29.42","SCT:04 90","29.39","10.00","13","360","31","18",,,,,,,,,,,,,,,,,,,,,,,,,,,,,,,,,,,,,"MET12101/24/20 19:53:02 METAR PASO 250453Z 36016G27KT 10SM SCT090 M09/M17 A2942 RMK AO2 PK WND 01027/0451 SLP963 T10891167 TSNO","FM-15","7",,,,,,,,,,,,,,,,,,,,,,,,,,,,"2005-10-30"
"70362125516","2020-01-24T20:53:00","FM-15","7",,,,,,,,,,,,,,,,,,,,,,,,,,,,,,,,,,,,,,"29.42","3","16","0.00",,"-0.00","3","56","29.42","CLR:00","29.39","10.00","13","VRB",,"10",,,,,,,,,,,,,,,,,,,,,,,,,,,,,,,,,,,,,"MET11501/24/20 20:53:02 METAR PASO 250553Z 01009KT 10SM CLR M09/M16 A2942 RMK AO2 SLP963 T10891161 11072 21094 53001 TSNO","FM-15","7",,,,,,,,,,,,,,,,,,,,,,,,,,,,"2005-10-30"
"70362125516","2020-01-24T21:53:00","FM-15","7",,,,,,,,,,,,,,,,,,,,,,,,,,,,,,,,,,,,,,"29.44","2","16","0.00",,,,"54","29.44","CLR:00","29.41","10.00","13","010",,"10",,,,,,,,,,,,,,,,,,,,,,,,,,,,,,,,,,,,,"MET09701/24/20 21:53:02 METAR PASO 250653Z 01009KT 10SM CLR M09/M17 A2944 RMK AO2 SLP970 T10891167 TSNO","FM-15","7",,,,,,,,,,,,,,,,,,,,,,,,,,,,"2005-10-30"
"70362125516","2020-01-24T22:53:00","FM-15","7",,,,,,,,,,,,,,,,,,,,,,,,,,,,,,,,,,,,,,"29.45","1","15","0.00",,,,"53","29.45","CLR:00","29.42","10.00","12","360","20","14",,,,,,,,,,,,,,,,,,,,,,,,,,,,,,,,,,,,,"MET10001/24/20 22:53:02 METAR PASO 250753Z 36012G17KT 10SM CLR M09/M17 A2945 RMK AO2 SLP973 T10941172 TSNO","FM-15","7",,,,,,,,,,,,,,,,,,,,,,,,,,,,"2005-10-30"
"70362125516","2020-01-24T23:53:00","FM-15","7",,,,,,,,,,,,,,,,,,,,,,,,,,,,,,,,,,,,,,"29.46","1","15","0.00",,"-0.04","1","53","29.46","CLR:00","29.43","10.00","12","360","20","14",,,,,,,,,,,,,,,,,,,,,,,,,,,,,,,,,,,,,"MET11601/24/20 23:53:02 METAR PASO 250853Z 36012G17KT 10SM CLR M09/M17 A2946 RMK AO2 SLP977 T10941172 410721094 51013 TSNO","FM-15","7",,,,,,,,,,,,,,,,,,,,,,,,,,,,"2005-10-30"
"70362125516","2020-01-24T23:59:00","SOD  ","6",,,,,,,,,,,,,,,,"17",,,"29.39",,"13.1","0","-8.8","48","19","15","010","31","0.00",,,"010","23",,,,,,,,,,,,,,,,,,,,,,,,,,,,,,,,,,,,,,,,,,,,,,,,,,,,,,,,,"SOD73024 HR PRECIPITATION (IN):0.00  24 HR MAX TEMP (F):19 24 HR MAX TEMP TIME (LST):1515 24 HR MIN TEMP (F):15 24 HR MIN TEMP TIME (LST):2359 AVERAGE STATION PRESSURE:29.390 MINIMUM SEA LEVEL PRESSURE:29.40 TIME OF OCCURRENCE:1509 PEAK WIND SPEED (MPH):31  PEAK WIND DIR (DEG):10  PEAK WIND TIME (LST):1951  FASTEST 2MIN SPEED (MPH):23 FASTEST 2MIN DIR (DEG):10  FASTEST 2MIN TIME (LST):0611 AVERAGE WIND SPEED (MPH):13.1 24 HR AVG TEMP (F):17 HEATING DEGREE DAYS:48  COOLING DEGREE DAYS:0   LATEST DAY MAX TEMP (0700-1900 LST):19  LATEST NIGHT MIN TEMP(1900-0800 LST):15 HOURLY INCREMENTAL PRECIPITATION VALUES (IN):.00 0.00 0.00 0.00 0.00 0.00 0.00 0.00 0.00 0.00 0.00 0.00 0.00 0.00 0.00 0.00 0.00 0.00 0.00 0.00 0.00 0.00 0.00 0.00","SOD  ","6",,,,,,,,,,,,,,,,,,,,,,,,,"0935","1704",,"2005-10-30"
"70362125516","2020-01-25T00:53:00","FM-15","7",,,,,,,,,,,,,,,,,,,,,,,,,,,,,,,,,,,,,,"29.47","4","15","0.00",,,,"61","29.47","CLR:00","29.44","10.00","12","010",,"7",,,,,,,,,,,,,,,,,,,,,,,,,,,,,,,,,,,,,"MET09701/25/20 00:53:02 METAR PASO 250953Z 01006KT 10SM CLR M09/M16 A2947 RMK AO2 SLP979 T10941156 TSNO","FM-15","7",,,,,,,,,,,,,,,,,,,,,,,,,,,,"2005-10-30"
"70362125516","2020-01-25T01:53:00","FM-15","7",,,,,,,,,,,,,,,,,,,,,,,,,,,,,,,,,,,,,,"29.48","4","14","0.00",,,,"64","29.48","SCT:04 29","29.45","10.00","12","020",,"6",,,,,,,,,,,,,,,,,,,,,,,,,,,,,,,,,,,,,"MET10001/25/20 01:53:02 METAR PASO 251053Z 02005KT 10SM SCT029 M10/M16 A2948 RMK AO2 SLP983 T11001156 TSNO","FM-15","7",,,,,,,,,,,,,,,,,,,,,,,,,,,,"2005-10-30"
"70362125516","2020-01-25T02:53:00","FM-15","7",,,,,,,,,,,,,,,,,,,,,,,,,,,,,,,,,,,,,,"29.49","4","14","0.00",,"-0.03","2","64","29.49","FEW:02 29","29.46","10.00","12","010",,"11",,,,,,,,,,,,,,,,,,,,,,,,,,,,,,,,,,,,,"MET11801/25/20 02:53:02 METAR PASO 251153Z 01010KT 10SM FEW029 M10/M16 A2949 RMK AO2 SLP986 T11001156 11089 21100 52009 TSNO","FM-15","7",,,,,,,,,,,,,,,,,,,,,,,,,,,,"2005-10-30"
"70362125516","2020-01-25T03:53:00","FM-15","7",,,,,,,,,,,,,,,,,,,,,,,,,,,,,,,,,,,,,,"29.49","3","13","0.00",,,,"64","29.49","CLR:00","29.46","10.00","11","010",,"3",,,,,,,,,,,,,,,,,,,,,,,,,,,,,,,,,,,,,"MET09701/25/20 03:53:02 METAR PASO 251253Z 01003KT 10SM CLR M11/M16 A2949 RMK AO2 SLP985 T11061161 TSNO","FM-15","7",,,,,,,,,,,,,,,,,,,,,,,,,,,,"2005-10-30"
"70362125516","2020-01-25T04:53:00","FM-15","7",,,,,,,,,,,,,,,,,,,,,,,,,,,,,,,,,,,,,,"29.48","2","10","0.00",,,,"69","29.48","CLR:00","29.45","10.00","8","VRB",,"3",,,,,,,,,,,,,,,,,,,,,,,,,,,,,,,,,,,,,"MET09701/25/20 04:53:02 METAR PASO 251353Z VRB03KT 10SM CLR M12/M17 A2948 RMK AO2 SLP983 T11221167 TSNO","FM-15","7",,,,,,,,,,,,,,,,,,,,,,,,,,,,"2005-10-30"
"70362125516","2020-01-25T05:30:00","FM-16","7",,,,,,,,,,,,,,,,,,,,,,,,,,,,,,,,,,,,,,"29.47","4","14",,,,,"64",,"BKN:07 29","29.44","10.00","12","020",,"9",,,,,,,,,,,,,,,,,,,,,,,,,,,,,,,,,,,,,"MET09301/25/20 05:30:02 SPECI PASO 251430Z 02008KT 10SM BKN029 M10/M16 A2947 RMK AO2 T11001156 TSNO","FM-16","7",,,,,,,,,,,,,,,,,,,,,,,,,,,,"2005-10-30"
"70362125516","2020-01-25T05:51:00","FM-16","6",,,,,,,,,,,,,,,,,,,,,,,,,,,,,,,,,,,,,,"29.48","3","12",,,,,"67",,"SCT:04 28","29.45","10.00","10","010","16","7",,,,,,,,,,,,,,,,,,,,,,,,,,,,,,,,,,,,,"MET09101/25/20 05:51:02 SPECI PASO 251451Z 01006G14KT 10SM SCT028 M11/M16 A2948 RMK AO2 TSNO FIBI","FM-16","6",,,,,,,,,,,,,,,,,,,,,,,,,,,,"2005-10-30"
"70362125516","2020-01-25T05:53:00","FM-15","7",,,,,,,,,,,,,,,,,,,,,,,,,,,,,,,,,,,,,,"29.48","3","13","0.00",,"+0.01","8","64","29.48","SCT:04 28","29.45","10.00","11","010","16","10",,,,,,,,,,,,,,,,,,,,,,,,,,,,,,,,,,,,,"MET10901/25/20 05:53:02 METAR PASO 251453Z 01009G14KT 10SM SCT028 M11/M16 A2948 RMK AO2 SLP982 T11061161 58003 TSNO","FM-15","7",,,,,,,,,,,,,,,,,,,,,,,,,,,,"2005-10-30"
"70362125516","2020-01-25T06:53:00","FM-15","7",,,,,,,,,,,,,,,,,,,,,,,,,,,,,,,,,,,,,,"29.48","3","13","0.00",,,,"64","29.48","CLR:00","29.45","10.00","11","360",,"7",,,,,,,,,,,,,,,,,,,,,,,,,,,,,,,,,,,,,"MET09701/25/20 06:53:02 METAR PASO 251553Z 36006KT 10SM CLR M11/M16 A2948 RMK AO2 SLP983 T11061161 TSNO","FM-15","7",,,,,,,,,,,,,,,,,,,,,,,,,,,,"2005-10-30"
"70362125516","2020-01-25T07:53:00","FM-15","7",,,,,,,,,,,,,,,,,,,,,,,,,,,,,,,,,,,,,,"29.47","2","13","0.00",,,,"61","29.47","FEW:02 30","29.44","10.00","11","010",,"8",,,,,,,,,,,,,,,,,,,,,,,,,,,,,,,,,,,,,"MET10001/25/20 07:53:02 METAR PASO 251653Z 01007KT 10SM FEW030 M11/M17 A2947 RMK AO2 SLP980 T11061167 TSNO","FM-15","7",,,,,,,,,,,,,,,,,,,,,,,,,,,,"2005-10-30"
"70362125516","2020-01-25T08:53:00","FM-15","7",,,,,,,,,,,,,,,,,,,,,,,,,,,,,,,,,,,,,,"29.48","2","12","0.00",,"-0.00","3","64","29.48","CLR:00","29.45","10.00","10","360",,"9",,,,,,,,,,,,,,,,,,,,,,,,,,,,,,,,,,,,,"MET11501/25/20 08:53:02 METAR PASO 251753Z 36008KT 10SM CLR M11/M17 A2948 RMK AO2 SLP983 T11111167 11094 21128 53001 TSNO","FM-15","7",,,,,,,,,,,,,,,,,,,,,,,,,,,,"2005-10-30"
"70362125516","2020-01-25T09:53:00","FM-15","7",,,,,,,,,,,,,,,,,,,,,,,,,,,,,,,,,,,,,,"29.48","1","11","0.00",,,,"64","29.48","FEW:02 26","29.45","10.00","9","360",,"6",,,,,,,,,,,,,,,,,,,,,,,,,,,,,,,,,,,,,"MET10001/25/20 09:53:02 METAR PASO 251853Z 36005KT 10SM FEW026 M12/M17 A2948 RMK AO2 SLP983 T11171172 TSNO","FM-15","7",,,,,,,,,,,,,,,,,,,,,,,,,,,,"2005-10-30"
"70362125516","2020-01-25T10:53:00","FM-15","7",,,,,,,,,,,,,,,,,,,,,,,,,,,,,,,,,,,,,,"29.47","1","11","0.00",,,,"64","29.47","FEW:02 28","29.44","10.00","9","010",,"7",,,,,,,,,,,,,,,,,,,,,,,,,,,,,,,,,,,,,"MET10001/25/20 10:53:02 METAR PASO 251953Z 01006KT 10SM FEW028 M12/M17 A2947 RMK AO2 SLP981 T11171172 TSNO","FM-15","7",,,,,,,,,,,,,,,,,,,,,,,,,,,,"2005-10-30"
"70362125516","2020-01-25T11:53:00","FM-15","7",,,,,,,,,,,,,,,,,,,,,,,,,,,,,,,,,,,,,,"29.48","1","12","0.00",,"+0.00","5","61","29.47","FEW:02 27","29.45","10.00","10","360",,"8",,,,,,,,,,,,,,,,,,,,,,,,,,,,,,,,,,,,,"MET10601/25/20 11:53:02 METAR PASO 252053Z 36007KT 10SM FEW027 M11/M17 A2948 RMK AO2 SLP981 T11111172 55001 TSNO","FM-15","7",,,,,,,,,,,,,,,,,,,,,,,,,,,,"2005-10-30"
"70362125516","2020-01-25T12:53:00","FM-15","7",,,,,,,,,,,,,,,,,,,,,,,,,,,,,,,,,,,,,,"29.47","1","12","0.00",,,,"61","29.47","CLR:00","29.44","10.00","10","VRB","21","10",,,,,,,,,,,,,,,,,,,,,,,,,,,,,,,,,,,,,"MET10001/25/20 12:53:02 METAR PASO 252153Z 02009G18KT 10SM CLR M11/M17 A2947 RMK AO2 SLP979 T11111172 TSNO","FM-15","7",,,,,,,,,,,,,,,,,,,,,,,,,,,,"2005-10-30"
"70362125516","2020-01-25T13:53:00","FM-15","7",,,,,,,,,,,,,,,,,,,,,,,,,,,,,,,,,,,,,,"29.46","1","13","0.00",,,,"59","29.46","CLR:00","29.43","10.00","10","VRB",,"7",,,,,,,,,,,,,,,,,,,,,,,,,,,,,,,,,,,,,"MET09701/25/20 13:53:02 METAR PASO 252253Z VRB06KT 10SM CLR M11/M17 A2946 RMK AO2 SLP975 T11061172 TSNO","FM-15","7",,,,,,,,,,,,,,,,,,,,,,,,,,,,"2005-10-30"
"70362125516","2020-01-25T14:53:00","FM-15","7",,,,,,,,,,,,,,,,,,,,,,,,,,,,,,,,,,,,,,"29.45","1","13","0.00",,"+0.02","6","59","29.45","CLR:00","29.42","10.00","10","VRB","18","6",,,,,,,,,,,,,,,,,,,,,,,,,,,,,,,,,,,,,"MET11801/25/20 14:53:02 METAR PASO 252353Z VRB05G16KT 10SM CLR M11/M17 A2945 RMK AO2 SLP974 T11061172 11106 21117 56007 TSNO","FM-15","7",,,,,,,,,,,,,,,,,,,,,,,,,,,,"2005-10-30"
"70362125516","2020-01-25T15:53:00","FM-15","7",,,,,,,,,,,,,,,,,,,,,,,,,,,,,,,,,,,,,,"29.44","0","13","0.00",,,,"56","29.44","CLR:00","29.41","10.00","10","360","17","10",,,,,,,,,,,,,,,,,,,,,,,,,,,,,,,,,,,,,"MET10001/25/20 15:53:01 METAR PASO 260053Z 36009G15KT 10SM CLR M11/M18 A2944 RMK AO2 SLP971 T11061178 TSNO","FM-15","7",,,,,,,,,,,,,,,,,,,,,,,,,,,,"2005-10-30"
"70362125516","2020-01-25T16:53:00","FM-15","7",,,,,,,,,,,,,,,,,,,,,,,,,,,,,,,,,,,,,,"29.44","1","12","0.00",,,,"61","29.44","CLR:00","29.41","10.00","10","360",,"8",,,,,,,,,,,,,,,,,,,,,,,,,,,,,,,,,,,,,"MET09701/25/20 16:53:01 METAR PASO 260153Z 36007KT 10SM CLR M11/M17 A2944 RMK AO2 SLP970 T11111172 TSNO","FM-15","7",,,,,,,,,,,,,,,,,,,,,,,,,,,,"2005-10-30"
"70362125516","2020-01-25T17:53:00","FM-15","7",,,,,,,,,,,,,,,,,,,,,,,,,,,,,,,,,,,,,,"29.44","2","12","0.00",,"+0.01","6","64","29.44","BKN:07 28","29.41","10.00","10","360","18","10",,,,,,,,,,,,,,,,,,,,,,,,,,,,,,,,,,,,,"MET10901/25/20 17:53:01 METAR PASO 260253Z 36009G16KT 10SM BKN028 M11/M17 A2944 RMK AO2 SLP969 T11111167 56005 TSNO","FM-15","7",,,,,,,,,,,,,,,,,,,,,,,,,,,,"2005-10-30"
"70362125516","2020-01-25T18:12:00","FM-16","7",,,,,,,,,,,,,,,,,,,,,,,,,,,,,,,,,,,,,,"29.44","2","12",,,,,"64",,"SCT:04 26","29.41","10.00","10","010",,"9",,,,,,,,,,,,,,,,,,,,,,,,,,,,,,,,,,,,,"MET09301/25/20 18:12:01 SPECI PASO 260312Z 01008KT 10SM SCT026 M11/M17 A2944 RMK AO2 T11111167 TSNO","FM-16","7",,,,,,,,,,,,,,,,,,,,,,,,,,,,"2005-10-30"
"70362125516","2020-01-25T18:40:00","FM-16","7",,,,,,,,,,,,,,,,,,,,,,,,,,,,,,,,,,,,,,"29.44","2","11",,,,,"67",,"BKN:07 28","29.41","10.00","9","010",,"10",,,,,,,,,,,,,,,,,,,,,,,,,,,,,,,,,,,,,"MET09301/25/20 18:40:01 SPECI PASO 260340Z 01009KT 10SM BKN028 M12/M17 A2944 RMK AO2 T11171167 TSNO","FM-16","7",,,,,,,,,,,,,,,,,,,,,,,,,,,,"2005-10-30"
"70362125516","2020-01-25T18:51:00","FM-16","6",,,,,,,,,,,,,,,,,,,,,,,,,,,,,,,,,,,,,,"29.44","1","10",,,,,"67",,"SCT:04 28","29.41","10.00","8","010",,"5",,,,,,,,,,,,,,,,,,,,,,,,,,,,,,,,,,,,,"MET08801/25/20 18:51:03 SPECI PASO 260351Z 01004KT 10SM SCT028 M12/M17 A2944 RMK AO2 TSNO FIBI","FM-16","6",,,,,,,,,,,,,,,,,,,,,,,,,,,,"2005-10-30"
"70362125516","2020-01-25T18:53:00","FM-15","7",,,,,,,,,,,,,,,,,,,,,,,,,,,,,,,,,,,,,,"29.44","1","11","0.00",,,,"64","29.44","SCT:04 28","29.41","10.00","9","360",,"6",,,,,,,,,,,,,,,,,,,,,,,,,,,,,,,,,,,,,"MET10001/25/20 18:53:01 METAR PASO 260353Z 36005KT 10SM SCT028 M12/M17 A2944 RMK AO2 SLP968 T11171172 TSNO","FM-15","7",,,,,,,,,,,,,,,,,,,,,,,,,,,,"2005-10-30"
"70362125516","2020-01-25T19:05:00","FM-16","7",,,,,,,,,,,,,,,,,,,,,,,,,,,,,,,,,,,,,,"29.43","1","11",,,,,"64",,"BKN:07 28","29.40","10.00","9","360",,"7",,,,,,,,,,,,,,,,,,,,,,,,,,,,,,,,,,,,,"MET09301/25/20 19:05:01 SPECI PASO 260405Z 36006KT 10SM BKN028 M12/M17 A2943 RMK AO2 T11171172 TSNO","FM-16","7",,,,,,,,,,,,,,,,,,,,,,,,,,,,"2005-10-30"
"70362125516","2020-01-25T19:14:00","FM-16","7",,,,,,,,,,,,,,,,,,,,,,,,,,,,,,,,,,,,,,"29.44","2","11",,,,,"67",,"SCT:04 26","29.41","10.00","9","010",,"6",,,,,,,,,,,,,,,,,,,,,,,,,,,,,,,,,,,,,"MET09301/25/20 19:14:01 SPECI PASO 260414Z 01005KT 10SM SCT026 M12/M17 A2944 RMK AO2 T11171167 TSNO","FM-16","7",,,,,,,,,,,,,,,,,,,,,,,,,,,,"2005-10-30"
"70362125516","2020-01-25T19:23:00","FM-16","7",,,,,,,,,,,,,,,,,,,,,,,,,,,,,,,,,,,,,,"29.44","1","11",,,,,"64",,"BKN:07 26","29.41","10.00","9","010","16","9",,,,,,,,,,,,,,,,,,,,,,,,,,,,,,,,,,,,,"MET09601/25/20 19:23:01 SPECI PASO 260423Z 01008G14KT 10SM BKN026 M12/M17 A2944 RMK AO2 T11171172 TSNO","FM-16","7",,,,,,,,,,,,,,,,,,,,,,,,,,,,"2005-10-30"
"70362125516","2020-01-25T19:36:00","FM-16","7",,,,,,,,,,,,,,,,,,,,,,,,,,,,,,,,,,,,,,"29.43","0","10",,,,,"63",,"SCT:04 26","29.40","10.00","8","VRB",,"8",,,,,,,,,,,,,,,,,,,,,,,,,,,,,,,,,,,,,"MET09301/25/20 19:36:02 SPECI PASO 260436Z 35007KT 10SM SCT026 M12/M18 A2943 RMK AO2 T11221178 TSNO","FM-16","7",,,,,,,,,,,,,,,,,,,,,,,,,,,,"2005-10-30"
"70362125516","2020-01-25T19:53:00","FM-15","7",,,,,,,,,,,,,,,,,,,,,,,,,,,,,,,,,,,,,,"29.44","0","10","0.00",,,,"63","29.44","CLR:00","29.41","10.00","8","010",,"10",,,,,,,,,,,,,,,,,,,,,,,,,,,,,,,,,,,,,"MET09701/25/20 19:53:02 METAR PASO 260453Z 01009KT 10SM CLR M12/M18 A2944 RMK AO2 SLP968 T11221178 TSNO","FM-15","7",,,,,,,,,,,,,,,,,,,,,,,,,,,,"2005-10-30"
"70362125516","2020-01-25T20:53:00","FM-15","7",,,,,,,,,,,,,,,,,,,,,,,,,,,,,,,,,,,,,,"29.43","-1","10","0.00",,"+0.01","8","61","29.43","FEW:02 28","29.40","10.00","8","010",,"9",,,,,,,,,,,,,,,,,,,,,,,,,,,,,,,,,,,,,"MET11801/25/20 20:53:02 METAR PASO 260553Z 01008KT 10SM FEW028 M12/M18 A2943 RMK AO2 SLP965 T11221183 11106 21128 58004 TSNO","FM-15","7",,,,,,,,,,,,,,,,,,,,,,,,,,,,"2005-10-30"
"70362125516","2020-01-25T21:53:00","FM-15","7",,,,,,,,,,,,,,,,,,,,,,,,,,,,,,,,,,,,,,"29.42","0","10","0.00",,,,"63","29.42","BKN:07 28","29.39","10.00","8","010","17","9",,,,,,,,,,,,,,,,,,,,,,,,,,,,,,,,,,,,,"MET10301/25/20 21:53:02 METAR PASO 260653Z 01008G15KT 10SM BKN028 M12/M18 A2942 RMK AO2 SLP962 T11221178 TSNO","FM-15","7",,,,,,,,,,,,,,,,,,,,,,,,,,,,"2005-10-30"
"70362125516","2020-01-25T22:53:00","FM-15","7",,,,,,,,,,,,,,,,,,,,,,,,,,,,,,,,,,,,,,"29.40","0","10","0.00",,,,"63","29.40","BKN:07 27 BKN:07 90","29.37","10.00","8","360",,"10",,,,,,,,,,,,,,,,,,,,,,,,,,,,,,,,,,,,,"MET10701/25/20 22:53:02 METAR PASO 260753Z 36009KT 10SM BKN027 BKN090 M12/M18 A2940 RMK AO2 SLP957 T11221178 TSNO","FM-15","7",,,,,,,,,,,,,,,,,,,,,,,,,,,,"2005-10-30"
"70362125516","2020-01-25T23:03:00","FM-16","7",,,,,,,,,,,,,,,,,,,,,,,,,,,,,,,,,,,,,,"29.40","-1","10",,,,,"61",,"SCT:04 27 BKN:07 85","29.37","10.00","8","VRB",,"9",,,,,,,,,,,,,,,,,,,,,,,,,,,,,,,,,,,,,"MET10001/25/20 23:03:02 SPECI PASO 260803Z 36008KT 10SM SCT027 BKN085 M12/M18 A2940 RMK AO2 T11221183 TSNO","FM-16","7",,,,,,,,,,,,,,,,,,,,,,,,,,,,"2005-10-30"
"70362125516","2020-01-25T23:53:00","FM-15","7",,,,,,,,,,,,,,,,,,,,,,,,,,,,,,,,,,,,,,"29.40","0","10","0.00",,"+0.03","6","63","29.40","SCT:04 26 OVC:08 80","29.37","10.00","8","VRB",,"9",,,,,,,,,,,,,,,,,,,,,,,,,,,,,,,,,,,,,"MET12301/25/20 23:53:02 METAR PASO 260853Z 36008KT 10SM SCT026 OVC080 M12/M18 A2940 RMK AO2 SLP955 T11221178 410891128 56010 TSNO","FM-15","7",,,,,,,,,,,,,,,,,,,,,,,,,,,,"2005-10-30"
"70362125516","2020-01-25T23:59:00","SOD  ","6",,,,,,,,,,,,,,,,"13",,,"29.42",,"8.0","0","-12.8","52","16","9","010","27","0.00",,,"010","20",,,,,,,,,,,,,,,,,,,,,,,,,,,,,,,,,,,,,,,,,,,,,,,,,,,,,,,,,"SOD73024 HR PRECIPITATION (IN):0.00  24 HR MAX TEMP (F):16 24 HR MAX TEMP TIME (LST):0031 24 HR MIN TEMP (F):9  24 HR MIN TEMP TIME (LST):2145 AVERAGE STATION PRESSURE:29.425 MINIMUM SEA LEVEL PRESSURE:29.40 TIME OF OCCURRENCE:2359 PEAK WIND SPEED (MPH):27  PEAK WIND DIR (DEG):10  PEAK WIND TIME (LST):1623  FASTEST 2MIN SPEED (MPH):20 FASTEST 2MIN DIR (DEG):10  FASTEST 2MIN TIME (LST):1630 AVERAGE WIND SPEED (MPH):8.0  24 HR AVG TEMP (F):13 HEATING DEGREE DAYS:52  COOLING DEGREE DAYS:0   LATEST DAY MAX TEMP (0700-1900 LST):13  LATEST NIGHT MIN TEMP(1900-0800 LST):9  HOURLY INCREMENTAL PRECIPITATION VALUES (IN):.00 0.00 0.00 0.00 0.00 0.00 0.00 0.00 0.00 0.00 0.00 0.00 0.00 0.00 0.00 0.00 0.00 0.00 0.00 0.00 0.00 0.00 0.00 0.00","SOD  ","6",,,,,,,,,,,,,,,,,,,,,,,,,"0933","1707",,"2005-10-30"
"70362125516","2020-01-26T00:53:00","FM-15","7",,,,,,,,,,,,,,,,,,,,,,,,,,,,,,,,,,,,,,"29.38","0","10","0.00",,,,"63","29.38","SCT:04 27 OVC:08 80","29.35","10.00","8","360",,"7",,,,,,,,,,,,,,,,,,,,,,,,,,,,,,,,,,,,,"MET10701/26/20 00:53:02 METAR PASO 260953Z 36006KT 10SM SCT027 OVC080 M12/M18 A2938 RMK AO2 SLP949 T11221178 TSNO","FM-15","7",,,,,,,,,,,,,,,,,,,,,,,,,,,,"2005-10-30"
"70362125516","2020-01-26T01:13:00","FM-16","7",,,,,,,,,,,,,,,,,,,,,,,,,,,,,,,,,,,,,,"29.38","0","10",,,,,"63",,"BKN:07 27 OVC:08 75","29.35","10.00","8","360",,"9",,,,,,,,,,,,,,,,,,,,,,,,,,,,,,,,,,,,,"MET10001/26/20 01:13:02 SPECI PASO 261013Z 36008KT 10SM BKN027 OVC075 M12/M18 A2938 RMK AO2 T11221178 TSNO","FM-16","7",,,,,,,,,,,,,,,,,,,,,,,,,,,,"2005-10-30"
"70362125516","2020-01-26T01:51:00","FM-16","6",,,,,,,,,,,,,,,,,,,,,,,,,,,,,,,,,,,,,,"29.36","0","10",,,,,"61",,"SCT:04 27 OVC:08 70","29.33","10.00","8","360",,"8",,,,,,,,,,,,,,,,,,,,,,,,,,,,,,,,,,,,,"MET09501/26/20 01:51:02 SPECI PASO 261051Z 36007KT 10SM SCT027 OVC070 M12/M18 A2936 RMK AO2 TSNO FIBI","FM-16","6",,,,,,,,,,,,,,,,,,,,,,,,,,,,"2005-10-30"
"70362125516","2020-01-26T01:53:00","FM-15","7",,,,,,,,,,,,,,,,,,,,,,,,,,,,,,,,,,,,,,"29.36","0","10","0.00",,,,"63","29.36","SCT:04 27 BKN:07 70","29.33","10.00","8","VRB",,"7",,,,,,,,,,,,,,,,,,,,,,,,,,,,,,,,,,,,,"MET10701/26/20 01:53:02 METAR PASO 261053Z VRB06KT 10SM SCT027 BKN070 M12/M18 A2936 RMK AO2 SLP942 T11221178 TSNO","FM-15","7",,,,,,,,,,,,,,,,,,,,,,,,,,,,"2005-10-30"
"70362125516","2020-01-26T02:28:00","FM-16","7",,,,,,,,,,,,,,,,,,,,,,,,,,,,,,,,,,,,,,"29.36","1","10",,,,,"67",,"BKN:07 28 BKN:07 70","29.33","10.00","8","360",,"10",,,,,,,,,,,,,,,,,,,,,,,,,,,,,,,,,,,,,"MET10001/26/20 02:28:02 SPECI PASO 261128Z 36009KT 10SM BKN028 BKN070 M12/M17 A2936 RMK AO2 T11221172 TSNO","FM-16","7",,,,,,,,,,,,,,,,,,,,,,,,,,,,"2005-10-30"
"70362125516","2020-01-26T02:44:00","FM-16","7",,,,,,,,,,,,,,,,,,,,,,,,,,,,,,,,,,,,,,"29.35","-1","10",,,,,"61",,"SCT:04 28 OVC:08 70","29.32","10.00","8","020","16","10",,,,,,,,,,,,,,,,,,,,,,,,,,,,,,,,,,,,,"MET10301/26/20 02:44:02 SPECI PASO 261144Z 02009G14KT 10SM SCT028 OVC070 M12/M18 A2935 RMK AO2 T11221183 TSNO","FM-16","7",,,,,,,,,,,,,,,,,,,,,,,,,,,,"2005-10-30"
"70362125516","2020-01-26T02:53:00","FM-15","7",,,,,,,,,,,,,,,,,,,,,,,,,,,,,,,,,,,,,,"29.35","-1","10","0.00",,"+0.05","6","61","29.35","FEW:02 28 OVC:08 70","29.32","10.00","8","VRB","16","8",,,,,,,,,,,,,,,,,,,,,,,,,,,,,,,,,,,,,"MET12801/26/20 02:53:02 METAR PASO 261153Z 01007G14KT 10SM FEW028 OVC070 M12/M18 A2935 RMK AO2 SLP939 T11221183 11117 21128 56016 TSNO","FM-15","7",,,,,,,,,,,,,,,,,,,,,,,,,,,,"2005-10-30"
"70362125516","2020-01-26T03:53:00","FM-15","7",,,,,,,,,,,,,,,,,,,,,,,,,,,,,,,,,,,,,,"29.33","-2","10","0.00",,,,"58","29.33","OVC:08 70","29.30","10.00","8","350",,"9",,,,,,,,,,,,,,,,,,,,,,,,,,,,,,,,,,,,,"MET10001/26/20 03:53:02 METAR PASO 261253Z 35008KT 10SM OVC070 M12/M19 A2933 RMK AO2 SLP933 T11221189 TSNO","FM-15","7",,,,,,,,,,,,,,,,,,,,,,,,,,,,"2005-10-30"
"70362125516","2020-01-26T04:53:00","FM-15","7",,,,,,,,,,,,,,,,,,,,,,,,,,,,,,,,,,,,,,"29.31","-1","10","0.00",,,,"61","29.31","BKN:07 70","29.28","10.00","8","010",,"6",,,,,,,,,,,,,,,,,,,,,,,,,,,,,,,,,,,,,"MET10001/26/20 04:53:02 METAR PASO 261353Z 01005KT 10SM BKN070 M12/M18 A2931 RMK AO2 SLP927 T11221183 TSNO","FM-15","7",,,,,,,,,,,,,,,,,,,,,,,,,,,,"2005-10-30"
"70362125516","2020-01-26T05:53:00","FM-15","7",,,,,,,,,,,,,,,,,,,,,,,,,,,,,,,,,,,,,,"29.30","0","11","0.00",,"+0.05","7","61","29.30","OVC:08 90","29.27","10.00","9","360",,"9",,,,,,,,,,,,,,,,,,,,,,,,,,,,,,,,,,,,,"MET10601/26/20 05:53:02 METAR PASO 261453Z 36008KT 10SM OVC090 M12/M18 A2930 RMK AO2 SLP921 T11171178 57017 TSNO","FM-15","7",,,,,,,,,,,,,,,,,,,,,,,,,,,,"2005-10-30"
"70362125516","2020-01-26T06:53:00","FM-15","7",,,,,,,,,,,,,,,,,,,,,,,,,,,,,,,,,,,,,,"29.29","-2","10","0.00",,,,"58","29.29","OVC:08 90","29.26","10.00","8","340","18","7",,,,,,,,,,,,,,,,,,,,,,,,,,,,,,,,,,,,,"MET10301/26/20 06:53:02 METAR PASO 261553Z 34006G16KT 10SM OVC090 M12/M19 A2929 RMK AO2 SLP918 T11221189 TSNO","FM-15","7",,,,,,,,,,,,,,,,,,,,,,,,,,,,"2005-10-30"
"70362125516","2020-01-26T07:53:00","FM-15","7",,,,,,,,,,,,,,,,,,,,,,,,,,,,,,,,,,,,,,"29.28","-1","10","0.00",,,,"61","29.28","OVC:08 85","29.25","10.00","8","010",,"7",,,,,,,,,,,,,,,,,,,,,,,,,,,,,,,,,,,,,"MET10001/26/20 07:53:02 METAR PASO 261653Z 01006KT 10SM OVC085 M12/M18 A2928 RMK AO2 SLP915 T11221183 TSNO","FM-15","7",,,,,,,,,,,,,,,,,,,,,,,,,,,,"2005-10-30"
"70362125516","2020-01-26T08:53:00","FM-15","7",,,,,,,,,,,,,,,,,,,,,,,,,,,,,,,,,,,,,,"29.27","0","11","0.00",,"+0.03","6","61","29.27","OVC:08 95","29.24","10.00","9","010","17","9",,,,,,,,,,,,,,,,,,,,,,,,,,,,,,,,,,,,,"MET12101/26/20 08:53:02 METAR PASO 261753Z 01008G15KT 10SM OVC095 M12/M18 A2927 RMK AO2 SLP912 T11171178 11117 21128 56009 TSNO","FM-15","7",,,,,,,,,,,,,,,,,,,,,,,,,,,,"2005-10-30"
"70362125516","2020-01-26T09:53:00","FM-15","7",,,,,,,,,,,,,,,,,,,,,,,,,,,,,,,,,,,,,,"29.27","-2","11","0.00",,,,"55","29.27","OVC:08 95","29.24","10.00","8","VRB","18","10",,,,,,,,,,,,,,,,,,,,,,,,,,,,,,,,,,,,,"MET10301/26/20 09:53:02 METAR PASO 261853Z 35009G16KT 10SM OVC095 M12/M19 A2927 RMK AO2 SLP912 T11171189 TSNO","FM-15","7",,,,,,,,,,,,,,,,,,,,,,,,,,,,"2005-10-30"
"70362125516","2020-01-26T10:53:00","FM-15","7",,,,,,,,,,,,,,,,,,,,,,,,,,,,,,,,,,,,,,"29.28","-3","11","0.00",,,,"53","29.28","OVC:08 95","29.25","10.00","8","360","21","10",,,,,,,,,,,,,,,,,,,,,,,,,,,,,,,,,,,,,"MET10301/26/20 10:53:02 METAR PASO 261953Z 36009G18KT 10SM OVC095 M12/M19 A2928 RMK AO2 SLP916 T11171194 TSNO","FM-15","7",,,,,,,,,,,,,,,,,,,,,,,,,,,,"2005-10-30"
"70362125516","2020-01-26T11:53:00","FM-15","7",,,,,,,,,,,,,,,,,,,,,,,,,,,,,,,,,,,,,,"29.29","-3","11","0.00",,"-0.02","3","53","29.29","OVC:08 90","29.26","10.00","8","VRB","24","11",,,,,,,,,,,,,,,,,,,,,,,,,,,,,,,,,,,,,"MET10901/26/20 11:53:02 METAR PASO 262053Z 01010G21KT 10SM OVC090 M12/M19 A2929 RMK AO2 SLP919 T11171194 53007 TSNO","FM-15","7",,,,,,,,,,,,,,,,,,,,,,,,,,,,"2005-10-30"
"70362125516","2020-01-26T12:53:00","FM-15","7",,,,,,,,,,,,,,,,,,,,,,,,,,,,,,,,,,,,,,"29.29","-1","13","0.00",,,,"54","29.29","BKN:07 75 OVC:08 90","29.26","10.00","10","030",,"8",,,,,,,,,,,,,,,,,,,,,,,,,,,,,,,,,,,,,"MET10701/26/20 12:53:02 METAR PASO 262153Z 03007KT 10SM BKN075 OVC090 M11/M18 A2929 RMK AO2 SLP920 T11061183 TSNO","FM-15","7",,,,,,,,,,,,,,,,,,,,,,,,,,,,"2005-10-30"
"70362125516","2020-01-26T13:53:00","FM-15","7",,,,,,,,,,,,,,,,,,,,,,,,,,,,,,,,,,,,,,"29.29","-2","12","0.00",,,,"53","29.28","OVC:08 50","29.26","10.00","9","020","17","9",,,,,,,,,,,,,,,,,,,,,,,,,,,,,,,,,,,,,"MET10301/26/20 13:53:02 METAR PASO 262253Z 02008G15KT 10SM OVC050 M11/M19 A2929 RMK AO2 SLP917 T11111189 TSNO","FM-15","7",,,,,,,,,,,,,,,,,,,,,,,,,,,,"2005-10-30"
"70362125516","2020-01-26T14:53:00","FM-15","7",,,,,,,,,,,,,,,,,,,,,,,,,,,,,,,,,,,,,,"29.28","-1","12","0.00",,"+0.01","8","56","29.28","FEW:02 50 OVC:08 70","29.25","10.00","9","360",,"9",,,,,,,,,,,,,,,,,,,,,,,,,,,,,,,,,,,,,"MET12501/26/20 14:53:02 METAR PASO 262353Z 36008KT 10SM FEW050 OVC070 M11/M18 A2928 RMK AO2 SLP914 T11111183 11100 21117 58005 TSNO","FM-15","7",,,,,,,,,,,,,,,,,,,,,,,,,,,,"2005-10-30"
"70362125516","2020-01-26T15:53:00","FM-15","7",,,,,,,,,,,,,,,,,,,,,,,,,,,,,,,,,,,,,,"29.28","1","12","T",,,,"61","29.28","BKN:07 55 OVC:08 70","29.25","10.00","10","VRB","18","8",,,,,,,,,,,,,,,,,,,,,,,,,,,,,,,,,,,,,"MET12501/26/20 15:53:01 METAR PASO 270053Z 36007G16KT 10SM BKN055 OVC070 M11/M17 A2928 RMK AO2 SNB05E46 SLP914 P0000 T11111172 TSNO","FM-15","7",,,,,,,,,,,,,,,,,,,,,,,,,,,,"2005-10-30"
"70362125516","2020-01-26T16:53:00","FM-15","7",,,,,,,,,,,,,,,,,,,,,,,,,,,,,,,,,,,,,,"29.27","0","12","0.00",,,,"58","29.27","BKN:07 65 BKN:07 80 OVC:08 90","29.24","10.00","10","360","17","10",,,,,,,,,,,,,,,,,,,,,,,,,,,,,,,,,,,,,"MET11701/26/20 16:53:01 METAR PASO 270153Z 36009G15KT 10SM BKN065 BKN080 OVC090 M11/M18 A2927 RMK AO2 SLP913 T11111178 TSNO","FM-15","7",,,,,,,,,,,,,,,,,,,,,,,,,,,,"2005-10-30"
"70362125516","2020-01-26T17:53:00","FM-15","7",,,,,,,,,,,,,,,,,,,,,,,,,,,,,,,,,,,,,,"29.27","0","12","T",,"+0.00","5","58","29.27","OVC:08 55","29.24","10.00","10","VRB","17","9",,,,,,,,,,,,,,,,,,,,,,,,,,,,,,,,,,,,,"MET13001/26/20 17:53:01 METAR PASO 270253Z 36008G15KT 10SM OVC055 M11/M18 A2927 RMK AO2 SNB07E19 SLP913 P0000 60000 T11111178 55001 TSNO","FM-15","7",,,,,,,,,,,,,,,,,,,,,,,,,,,,"2005-10-30"
"70362125516","2020-01-26T18:05:00","FM-16","7",,,,,,,,,,,,,,,,,,,,,,,,,,,,,,,,,,,,,,"29.28","1","11","T","-SN:03 |SN |",,,"64",,"OVC:08 35","29.25","1.75","9","VRB","18","9",,,,,,,,,,,,,,,,,,,,,,,,,,,,,,,,,,,,,"MET11501/26/20 18:05:01 SPECI PASO 270305Z 36008G16KT 1 3/4SM -SN OVC035 M12/M17 A2928 RMK AO2 SNB00 P0000 T11171172 TSNO","FM-16","7",,,,,,,,,,,,,,,,,,,,,,,,,,,,"2005-10-30"
"70362125516","2020-01-26T18:21:00","FM-16","7",,,,,,,,,,,,,,,,,,,,,,,,,,,,,,,,,,,,,,"29.28","2","11","T","-SN:03 |SN |",,,"67",,"BKN:07 31 OVC:08 55","29.25","3.00","9","360",,"8",,,,,,,,,,,,,,,,,,,,,,,,,,,,,,,,,,,,,"MET11501/26/20 18:21:01 SPECI PASO 270321Z 36007KT 3SM -SN BKN031 OVC055 M12/M17 A2928 RMK AO2 SNB00 P0000 T11171167 TSNO","FM-16","7",,,,,,,,,,,,,,,,,,,,,,,,,,,,"2005-10-30"
"70362125516","2020-01-26T18:29:00","FM-16","7",,,,,,,,,,,,,,,,,,,,,,,,,,,,,,,,,,,,,,"29.28","2","11","T","-SN:03 |SN |",,,"67",,"BKN:07 27 OVC:08 55","29.25","5.00","9","VRB",,"9",,,,,,,,,,,,,,,,,,,,,,,,,,,,,,,,,,,,,"MET11501/26/20 18:29:01 SPECI PASO 270329Z 36008KT 5SM -SN BKN027 OVC055 M12/M17 A2928 RMK AO2 SNB00 P0000 T11171167 TSNO","FM-16","7",,,,,,,,,,,,,,,,,,,,,,,,,,,,"2005-10-30"
"70362125516","2020-01-26T18:36:00","FM-16","7",,,,,,,,,,,,,,,,,,,,,,,,,,,,,,,,,,,,,,"29.28","1","11","T","-SN:03 |SN |",,,"64",,"FEW:02 25 BKN:07 41 OVC:08 55","29.25","6.00","9","010",,"11",,,,,,,,,,,,,,,,,,,,,,,,,,,,,,,,,,,,,"MET12201/26/20 18:36:01 SPECI PASO 270336Z 01010KT 6SM -SN FEW025 BKN041 OVC055 M12/M17 A2928 RMK AO2 SNB00 P0000 T11171172 TSNO","FM-16","7",,,,,,,,,,,,,,,,,,,,,,,,,,,,"2005-10-30"
"70362125516","2020-01-26T18:53:00","FM-15","7",,,,,,,,,,,,,,,,,,,,,,,,,,,,,,,,,,,,,,"29.28","2","11","T","-SN:03 |SN |",,,"67","29.28","FEW:02 25 OVC:08 49","29.25","6.00","9","VRB",,"11",,,,,,,,,,,,,,,,,,,,,,,,,,,,,,,,,,,,,"MET12201/26/20 18:53:01 METAR PASO 270353Z 02010KT 6SM -SN FEW025 OVC049 M12/M17 A2928 RMK AO2 SNB00 SLP915 P0000 T11171167 TSNO","FM-15","7",,,,,,,,,,,,,,,,,,,,,,,,,,,,"2005-10-30"
"70362125516","2020-01-26T19:53:00","FM-15","7",,,,,,,,,,,,,,,,,,,,,,,,,,,,,,,,,,,,,,"29.28","0","11","T",,,,"61","29.28","OVC:08 46","29.25","10.00","9","360",,"9",,,,,,,,,,,,,,,,,,,,,,,,,,,,,,,,,,,,,"MET11201/26/20 19:53:02 METAR PASO 270453Z 36008KT 10SM OVC046 M12/M18 A2928 RMK AO2 SNE21 SLP915 P0000 T11171178 TSNO","FM-15","7",,,,,,,,,,,,,,,,,,,,,,,,,,,,"2005-10-30"
"70362125516","2020-01-26T20:53:00","FM-15","7",,,,,,,,,,,,,,,,,,,,,,,,,,,,,,,,,,,,,,"29.28","1","11","T",,"-0.01","1","64","29.28","FEW:02 25 OVC:08 45","29.25","10.00","9","VRB","18","10",,,,,,,,,,,,,,,,,,,,,,,,,,,,,,,,,,,,,"MET14901/26/20 20:53:02 METAR PASO 270553Z 36009G16KT 10SM FEW025 OVC045 M12/M17 A2928 RMK AO2 SNB16E26 SLP915 P0000 60000 T11171172 11111 21122 51002 TSNO","FM-15","7",,,,,,,,,,,,,,,,,,,,,,,,,,,,"2005-10-30"
"70362125516","2020-01-26T21:53:00","FM-15","7",,,,,,,,,,,,,,,,,,,,,,,,,,,,,,,,,,,,,,"29.28","0","9","0.00",,,,"66","29.28","FEW:02 25","29.25","10.00","7","350",,"9",,,,,,,,,,,,,,,,,,,,,,,,,,,,,,,,,,,,,"MET10001/26/20 21:53:02 METAR PASO 270653Z 35008KT 10SM FEW025 M13/M18 A2928 RMK AO2 SLP916 T11281178 TSNO","FM-15","7",,,,,,,,,,,,,,,,,,,,,,,,,,,,"2005-10-30"
"70362125516","2020-01-26T22:53:00","FM-15","7",,,,,,,,,,,,,,,,,,,,,,,,,,,,,,,,,,,,,,"29.28","-1","9","0.00",,,,"64","29.28","SCT:04 22 BKN:07 43","29.25","10.00","7","VRB",,"7",,,,,,,,,,,,,,,,,,,,,,,,,,,,,,,,,,,,,"MET10701/26/20 22:53:02 METAR PASO 270753Z VRB06KT 10SM SCT022 BKN043 M13/M18 A2928 RMK AO2 SLP916 T11281183 TSNO","FM-15","7",,,,,,,,,,,,,,,,,,,,,,,,,,,,"2005-10-30"
"70362125516","2020-01-26T23:53:00","FM-15","7",,,,,,,,,,,,,,,,,,,,,,,,,,,,,,,,,,,,,,"29.28","0","9","0.00",,"-0.00","0","66","29.28","CLR:00","29.25","10.00","7","VRB",,"8",,,,,,,,,,,,,,,,,,,,,,,,,,,,,,,,,,,,,"MET11301/26/20 23:53:02 METAR PASO 270853Z 36007KT 10SM CLR M13/M18 A2928 RMK AO2 SLP915 T11281178 411001128 50000 TSNO","FM-15","7",,,,,,,,,,,,,,,,,,,,,,,,,,,,"2005-10-30"
"70362125516","2020-01-26T23:59:00","SOD  ","6",,,,,,,,,,,,,,,,"12",,,"29.26",,"8.8","0","-13.9","53","14","9","030","24","T",,,"010","16","SN",,,,,,,,,,,,,,,,,,,,,,,,,,,,,,,,,,,,,,,,,,,,,,,,,,,,,,,,"SOD73024 HR PRECIPITATION (IN):T     24 HR MAX TEMP (F):14 24 HR MAX TEMP TIME (LST):1258 24 HR MIN TEMP (F):9  24 HR MIN TEMP TIME (LST):2359 AVERAGE STATION PRESSURE:29.260 MINIMUM SEA LEVEL PRESSURE:29.27 TIME OF OCCURRENCE:2120 PEAK WIND SPEED (MPH):24  PEAK WIND DIR (DEG):30  PEAK WIND TIME (LST):1005  FASTEST 2MIN SPEED (MPH):16 FASTEST 2MIN DIR (DEG):10  FASTEST 2MIN TIME (LST):1242 AVERAGE WIND SPEED (MPH):8.8  24 HR AVG TEMP (F):12 HEATING DEGREE DAYS:53  COOLING DEGREE DAYS:0   LATEST DAY MAX TEMP (0700-1900 LST):14  LATEST NIGHT MIN TEMP(1900-0800 LST):9  HOURLY INCREMENTAL PRECIPITATION VALUES (IN):.00 0.00 0.00 0.00 0.00 0.00 0.00 0.00 0.00 0.00 0.00 0.00 0.00 0.00 0.00 T    0.00 T    T    T    T    0.00 0.00 0.00","SOD  ","6",,,,,,,,,,,,,,,,,,,,,,,,,"0931","1709",,"2005-10-30"
"70362125516","2020-01-27T00:53:00","FM-15","7",,,,,,,,,,,,,,,,,,,,,,,,,,,,,,,,,,,,,,"29.28","1","10","0.00",,,,"67","29.28","FEW:02 21 BKN:07 100 OVC:08 120","29.25","10.00","8","350","16","8",,,,,,,,,,,,,,,,,,,,,,,,,,,,,,,,,,,,,"MET11701/27/20 00:53:02 METAR PASO 270953Z 35007G14KT 10SM FEW021 BKN100 OVC120 M12/M17 A2928 RMK AO2 SLP915 T11221172 TSNO","FM-15","7",,,,,,,,,,,,,,,,,,,,,,,,,,,,"2005-10-30"
"70362125516","2020-01-27T01:37:00","FM-16","7",,,,,,,,,,,,,,,,,,,,,,,,,,,,,,,,,,,,,,"29.27","2","10",,,,,"69",,"BKN:07 22 OVC:08 90","29.24","10.00","8","VRB","17","11",,,,,,,,,,,,,,,,,,,,,,,,,,,,,,,,,,,,,"MET10301/27/20 01:37:02 SPECI PASO 271037Z 36010G15KT 10SM BKN022 OVC090 M12/M17 A2927 RMK AO2 T11221167 TSNO","FM-16","7",,,,,,,,,,,,,,,,,,,,,,,,,,,,"2005-10-30"
"70362125516","2020-01-27T01:53:00","FM-15","7",,,,,,,,,,,,,,,,,,,,,,,,,,,,,,,,,,,,,,"29.27","2","10","0.00",,,,"69","29.27","BKN:07 22 OVC:08 80","29.24","10.00","8","360",,"9",,,,,,,,,,,,,,,,,,,,,,,,,,,,,,,,,,,,,"MET10701/27/20 01:53:02 METAR PASO 271053Z 36008KT 10SM BKN022 OVC080 M12/M17 A2927 RMK AO2 SLP911 T11221167 TSNO","FM-15","7",,,,,,,,,,,,,,,,,,,,,,,,,,,,"2005-10-30"
"70362125516","2020-01-27T02:49:00","FM-16","7",,,,,,,,,,,,,,,,,,,,,,,,,,,,,,,,,,,,,,"29.25","3","10","T","-SN:03 |SN |",,,"72",,"BKN:07 18 OVC:08 23","29.22","1.75","9","360","16","8",,,,,,,,,,,,,,,,,,,,,,,,,,,,,,,,,,,,,"MET11201/27/20 02:49:02 SPECI PASO 271149Z 36007G14KT 1 3/4SM -SN BKN018 OVC023 M12/M16 A2925 RMK AO2 SNB39 P0000 TSNO","FM-16","7",,,,,,,,,,,,,,,,,,,,,,,,,,,,"2005-10-30"
"70362125516","2020-01-27T02:53:00","FM-15","7",,,,,,,,,,,,,,,,,,,,,,,,,,,,,,,,,,,,,,"29.25","4","10","T","-SN:03 |SN |","+0.03","8","76","29.25","SCT:04 14 OVC:08 21","29.22","1.50","9","010",,"10",,,,,,,,,,,,,,,,,,,,,,,,,,,,,,,,,,,,,"MET15001/27/20 02:53:02 METAR PASO 271153Z 01009KT 1 1/2SM -SN SCT014 OVC021 M12/M16 A2925 RMK AO2 SNB39 SLP906 P0000 60000 T11221156 11117 21128 58009 TSNO","FM-15","7",,,,,,,,,,,,,,,,,,,,,,,,,,,,"2005-10-30"
"70362125516","2020-01-27T03:05:00","FM-16","7",,,,,,,,,,,,,,,,,,,,,,,,,,,,,,,,,,,,,,"29.25","5","10","T","-SN:03 |SN |",,,"80",,"BKN:07 12 OVC:08 21","29.22","1.25","9","010","17","11",,,,,,,,,,,,,,,,,,,,,,,,,,,,,,,,,,,,,"MET11601/27/20 03:05:02 SPECI PASO 271205Z 01010G15KT 1 1/4SM -SN BKN012 OVC021 M12/M15 A2925 RMK AO2 P0000 T11221150 TSNO","FM-16","7",,,,,,,,,,,,,,,,,,,,,,,,,,,,"2005-10-30"
"70362125516","2020-01-27T03:53:00","FM-15","7",,,,,,,,,,,,,,,,,,,,,,,,,,,,,,,,,,,,,,"29.24","5","10","T","-SN:03 |SN |",,,"80","29.24","OVC:08 13","29.21","1.25","9","350",,"10",,,,,,,,,,,,,,,,,,,,,,,,,,,,,,,,,,,,,"MET11301/27/20 03:53:02 METAR PASO 271253Z 35009KT 1 1/4SM -SN OVC013 M12/M15 A2924 RMK AO2 SLP903 P0000 T11221150 TSNO","FM-15","7",,,,,,,,,,,,,,,,,,,,,,,,,,,,"2005-10-30"
"70362125516","2020-01-27T04:13:00","FM-16","7",,,,,,,,,,,,,,,,,,,,,,,,,,,,,,,,,,,,,,"29.24","5","10","T","-SN:03 |SN |",,,"80",,"OVC:08 15","29.21","1.75","9","010","20","11",,,,,,,,,,,,,,,,,,,,,,,,,,,,,,,,,,,,,"MET10901/27/20 04:13:02 SPECI PASO 271313Z 01010G17KT 1 3/4SM -SN OVC015 M12/M15 A2924 RMK AO2 P0000 T11221150 TSNO","FM-16","7",,,,,,,,,,,,,,,,,,,,,,,,,,,,"2005-10-30"
"70362125516","2020-01-27T04:30:00","FM-16","7",,,,,,,,,,,,,,,,,,,,,,,,,,,,,,,,,,,,,,"29.23","4","10","T","-SN:03 |SN |",,,"76",,"OVC:08 23","29.20","2.50","9","010","16","10",,,,,,,,,,,,,,,,,,,,,,,,,,,,,,,,,,,,,"MET10901/27/20 04:30:02 SPECI PASO 271330Z 01009G14KT 2 1/2SM -SN OVC023 M12/M16 A2923 RMK AO2 P0000 T11221156 TSNO","FM-16","7",,,,,,,,,,,,,,,,,,,,,,,,,,,,"2005-10-30"
"70362125516","2020-01-27T04:38:00","FM-16","7",,,,,,,,,,,,,,,,,,,,,,,,,,,,,,,,,,,,,,"29.24","4","10","T","-SN:03 |SN |",,,"76",,"SCT:04 20 OVC:08 27","29.21","5.00","9","360",,"10",,,,,,,,,,,,,,,,,,,,,,,,,,,,,,,,,,,,,"MET10901/27/20 04:38:02 SPECI PASO 271338Z 36009KT 5SM -SN SCT020 OVC027 M12/M16 A2924 RMK AO2 P0000 T11221156 TSNO","FM-16","7",,,,,,,,,,,,,,,,,,,,,,,,,,,,"2005-10-30"
"70362125516","2020-01-27T04:51:00","FM-16","6",,,,,,,,,,,,,,,,,,,,,,,,,,,,,,,,,,,,,,"29.23","3","10",,,,,"72",,"SCT:04 21 BKN:07 38 OVC:08 70","29.20","10.00","9","360",,"11",,,,,,,,,,,,,,,,,,,,,,,,,,,,,,,,,,,,,"MET11401/27/20 04:51:02 SPECI PASO 271351Z 36010KT 10SM SCT021 BKN038 OVC070 M12/M16 A2923 RMK AO2 SNE42 P0000 TSNO FIBI","FM-16","6",,,,,,,,,,,,,,,,,,,,,,,,,,,,"2005-10-30"
"70362125516","2020-01-27T04:53:00","FM-15","7",,,,,,,,,,,,,,,,,,,,,,,,,,,,,,,,,,,,,,"29.23","3","10","T",,,,"73","29.23","SCT:04 21 BKN:07 43 OVC:08 70","29.20","10.00","9","360",,"10",,,,,,,,,,,,,,,,,,,,,,,,,,,,,,,,,,,,,"MET12601/27/20 04:53:02 METAR PASO 271353Z 36009KT 10SM SCT021 BKN043 OVC070 M12/M16 A2923 RMK AO2 SNE42 SLP900 P0000 T11221161 TSNO","FM-15","7",,,,,,,,,,,,,,,,,,,,,,,,,,,,"2005-10-30"
"70362125516","2020-01-27T05:08:00","FM-16","7",,,,,,,,,,,,,,,,,,,,,,,,,,,,,,,,,,,,,,"29.24","3","10",,,,,"73",,"BKN:07 23 BKN:07 50 OVC:08 95","29.21","10.00","9","VRB",,"10",,,,,,,,,,,,,,,,,,,,,,,,,,,,,,,,,,,,,"MET10701/27/20 05:08:02 SPECI PASO 271408Z 36009KT 10SM BKN023 BKN050 OVC095 M12/M16 A2924 RMK AO2 T11221161 TSNO","FM-16","7",,,,,,,,,,,,,,,,,,,,,,,,,,,,"2005-10-30"
"70362125516","2020-01-27T05:38:00","FM-16","7",,,,,,,,,,,,,,,,,,,,,,,,,,,,,,,,,,,,,,"29.24","1","10",,,,,"67",,"SCT:04 24 BKN:07 100 OVC:08 120","29.21","10.00","8","350",,"7",,,,,,,,,,,,,,,,,,,,,,,,,,,,,,,,,,,,,"MET10701/27/20 05:38:02 SPECI PASO 271438Z 35006KT 10SM SCT024 BKN100 OVC120 M12/M17 A2924 RMK AO2 T11221172 TSNO","FM-16","7",,,,,,,,,,,,,,,,,,,,,,,,,,,,"2005-10-30"
"70362125516","2020-01-27T05:53:00","FM-15","7",,,,,,,,,,,,,,,,,,,,,,,,,,,,,,,,,,,,,,"29.23","1","10","0.00",,"+0.02","5","67","29.23","FEW:02 25 BKN:07 80 OVC:08 100","29.20","10.00","8","010",,"9",,,,,,,,,,,,,,,,,,,,,,,,,,,,,,,,,,,,,"MET12601/27/20 05:53:02 METAR PASO 271453Z 01008KT 10SM FEW025 BKN080 OVC100 M12/M17 A2923 RMK AO2 SLP900 60000 T11221172 55006 TSNO","FM-15","7",,,,,,,,,,,,,,,,,,,,,,,,,,,,"2005-10-30"
"70362125516","2020-01-27T06:53:00","FM-15","7",,,,,,,,,,,,,,,,,,,,,,,,,,,,,,,,,,,,,,"29.23","1","10","T","-SN:03 |SN |",,,"67","29.23","OVC:08 34","29.20","5.00","8","360",,"9",,,,,,,,,,,,,,,,,,,,,,,,,,,,,,,,,,,,,"MET11501/27/20 06:53:02 METAR PASO 271553Z 36008KT 5SM -SN OVC034 M12/M17 A2923 RMK AO2 SNB50 SLP899 P0000 T11221172 TSNO","FM-15","7",,,,,,,,,,,,,,,,,,,,,,,,,,,,"2005-10-30"
"70362125516","2020-01-27T07:05:00","FM-16","7",,,,,,,,,,,,,,,,,,,,,,,,,,,,,,,,,,,,,,"29.23","3","10","T","-SN:03 |SN |",,,"73",,"OVC:08 30","29.20","2.50","9","010",,"9",,,,,,,,,,,,,,,,,,,,,,,,,,,,,,,,,,,,,"MET10601/27/20 07:05:02 SPECI PASO 271605Z 01008KT 2 1/2SM -SN OVC030 M12/M16 A2923 RMK AO2 P0000 T11221161 TSNO","FM-16","7",,,,,,,,,,,,,,,,,,,,,,,,,,,,"2005-10-30"
"70362125516","2020-01-27T07:13:00","FM-16","7",,,,,,,,,,,,,,,,,,,,,,,,,,,,,,,,,,,,,,"29.23","3","10","T","-SN:03 |SN |",,,"73",,"FEW:02 23 OVC:08 30","29.20","4.00","9","360",,"8",,,,,,,,,,,,,,,,,,,,,,,,,,,,,,,,,,,,,"MET10901/27/20 07:13:02 SPECI PASO 271613Z 36007KT 4SM -SN FEW023 OVC030 M12/M16 A2923 RMK AO2 P0000 T11221161 TSNO","FM-16","7",,,,,,,,,,,,,,,,,,,,,,,,,,,,"2005-10-30"
"70362125516","2020-01-27T07:22:00","FM-16","7",,,,,,,,,,,,,,,,,,,,,,,,,,,,,,,,,,,,,,"29.23","4","10","T","-SN:03 |SN |",,,"76",,"SCT:04 21 OVC:08 28","29.20","3.00","9","020",,"9",,,,,,,,,,,,,,,,,,,,,,,,,,,,,,,,,,,,,"MET10901/27/20 07:22:02 SPECI PASO 271622Z 02008KT 3SM -SN SCT021 OVC028 M12/M16 A2923 RMK AO2 P0000 T11221156 TSNO","FM-16","7",,,,,,,,,,,,,,,,,,,,,,,,,,,,"2005-10-30"
"70362125516","2020-01-27T07:30:00","FM-16","7",,,,,,,,,,,,,,,,,,,,,,,,,,,,,,,,,,,,,,"29.23","3","10","T","-SN:03 |SN |",,,"73",,"SCT:04 21 OVC:08 26","29.20","2.00","9","010",,"8",,,,,,,,,,,,,,,,,,,,,,,,,,,,,,,,,,,,,"MET10901/27/20 07:30:02 SPECI PASO 271630Z 01007KT 2SM -SN SCT021 OVC026 M12/M16 A2923 RMK AO2 P0000 T11221161 TSNO","FM-16","7",,,,,,,,,,,,,,,,,,,,,,,,,,,,"2005-10-30"
"70362125516","2020-01-27T07:53:00","FM-15","7",,,,,,,,,,,,,,,,,,,,,,,,,,,,,,,,,,,,,,"29.23","3","9","T","-SN:03 |SN |",,,"77","29.23","OVC:08 20","29.20","2.50","8","010",,"6",,,,,,,,,,,,,,,,,,,,,,,,,,,,,,,,,,,,,"MET11301/27/20 07:53:02 METAR PASO 271653Z 01005KT 2 1/2SM -SN OVC020 M13/M16 A2923 RMK AO2 SLP899 P0000 T11281161 TSNO","FM-15","7",,,,,,,,,,,,,,,,,,,,,,,,,,,,"2005-10-30"
"70362125516","2020-01-27T08:07:00","FM-16","7",,,,,,,,,,,,,,,,,,,,,,,,,,,,,,,,,,,,,,"29.23","5","10","T","-SN:03 |SN |",,,"80",,"BKN:07 16 OVC:08 20","29.20","1.75","9","030",,"7",,,,,,,,,,,,,,,,,,,,,,,,,,,,,,,,,,,,,"MET11301/27/20 08:07:02 SPECI PASO 271707Z 03006KT 1 3/4SM -SN BKN016 OVC020 M12/M15 A2923 RMK AO2 P0000 T11221150 TSNO","FM-16","7",,,,,,,,,,,,,,,,,,,,,,,,,,,,"2005-10-30"
"70362125516","2020-01-27T08:28:00","FM-16","7",,,,,,,,,,,,,,,,,,,,,,,,,,,,,,,,,,,,,,"29.23","6","10","T","-SN:03 BR:1 |SN |",,,"84",,"OVC:08 13","29.20","1.00","9","VRB",,"8",,,,,,,,,,,,,,,,,,,,,,,,,,,,,,,,,,,,,"MET10501/27/20 08:28:02 SPECI PASO 271728Z 02007KT 1SM -SN BR OVC013 M12/M14 A2923 RMK AO2 P0000 T11221144 TSNO","FM-16","7",,,,,,,,,,,,,,,,,,,,,,,,,,,,"2005-10-30"
"70362125516","2020-01-27T08:51:00","FM-16","6",,,,,,,,,,,,,,,,,,,,,,,,,,,,,,,,,,,,,,"29.23","5","10",,"-SN:03 |SN |",,,"79",,"OVC:08 15","29.20","1.25","9","010",,"10",,,,,,,,,,,,,,,,,,,,,,,,,,,,,,,,,,,,,"MET10101/27/20 08:51:02 SPECI PASO 271751Z 01009KT 1 1/4SM -SN OVC015 M12/M15 A2923 RMK AO2 P0000 TSNO FIBI","FM-16","6",,,,,,,,,,,,,,,,,,,,,,,,,,,,"2005-10-30"
"70362125516","2020-01-27T08:53:00","FM-15","7",,,,,,,,,,,,,,,,,,,,,,,,,,,,,,,,,,,,,,"29.23","5","10","T","-SN:03 |SN |","+0.01","8","80","29.23","OVC:08 15","29.20","1.25","9","010",,"9",,,,,,,,,,,,,,,,,,,,,,,,,,,,,,,,,,,,,"MET13701/27/20 08:53:02 METAR PASO 271753Z 01008KT 1 1/4SM -SN OVC015 M12/M15 A2923 RMK AO2 SLP897 P0000 60000 T11221150 11117 21128 58003 TSNO","FM-15","7",,,,,,,,,,,,,,,,,,,,,,,,,,,,"2005-10-30"
"70362125516","2020-01-27T09:06:00","FM-16","7",,,,,,,,,,,,,,,,,,,,,,,,,,,,,,,,,,,,,,"29.22","5","9","T","-SN:03 BR:1 |SN |",,,"84",,"OVC:08 17","29.19","2.00","8","010","17","8",,,,,,,,,,,,,,,,,,,,,,,,,,,,,,,,,,,,,"MET10801/27/20 09:06:02 SPECI PASO 271806Z 01007G15KT 2SM -SN BR OVC017 M13/M15 A2922 RMK AO2 P0000 T11281150 TSNO","FM-16","7",,,,,,,,,,,,,,,,,,,,,,,,,,,,"2005-10-30"
"70362125516","2020-01-27T09:24:00","FM-16","7",,,,,,,,,,,,,,,,,,,,,,,,,,,,,,,,,,,,,,"29.22","5","10","T","-SN:03 |SN |",,,"80",,"SCT:04 16 OVC:08 23","29.19","4.00","9","020",,"10",,,,,,,,,,,,,,,,,,,,,,,,,,,,,,,,,,,,,"MET10901/27/20 09:24:02 SPECI PASO 271824Z 02009KT 4SM -SN SCT016 OVC023 M12/M15 A2922 RMK AO2 P0000 T11221150 TSNO","FM-16","7",,,,,,,,,,,,,,,,,,,,,,,,,,,,"2005-10-30"
"70362125516","2020-01-27T09:53:00","FM-15","7",,,,,,,,,,,,,,,,,,,,,,,,,,,,,,,,,,,,,,"29.23","6","11","T","-SN:03 |SN |",,,"81","29.23","OVC:08 16","29.20","8.00","10","010",,"9",,,,,,,,,,,,,,,,,,,,,,,,,,,,,,,,,,,,,"MET10901/27/20 09:53:02 METAR PASO 271853Z 01008KT 8SM -SN OVC016 M12/M14 A2923 RMK AO2 SLP898 P0000 T11171144 TSNO","FM-15","7",,,,,,,,,,,,,,,,,,,,,,,,,,,,"2005-10-30"
"70362125516","2020-01-27T10:53:00","FM-15","7",,,,,,,,,,,,,,,,,,,,,,,,,,,,,,,,,,,,,,"29.23","6","11","T",,,,"81","29.23","BKN:07 17 OVC:08 24","29.20","8.00","10","VRB",,"8",,,,,,,,,,,,,,,,,,,,,,,,,,,,,,,,,,,,,"MET11801/27/20 10:53:02 METAR PASO 271953Z 01007KT 8SM BKN017 OVC024 M12/M14 A2923 RMK AO2 SNE04 SLP900 P0000 T11171144 TSNO","FM-15","7",,,,,,,,,,,,,,,,,,,,,,,,,,,,"2005-10-30"
"70362125516","2020-01-27T11:44:00","FM-16","7",,,,,,,,,,,,,,,,,,,,,,,,,,,,,,,,,,,,,,"29.24","2","11",,,,,"67",,"SCT:04 25","29.21","10.00","9","020",,"9",,,,,,,,,,,,,,,,,,,,,,,,,,,,,,,,,,,,,"MET09301/27/20 11:44:02 SPECI PASO 272044Z 02008KT 10SM SCT025 M12/M17 A2924 RMK AO2 T11171167 TSNO","FM-16","7",,,,,,,,,,,,,,,,,,,,,,,,,,,,"2005-10-30"
"70362125516","2020-01-27T11:53:00","FM-15","7",,,,,,,,,,,,,,,,,,,,,,,,,,,,,,,,,,,,,,"29.24","2","12","0.00",,"-0.01","3","64","29.24","BKN:07 27","29.21","10.00","10","020",,"11",,,,,,,,,,,,,,,,,,,,,,,,,,,,,,,,,,,,,"MET11201/27/20 11:53:02 METAR PASO 272053Z 02010KT 10SM BKN027 M11/M17 A2924 RMK AO2 SLP902 60000 T11111167 53004 TSNO","FM-15","7",,,,,,,,,,,,,,,,,,,,,,,,,,,,"2005-10-30"
"70362125516","2020-01-27T12:06:00","FM-16","7",,,,,,,,,,,,,,,,,,,,,,,,,,,,,,,,,,,,,,"29.24","1","11",,,,,"64",,"SCT:04 27","29.21","10.00","9","010","17","9",,,,,,,,,,,,,,,,,,,,,,,,,,,,,,,,,,,,,"MET09601/27/20 12:06:02 SPECI PASO 272106Z 01008G15KT 10SM SCT027 M12/M17 A2924 RMK AO2 T11171172 TSNO","FM-16","7",,,,,,,,,,,,,,,,,,,,,,,,,,,,"2005-10-30"
"70362125516","2020-01-27T12:53:00","FM-15","7",,,,,,,,,,,,,,,,,,,,,,,,,,,,,,,,,,,,,,"29.24","1","12","0.00",,,,"61","29.24","FEW:02 29 SCT:04 85 SCT:04 120","29.21","10.00","10","010","18","13",,,,,,,,,,,,,,,,,,,,,,,,,,,,,,,,,,,,,"MET11701/27/20 12:53:02 METAR PASO 272153Z 01011G16KT 10SM FEW029 SCT085 SCT120 M11/M17 A2924 RMK AO2 SLP902 T11111172 TSNO","FM-15","7",,,,,,,,,,,,,,,,,,,,,,,,,,,,"2005-10-30"
"70362125516","2020-01-27T13:28:00","FM-16","7",,,,,,,,,,,,,,,,,,,,,,,,,,,,,,,,,,,,,,"29.24","2","11",,,,,"67",,"SCT:04 25 BKN:07 29 OVC:08 45","29.21","9.00","9","010",,"11",,,,,,,,,,,,,,,,,,,,,,,,,,,,,,,,,,,,,"MET10601/27/20 13:28:02 SPECI PASO 272228Z 01010KT 9SM SCT025 BKN029 OVC045 M12/M17 A2924 RMK AO2 T11171167 TSNO","FM-16","7",,,,,,,,,,,,,,,,,,,,,,,,,,,,"2005-10-30"
"70362125516","2020-01-27T13:38:00","FM-16","7",,,,,,,,,,,,,,,,,,,,,,,,,,,,,,,,,,,,,,"29.24","4","11","T","-SN:03 |SN |",,,"73",,"SCT:04 19 BKN:07 27 OVC:08 43","29.21","1.75","9","VRB","20","13",,,,,,,,,,,,,,,,,,,,,,,,,,,,,,,,,,,,,"MET12901/27/20 13:38:02 SPECI PASO 272238Z 01011G17KT 1 3/4SM -SN SCT019 BKN027 OVC043 M12/M16 A2924 RMK AO2 SNB31 P0000 T11171156 TSNO","FM-16","7",,,,,,,,,,,,,,,,,,,,,,,,,,,,"2005-10-30"
"70362125516","2020-01-27T13:53:00","FM-15","7",,,,,,,,,,,,,,,,,,,,,,,,,,,,,,,,,,,,,,"29.25","5","10","T","-SN:03 |SN |",,,"80","29.25","BKN:07 17 OVC:08 23","29.22","1.25","9","010","22","11",,,,,,,,,,,,,,,,,,,,,,,,,,,,,,,,,,,,,"MET12901/27/20 13:53:02 METAR PASO 272253Z 01010G19KT 1 1/4SM -SN BKN017 OVC023 M12/M15 A2925 RMK AO2 SNB31 SLP905 P0000 T11221150 TSNO","FM-15","7",,,,,,,,,,,,,,,,,,,,,,,,,,,,"2005-10-30"
"70362125516","2020-01-27T14:11:00","FM-16","7",,,,,,,,,,,,,,,,,,,,,,,,,,,,,,,,,,,,,,"29.25","4","10","T","-SN:03 |SN |",,,"76",,"SCT:04 18 SCT:04 22 OVC:08 29","29.22","2.50","9","360","20","9",,,,,,,,,,,,,,,,,,,,,,,,,,,,,,,,,,,,,"MET12301/27/20 14:11:02 SPECI PASO 272311Z 36008G17KT 2 1/2SM -SN SCT018 SCT022 OVC029 M12/M16 A2925 RMK AO2 P0000 T11221156 TSNO","FM-16","7",,,,,,,,,,,,,,,,,,,,,,,,,,,,"2005-10-30"
"70362125516","2020-01-27T14:23:00","FM-16","7",,,,,,,,,,,,,,,,,,,,,,,,,,,,,,,,,,,,,,"29.24","3","11","T","-SN:03 |SN |",,,"70",,"OVC:08 25","29.21","3.00","9","010","18","9",,,,,,,,,,,,,,,,,,,,,,,,,,,,,,,,,,,,,"MET10501/27/20 14:23:02 SPECI PASO 272323Z 01008G16KT 3SM -SN OVC025 M12/M16 A2924 RMK AO2 P0000 T11171161 TSNO","FM-16","7",,,,,,,,,,,,,,,,,,,,,,,,,,,,"2005-10-30"
"70362125516","2020-01-27T14:53:00","FM-15","7",,,,,,,,,,,,,,,,,,,,,,,,,,,,,,,,,,,,,,"29.24","3","11","T",,"+0.00","8","70","29.24","OVC:08 25","29.21","10.00","9","010","17","8",,,,,,,,,,,,,,,,,,,,,,,,,,,,,,,,,,,,,"MET13901/27/20 14:53:02 METAR PASO 272353Z 01007G15KT 10SM OVC025 M12/M16 A2924 RMK AO2 SNE41 SLP901 P0000 60000 T11171161 11111 21128 58000 TSNO","FM-15","7",,,,,,,,,,,,,,,,,,,,,,,,,,,,"2005-10-30"
"70362125516","2020-01-27T15:51:00","FM-16","7",,,,,,,,,,,,,,,,,,,,,,,,,,,,,,,,,,,,,,"29.24","3","10",,,,,"72",,"OVC:08 30","29.21","10.00","9","010","17","10",,,,,,,,,,,,,,,,,,,,,,,,,,,,,,,,,,,,,"MET09501/27/20 15:51:01 SPECI PASO 280051Z 01009G15KT 10SM OVC030 M12/M16 A2924 RMK TSNO VIA AUTODIAL","FM-16","7",,,,,,,,,,,,,,,,,,,,,,,,,,,,"2005-10-30"
"70362125516","2020-01-27T15:53:00","FM-15","7",,,,,,,,,,,,,,,,,,,,,,,,,,,,,,,,,,,,,,"29.24","3","12","0.00",,,,"67","29.24","OVC:08 30","29.21","10.00","10","010","17","10",,,,,,,,,,,,,,,,,,,,,,,,,,,,,,,,,,,,,"MET11201/27/20 15:53:01 METAR PASO 280053Z 01009G15KT 10SM OVC030 M11/M16 A2924 RMK SLP901 T11111161 TSNO VIA AUTODIAL","FM-15","7",,,,,,,,,,,,,,,,,,,,,,,,,,,,"2005-10-30"
"70362125516","2020-01-27T16:13:00","FM-16","7",,,,,,,,,,,,,,,,,,,,,,,,,,,,,,,,,,,,,,"29.24","3","11",,,,,"70",,"OVC:08 28","29.21","10.00","9","VRB","17","9",,,,,,,,,,,,,,,,,,,,,,,,,,,,,,,,,,,,,"MET09601/27/20 16:13:01 SPECI PASO 280113Z 36008G15KT 10SM OVC028 M12/M16 A2924 RMK AO2 T11171161 TSNO","FM-16","7",,,,,,,,,,,,,,,,,,,,,,,,,,,,"2005-10-30"
"70362125516","2020-01-27T16:53:00","FM-15","7",,,,,,,,,,,,,,,,,,,,,,,,,,,,,,,,,,,,,,"29.25","3","11","0.00",,,,"70","29.25","OVC:08 26","29.22","10.00","9","020","17","11",,,,,,,,,,,,,,,,,,,,,,,,,,,,,,,,,,,,,"MET10301/27/20 16:53:01 METAR PASO 280153Z 02010G15KT 10SM OVC026 M12/M16 A2925 RMK AO2 SLP904 T11171161 TSNO","FM-15","7",,,,,,,,,,,,,,,,,,,,,,,,,,,,"2005-10-30"
"70362125516","2020-01-27T17:53:00","FM-15","7",,,,,,,,,,,,,,,,,,,,,,,,,,,,,,,,,,,,,,"29.25","3","11","0.00",,"-0.01","3","70","29.25","OVC:08 26","29.22","10.00","9","030",,"8",,,,,,,,,,,,,,,,,,,,,,,,,,,,,,,,,,,,,"MET10601/27/20 17:53:01 METAR PASO 280253Z 03007KT 10SM OVC026 M12/M16 A2925 RMK AO2 SLP904 T11171161 53002 TSNO","FM-15","7",,,,,,,,,,,,,,,,,,,,,,,,,,,,"2005-10-30"
"70362125516","2020-01-27T18:33:00","FM-16","7",,,,,,,,,,,,,,,,,,,,,,,,,,,,,,,,,,,,,,"29.25","3","11",,,,,"70",,"SCT:04 30 OVC:08 38","29.22","10.00","9","020",,"6",,,,,,,,,,,,,,,,,,,,,,,,,,,,,,,,,,,,,"MET10001/27/20 18:33:01 SPECI PASO 280333Z 02005KT 10SM SCT030 OVC038 M12/M16 A2925 RMK AO2 T11171161 TSNO","FM-16","7",,,,,,,,,,,,,,,,,,,,,,,,,,,,"2005-10-30"
"70362125516","2020-01-27T18:53:00","FM-15","7",,,,,,,,,,,,,,,,,,,,,,,,,,,,,,,,,,,,,,"29.25","1","10","0.00",,,,"67","29.25","FEW:02 29 BKN:07 36 OVC:08 47","29.22","10.00","8","000",,"0",,,,,,,,,,,,,,,,,,,,,,,,,,,,,,,,,,,,,"MET11401/27/20 18:53:01 METAR PASO 280353Z 00000KT 10SM FEW029 BKN036 OVC047 M12/M17 A2925 RMK AO2 SLP905 T11221172 TSNO","FM-15","7",,,,,,,,,,,,,,,,,,,,,,,,,,,,"2005-10-30"
"70362125516","2020-01-27T19:53:00","FM-15","7",,,,,,,,,,,,,,,,,,,,,,,,,,,,,,,,,,,,,,"29.26","2","10","T","-SN:03 |SN |",,,"69","29.26","OVC:08 36","29.23","8.00","8","000",,"0",,,,,,,,,,,,,,,,,,,,,,,,,,,,,,,,,,,,,"MET11501/27/20 19:53:02 METAR PASO 280453Z 00000KT 8SM -SN OVC036 M12/M17 A2926 RMK AO2 SNB40 SLP907 P0000 T11221167 TSNO","FM-15","7",,,,,,,,,,,,,,,,,,,,,,,,,,,,"2005-10-30"
"70362125516","2020-01-27T20:12:00","FM-16","7",,,,,,,,,,,,,,,,,,,,,,,,,,,,,,,,,,,,,,"29.26","2","10","T","-SN:03 |SN |",,,"69",,"OVC:08 26","29.23","2.50","8","000",,"0",,,,,,,,,,,,,,,,,,,,,,,,,,,,,,,,,,,,,"MET10601/27/20 20:12:02 SPECI PASO 280512Z 00000KT 2 1/2SM -SN OVC026 M12/M17 A2926 RMK AO2 P0000 T11221167 TSNO","FM-16","7",,,,,,,,,,,,,,,,,,,,,,,,,,,,"2005-10-30"
"70362125516","2020-01-27T20:28:00","FM-16","7",,,,,,,,,,,,,,,,,,,,,,,,,,,,,,,,,,,,,,"29.26","4","10","T","-SN:03 |SN |",,,"76",,"OVC:08 20","29.23","1.50","9","000",,"0",,,,,,,,,,,,,,,,,,,,,,,,,,,,,,,,,,,,,"MET10601/27/20 20:28:02 SPECI PASO 280528Z 00000KT 1 1/2SM -SN OVC020 M12/M16 A2926 RMK AO2 P0000 T11221156 TSNO","FM-16","7",,,,,,,,,,,,,,,,,,,,,,,,,,,,"2005-10-30"
"70362125516","2020-01-27T20:53:00","FM-15","7",,,,,,,,,,,,,,,,,,,,,,,,,,,,,,,,,,,,,,"29.26","6","10","T","-SN:03 BR:1 |SN |","-0.02","3","84","29.26","BKN:07 18 BKN:07 30 OVC:08 39","29.23","2.00","9","000",,"0",,,,,,,,,,,,,,,,,,,,,,,,,,,,,,,,,,,,,"MET15001/27/20 20:53:02 METAR PASO 280553Z 00000KT 2SM -SN BR BKN018 BKN030 OVC039 M12/M14 A2926 RMK AO2 SLP910 P0000 60000 T11221144 11111 21122 53006 TSNO","FM-15","7",,,,,,,,,,,,,,,,,,,,,,,,,,,,"2005-10-30"
"70362125516","2020-01-27T21:09:00","FM-16","7",,,,,,,,,,,,,,,,,,,,,,,,,,,,,,,,,,,,,,"29.26","5","9","T","-SN:03 BR:1 |SN |",,,"84",,"BKN:07 18 BKN:07 31 OVC:08 39","29.23","3.00","8","000",,"0",,,,,,,,,,,,,,,,,,,,,,,,,,,,,,,,,,,,,"MET11901/27/20 21:09:02 SPECI PASO 280609Z 00000KT 3SM -SN BR BKN018 BKN031 OVC039 M13/M15 A2926 RMK AO2 P0000 T11281150 TSNO","FM-16","7",,,,,,,,,,,,,,,,,,,,,,,,,,,,"2005-10-30"
"70362125516","2020-01-27T21:37:00","FM-16","7",,,,,,,,,,,,,,,,,,,,,,,,,,,,,,,,,,,,,,"29.27","5","9","T","-SN:03 BR:1 |SN |",,,"84",,"FEW:02 16 BKN:07 41 OVC:08 50","29.24","3.00","8","000",,"0",,,,,,,,,,,,,,,,,,,,,,,,,,,,,,,,,,,,,"MET11901/27/20 21:37:02 SPECI PASO 280637Z 00000KT 3SM -SN BR FEW016 BKN041 OVC050 M13/M15 A2927 RMK AO2 P0000 T11281150 TSNO","FM-16","7",,,,,,,,,,,,,,,,,,,,,,,,,,,,"2005-10-30"
"70362125516","2020-01-27T21:53:00","FM-15","7",,,,,,,,,,,,,,,,,,,,,,,,,,,,,,,,,,,,,,"29.27","5","9","T","-SN:03 BR:1 |SN |",,,"84","29.27","SCT:04 43 OVC:08 50","29.24","5.00","8","170",,"3",,,,,,,,,,,,,,,,,,,,,,,,,,,,,,,,,,,,,"MET11901/27/20 21:53:02 METAR PASO 280653Z 17003KT 5SM -SN BR SCT043 OVC050 M13/M15 A2927 RMK AO2 SLP912 P0000 T11281150 TSNO","FM-15","7",,,,,,,,,,,,,,,,,,,,,,,,,,,,"2005-10-30"
"70362125516","2020-01-27T22:53:00","FM-15","7",,,,,,,,,,,,,,,,,,,,,,,,,,,,,,,,,,,,,,"29.28","5","9","0.00",,,,"84","29.28","FEW:02 20 OVC:08 50","29.25","10.00","8","000",,"0",,,,,,,,,,,,,,,,,,,,,,,,,,,,,,,,,,,,,"MET12101/27/20 22:53:02 METAR PASO 280753Z 00000KT 10SM FEW020 OVC050 M13/M15 A2928 RMK AO2 SNE0655 SLP916 P0000 T11281150 TSNO","FM-15","7",,,,,,,,,,,,,,,,,,,,,,,,,,,,"2005-10-30"
"70362125516","2020-01-27T23:53:00","FM-15","7",,,,,,,,,,,,,,,,,,,,,,,,,,,,,,,,,,,,,,"29.29","5","9","0.00",,"-0.03","3","84","29.29","OVC:08 49","29.26","10.00","8","000",,"0",,,,,,,,,,,,,,,,,,,,,,,,,,,,,,,,,,,,,"MET12201/27/20 23:53:02 METAR PASO 280853Z 00000KT 10SM OVC049 M13/M15 A2929 RMK AO2 SLP919 60000 T11281150 411111128 53010 TSNO","FM-15","7",,,,,,,,,,,,,,,,,,,,,,,,,,,,"2005-10-30"
"70362125516","2020-01-27T23:59:00","SOD  ","6",,,,,,,,,,,,,,,,"11",,,"29.21",,"7.3","0","-14.9","54","12","9","010","24","T",,,"010","16","SN BR",,,,,,,,,,,,,,,,,,,,,,,,,,,,,,,,,,,,,,,,,,,,,,,,,,,,,,,,"SOD73024 HR PRECIPITATION (IN):T     24 HR MAX TEMP (F):12 24 HR MAX TEMP TIME (LST):1733 24 HR MIN TEMP (F):9  24 HR MIN TEMP TIME (LST):2359 AVERAGE STATION PRESSURE:29.210 MINIMUM SEA LEVEL PRESSURE:29.22 TIME OF OCCURRENCE:0938 PEAK WIND SPEED (MPH):24  PEAK WIND DIR (DEG):10  PEAK WIND TIME (LST):1256  FASTEST 2MIN SPEED (MPH):16 FASTEST 2MIN DIR (DEG):10  FASTEST 2MIN TIME (LST):1400 AVERAGE WIND SPEED (MPH):7.3  24 HR AVG TEMP (F):11 HEATING DEGREE DAYS:54  COOLING DEGREE DAYS:0   LATEST DAY MAX TEMP (0700-1900 LST):12  LATEST NIGHT MIN TEMP(1900-0800 LST):9  HOURLY INCREMENTAL PRECIPITATION VALUES (IN):.00 0.00 T    T    T    0.00 T    T    T    T    T    0.00 0.00 T    T    0.00 0.00 0.00 0.00 T    T    T    0.00 0.00","SOD  ","6",,,,,,,,,,,,,,,,,,,,,,,,,"0929","1712",,"2005-10-30"
"70362125516","2020-01-28T00:42:00","FM-16","7",,,,,,,,,,,,,,,,,,,,,,,,,,,,,,,,,,,,,,"29.29","6","10","T","-SN:03 BR:1 |SN |",,,"84",,"BKN:07 23 BKN:07 30 OVC:08 35","29.26","5.00","9","000",,"0",,,,,,,,,,,,,,,,,,,,,,,,,,,,,,,,,,,,,"MET12501/28/20 00:42:02 SPECI PASO 280942Z 00000KT 5SM -SN BR BKN023 BKN030 OVC035 M12/M14 A2929 RMK AO2 SNB35 P0000 T11221144 TSNO","FM-16","7",,,,,,,,,,,,,,,,,,,,,,,,,,,,"2005-10-30"
"70362125516","2020-01-28T00:53:00","FM-15","7",,,,,,,,,,,,,,,,,,,,,,,,,,,,,,,,,,,,,,"29.29","6","11","T","-SN:03 |SN |",,,"81","29.29","BKN:07 25 OVC:08 29","29.26","5.00","10","000",,"0",,,,,,,,,,,,,,,,,,,,,,,,,,,,,,,,,,,,,"MET12201/28/20 00:53:02 METAR PASO 280953Z 00000KT 5SM -SN BKN025 OVC029 M12/M14 A2929 RMK AO2 SNB35 SLP919 P0000 T11171144 TSNO","FM-15","7",,,,,,,,,,,,,,,,,,,,,,,,,,,,"2005-10-30"
"70362125516","2020-01-28T01:53:00","FM-15","7",,,,,,,,,,,,,,,,,,,,,,,,,,,,,,,,,,,,,,"29.30","7","12","T",,,,"80","29.30","OVC:08 26","29.27","10.00","11","180",,"3",,,,,,,,,,,,,,,,,,,,,,,,,,,,,,,,,,,,,"MET11201/28/20 01:53:02 METAR PASO 281053Z 18003KT 10SM OVC026 M11/M14 A2930 RMK AO2 SNE14 SLP921 P0000 T11111139 TSNO","FM-15","7",,,,,,,,,,,,,,,,,,,,,,,,,,,,"2005-10-30"
"70362125516","2020-01-28T02:53:00","FM-15","7",,,,,,,,,,,,,,,,,,,,,,,,,,,,,,,,,,,,,,"29.30","8","13","0.00",,"-0.01","3","81","29.30","BKN:07 23 OVC:08 32","29.27","10.00","12","000",,"0",,,,,,,,,,,,,,,,,,,,,,,,,,,,,,,,,,,,,"MET13101/28/20 02:53:02 METAR PASO 281153Z 00000KT 10SM BKN023 OVC032 M11/M13 A2930 RMK AO2 SLP923 60000 T11061133 11106 21128 53004 TSNO","FM-15","7",,,,,,,,,,,,,,,,,,,,,,,,,,,,"2005-10-30"
"70362125516","2020-01-28T03:30:00","FM-16","7",,,,,,,,,,,,,,,,,,,,,,,,,,,,,,,,,,,,,,"29.30","9","13",,,,,"84",,"SCT:04 22 OVC:08 32","29.27","10.00","12","000",,"0",,,,,,,,,,,,,,,,,,,,,,,,,,,,,,,,,,,,,"MET10001/28/20 03:30:02 SPECI PASO 281230Z 00000KT 10SM SCT022 OVC032 M11/M13 A2930 RMK AO2 T11061128 TSNO","FM-16","7",,,,,,,,,,,,,,,,,,,,,,,,,,,,"2005-10-30"
"70362125516","2020-01-28T03:53:00","FM-15","7",,,,,,,,,,,,,,,,,,,,,,,,,,,,,,,,,,,,,,"29.30","9","13","T","-SN:03 |SN |",,,"84","29.30","OVC:08 32","29.27","7.00","12","000",,"0",,,,,,,,,,,,,,,,,,,,,,,,,,,,,,,,,,,,,"MET11501/28/20 03:53:02 METAR PASO 281253Z 00000KT 7SM -SN OVC032 M11/M13 A2930 RMK AO2 SNB48 SLP922 P0000 T11061128 TSNO","FM-15","7",,,,,,,,,,,,,,,,,,,,,,,,,,,,"2005-10-30"
"70362125516","2020-01-28T04:14:00","FM-16","7",,,,,,,,,,,,,,,,,,,,,,,,,,,,,,,,,,,,,,"29.30","9","13","T","-SN:03 BR:1 |SN |",,,"84",,"BKN:07 23 OVC:08 32","29.27","2.50","12","000",,"0",,,,,,,,,,,,,,,,,,,,,,,,,,,,,,,,,,,,,"MET11601/28/20 04:14:02 SPECI PASO 281314Z 00000KT 2 1/2SM -SN BR BKN023 OVC032 M11/M13 A2930 RMK AO2 P0000 T11061128 TSNO","FM-16","7",,,,,,,,,,,,,,,,,,,,,,,,,,,,"2005-10-30"
"70362125516","2020-01-28T04:23:00","FM-16","7",,,,,,,,,,,,,,,,,,,,,,,,,,,,,,,,,,,,,,"29.30","9","13","T","-SN:03 BR:1 |SN |",,,"84",,"BKN:07 21 OVC:08 32","29.27","1.50","12","000",,"0",,,,,,,,,,,,,,,,,,,,,,,,,,,,,,,,,,,,,"MET11601/28/20 04:23:02 SPECI PASO 281323Z 00000KT 1 1/2SM -SN BR BKN021 OVC032 M11/M13 A2930 RMK AO2 P0000 T11061128 TSNO","FM-16","7",,,,,,,,,,,,,,,,,,,,,,,,,,,,"2005-10-30"
"70362125516","2020-01-28T04:36:00","FM-16","7",,,,,,,,,,,,,,,,,,,,,,,,,,,,,,,,,,,,,,"29.30","9","13","T","-SN:03 BR:1 |SN |",,,"84",,"OVC:08 23","29.27","2.50","12","000",,"0",,,,,,,,,,,,,,,,,,,,,,,,,,,,,,,,,,,,,"MET10901/28/20 04:36:02 SPECI PASO 281336Z 00000KT 2 1/2SM -SN BR OVC023 M11/M13 A2930 RMK AO2 P0000 T11061128 TSNO","FM-16","7",,,,,,,,,,,,,,,,,,,,,,,,,,,,"2005-10-30"
"70362125516","2020-01-28T04:53:00","FM-15","7",,,,,,,,,,,,,,,,,,,,,,,,,,,,,,,,,,,,,,"29.30","9","13","T","-SN:03 BR:1 |SN |",,,"84","29.31","OVC:08 25","29.27","2.50","12","000",,"0",,,,,,,,,,,,,,,,,,,,,,,,,,,,,,,,,,,,,"MET11601/28/20 04:53:02 METAR PASO 281353Z 00000KT 2 1/2SM -SN BR OVC025 M11/M13 A2930 RMK AO2 SLP924 P0000 T11061128 TSNO","FM-15","7",,,,,,,,,,,,,,,,,,,,,,,,,,,,"2005-10-30"
"70362125516","2020-01-28T05:19:00","FM-16","7",,,,,,,,,,,,,,,,,,,,,,,,,,,,,,,,,,,,,,"29.30","9","13","T","-SN:03 BR:1 |SN |",,,"84",,"OVC:08 29","29.27","3.00","12","000",,"0",,,,,,,,,,,,,,,,,,,,,,,,,,,,,,,,,,,,,"MET10501/28/20 05:19:02 SPECI PASO 281419Z 00000KT 3SM -SN BR OVC029 M11/M13 A2930 RMK AO2 P0000 T11061128 TSNO","FM-16","7",,,,,,,,,,,,,,,,,,,,,,,,,,,,"2005-10-30"
"70362125516","2020-01-28T05:27:00","FM-16","7",,,,,,,,,,,,,,,,,,,,,,,,,,,,,,,,,,,,,,"29.30","9","13","T","-SN:03 BR:1 |SN |",,,"84",,"OVC:08 33","29.27","3.00","12","000",,"0",,,,,,,,,,,,,,,,,,,,,,,,,,,,,,,,,,,,,"MET10501/28/20 05:27:02 SPECI PASO 281427Z 00000KT 3SM -SN BR OVC033 M11/M13 A2930 RMK AO2 P0000 T11061128 TSNO","FM-16","7",,,,,,,,,,,,,,,,,,,,,,,,,,,,"2005-10-30"
"70362125516","2020-01-28T05:53:00","FM-15","7",,,,,,,,,,,,,,,,,,,,,,,,,,,,,,,,,,,,,,"29.30","9","12","T","-SN:03 BR:1 |SN |","+0.00","6","87","29.30","OVC:08 42","29.27","4.00","11","000",,"0",,,,,,,,,,,,,,,,,,,,,,,,,,,,,,,,,,,,,"MET12401/28/20 05:53:02 METAR PASO 281453Z 00000KT 4SM -SN BR OVC042 M11/M13 A2930 RMK AO2 SLP923 P0000 60000 T11111128 56001 TSNO","FM-15","7",,,,,,,,,,,,,,,,,,,,,,,,,,,,"2005-10-30"
"70362125516","2020-01-28T06:53:00","FM-15","7",,,,,,,,,,,,,,,,,,,,,,,,,,,,,,,,,,,,,,"29.29","8","12","T",,,,"84","29.29","FEW:02 16 BKN:07 75 OVC:08 90","29.26","10.00","11","000",,"0",,,,,,,,,,,,,,,,,,,,,,,,,,,,,,,,,,,,,"MET12601/28/20 06:53:02 METAR PASO 281553Z 00000KT 10SM FEW016 BKN075 OVC090 M11/M13 A2929 RMK AO2 SNE46 SLP920 P0000 T11111133 TSNO","FM-15","7",,,,,,,,,,,,,,,,,,,,,,,,,,,,"2005-10-30"
"70362125516","2020-01-28T07:53:00","FM-15","7",,,,,,,,,,,,,,,,,,,,,,,,,,,,,,,,,,,,,,"29.28","8","11","0.00",,,,"88","29.28","OVC:08 100","29.25","10.00","10","000",,"0",,,,,,,,,,,,,,,,,,,,,,,,,,,,,,,,,,,,,"MET10001/28/20 07:53:02 METAR PASO 281653Z 00000KT 10SM OVC100 M12/M13 A2928 RMK AO2 SLP916 T11171133 TSNO","FM-15","7",,,,,,,,,,,,,,,,,,,,,,,,,,,,"2005-10-30"
"70362125516","2020-01-28T08:53:00","FM-15","7",,,,,,,,,,,,,,,,,,,,,,,,,,,,,,,,,,,,,,"29.28","4","8","0.00",,"+0.02","6","83","29.28","BKN:07 21","29.25","7.00","7","000",,"0",,,,,,,,,,,,,,,,,,,,,,,,,,,,,,,,,,,,,"MET13501/28/20 08:53:02 METAR PASO 281753Z 00000KT 7SM BKN021 M13/M16 A2928 RMK AO2 SLP915 60000 I1000 I6000 T11331156 11106 21139 56008 TSNO","FM-15","7",,,,,,,,,,,,,,,,,,,,,,,,,,,,"2005-10-30"
"70362125516","2020-01-28T09:53:00","FM-15","7",,,,,,,,,,,,,,,,,,,,,,,,,,,,,,,,,,,,,,"29.27","8","11","0.00",,,,"88","29.27","OVC:08 17","29.24","10.00","10","000",,"0",,,,,,,,,,,,,,,,,,,,,,,,,,,,,,,,,,,,,"MET10001/28/20 09:53:02 METAR PASO 281853Z 00000KT 10SM OVC017 M12/M13 A2927 RMK AO2 SLP913 T11171133 TSNO","FM-15","7",,,,,,,,,,,,,,,,,,,,,,,,,,,,"2005-10-30"
"70362125516","2020-01-28T10:35:00","FM-16","7",,,,,,,,,,,,,,,,,,,,,,,,,,,,,,,,,,,,,,"29.27","10","14",,,,,"84",,"SCT:04 18 BKN:07 55 OVC:08 100","29.24","9.00","13","000",,"0",,,,,,,,,,,,,,,,,,,,,,,,,,,,,,,,,,,,,"MET10601/28/20 10:35:02 SPECI PASO 281935Z 00000KT 9SM SCT018 BKN055 OVC100 M10/M12 A2927 RMK AO2 T11001122 TSNO","FM-16","7",,,,,,,,,,,,,,,,,,,,,,,,,,,,"2005-10-30"
"70362125516","2020-01-28T10:53:00","FM-15","7",,,,,,,,,,,,,,,,,,,,,,,,,,,,,,,,,,,,,,"29.26","11","17","0.00",,,,"77","29.26","BKN:07 55 OVC:08 95","29.23","8.00","15","VRB",,"3",,,,,,,,,,,,,,,,,,,,,,,,,,,,,,,,,,,,,"MET10601/28/20 10:53:02 METAR PASO 281953Z VRB03KT 8SM BKN055 OVC095 M08/M12 A2926 RMK AO2 SLP910 T10831117 TSNO","FM-15","7",,,,,,,,,,,,,,,,,,,,,,,,,,,,"2005-10-30"
"70362125516","2020-01-28T11:53:00","FM-15","7",,,,,,,,,,,,,,,,,,,,,,,,,,,,,,,,,,,,,,"29.24","9","18","T",,"+0.04","8","68","29.24","BKN:07 60 OVC:08 75","29.21","10.00","16","VRB",,"6",,,,,,,,,,,,,,,,,,,,,,,,,,,,,,,,,,,,,"MET13401/28/20 11:53:02 METAR PASO 282053Z VRB05KT 10SM BKN060 OVC075 M08/M13 A2924 RMK AO2 SNB14E23 SLP902 P0000 60000 T10781128 58013 TSNO","FM-15","7",,,,,,,,,,,,,,,,,,,,,,,,,,,,"2005-10-30"
"70362125516","2020-01-28T12:53:00","FM-15","7",,,,,,,,,,,,,,,,,,,,,,,,,,,,,,,,,,,,,,"29.20","10","19","0.00",,,,"68","29.20","OVC:08 80","29.17","10.00","17","VRB",,"5",,,,,,,,,,,,,,,,,,,,,,,,,,,,,,,,,,,,,"MET10001/28/20 12:53:02 METAR PASO 282153Z VRB04KT 10SM OVC080 M07/M12 A2920 RMK AO2 SLP888 T10721122 TSNO","FM-15","7",,,,,,,,,,,,,,,,,,,,,,,,,,,,"2005-10-30"
"70362125516","2020-01-28T13:53:00","FM-15","7",,,,,,,,,,,,,,,,,,,,,,,,,,,,,,,,,,,,,,"29.17","9","19","0.00",,,,"65","29.17","BKN:07 38 OVC:08 80","29.14","10.00","16","VRB",,"3",,,,,,,,,,,,,,,,,,,,,,,,,,,,,,,,,,,,,"MET10701/28/20 13:53:02 METAR PASO 282253Z VRB03KT 10SM BKN038 OVC080 M07/M13 A2917 RMK AO2 SLP877 T10721128 TSNO","FM-15","7",,,,,,,,,,,,,,,,,,,,,,,,,,,,"2005-10-30"
"70362125516","2020-01-28T14:27:00","FM-16","7",,,,,,,,,,,,,,,,,,,,,,,,,,,,,,,,,,,,,,"29.13","10","19","T","-SN:03 |SN |",,,"68",,"BKN:07 28 OVC:08 65","29.10","5.00","17","VRB","17","6",,,,,,,,,,,,,,,,,,,,,,,,,,,,,,,,,,,,,"MET11801/28/20 14:27:02 SPECI PASO 282327Z VRB05G15KT 5SM -SN BKN028 OVC065 M07/M12 A2913 RMK AO2 SNB15 P0000 T10721122 TSNO","FM-16","7",,,,,,,,,,,,,,,,,,,,,,,,,,,,"2005-10-30"
"70362125516","2020-01-28T14:41:00","FM-16","7",,,,,,,,,,,,,,,,,,,,,,,,,,,,,,,,,,,,,,"29.12","10","19","T",,,,"68",,"SCT:04 34 OVC:08 65","29.09","10.00","17","010",,"9",,,,,,,,,,,,,,,,,,,,,,,,,,,,,,,,,,,,,"MET11501/28/20 14:41:02 SPECI PASO 282341Z 01008KT 10SM SCT034 OVC065 M07/M12 A2912 RMK AO2 SNB15E33 P0000 T10721122 TSNO","FM-16","7",,,,,,,,,,,,,,,,,,,,,,,,,,,,"2005-10-30"
"70362125516","2020-01-28T14:53:00","FM-15","7",,,,,,,,,,,,,,,,,,,,,,,,,,,,,,,,,,,,,,"29.12","10","19","T",,"+0.12","8","68","29.12","OVC:08 65","29.09","10.00","17","020",,"15",,,,,,,,,,,,,,,,,,,,,,,,,,,,,,,,,,,,,"MET13901/28/20 14:53:02 METAR PASO 282353Z 02013KT 10SM OVC065 M07/M12 A2912 RMK AO2 SNB15E33 SLP860 P0000 60000 T10721122 11072 21139 58042 TSNO","FM-15","7",,,,,,,,,,,,,,,,,,,,,,,,,,,,"2005-10-30"
"70362125516","2020-01-28T15:53:00","FM-15","7",,,,,,,,,,,,,,,,,,,,,,,,,,,,,,,,,,,,,,"29.07","11","19","0.00",,,,"71","29.07","BKN:07 38 BKN:07 50 OVC:08 75","29.04","10.00","17","VRB",,"6",,,,,,,,,,,,,,,,,,,,,,,,,,,,,,,,,,,,,"MET12101/28/20 15:53:01 METAR PASO 290053Z VRB05KT 10SM BKN038 BKN050 OVC075 M07/M12 A2907 RMK AO2 PRESFR SLP844 T10721117 TSNO","FM-15","7",,,,,,,,,,,,,,,,,,,,,,,,,,,,"2005-10-30"
"70362125516","2020-01-28T16:11:00","FM-16","7",,,,,,,,,,,,,,,,,,,,,,,,,,,,,,,,,,,,,,"29.06","12","20","T","-SN:03 |SN |",,,"71",,"OVC:08 28","29.03","2.50","18","360",,"9",,,,,,,,,,,,,,,,,,,,,,,,,,,,,,,,,,,,,"MET11201/28/20 16:11:01 SPECI PASO 290111Z 36008KT 2 1/2SM -SN OVC028 M07/M11 A2906 RMK AO2 SNB02 P0000 T10671111 TSNO","FM-16","7",,,,,,,,,,,,,,,,,,,,,,,,,,,,"2005-10-30"
"70362125516","2020-01-28T16:21:00","FM-16","7",,,,,,,,,,,,,,,,,,,,,,,,,,,,,,,,,,,,,,"29.05","13","20","T","-SN:03 |SN |",,,"74",,"OVC:08 22","29.02","1.50","18","010",,"9",,,,,,,,,,,,,,,,,,,,,,,,,,,,,,,,,,,,,"MET11201/28/20 16:21:01 SPECI PASO 290121Z 01008KT 1 1/2SM -SN OVC022 M07/M11 A2905 RMK AO2 SNB02 P0000 T10671106 TSNO","FM-16","7",,,,,,,,,,,,,,,,,,,,,,,,,,,,"2005-10-30"
"70362125516","2020-01-28T16:40:00","FM-16","7",,,,,,,,,,,,,,,,,,,,,,,,,,,,,,,,,,,,,,"29.04","13","20","T","-SN:03 |SN |",,,"74",,"OVC:08 26","29.01","2.50","18","VRB",,"5",,,,,,,,,,,,,,,,,,,,,,,,,,,,,,,,,,,,,"MET11201/28/20 16:40:01 SPECI PASO 290140Z VRB04KT 2 1/2SM -SN OVC026 M07/M11 A2904 RMK AO2 SNB02 P0000 T10671106 TSNO","FM-16","7",,,,,,,,,,,,,,,,,,,,,,,,,,,,"2005-10-30"
"70362125516","2020-01-28T16:53:00","FM-15","7",,,,,,,,,,,,,,,,,,,,,,,,,,,,,,,,,,,,,,"29.03","13","19","T","-SN:03 |SN |",,,"77","29.03","FEW:02 21 OVC:08 28","29.00","2.50","17","VRB",,"5",,,,,,,,,,,,,,,,,,,,,,,,,,,,,,,,,,,,,"MET12601/28/20 16:53:01 METAR PASO 290153Z VRB04KT 2 1/2SM -SN FEW021 OVC028 M07/M11 A2903 RMK AO2 SNB02 SLP830 P0000 T10721106 TSNO","FM-15","7",,,,,,,,,,,,,,,,,,,,,,,,,,,,"2005-10-30"
"70362125516","2020-01-28T17:04:00","FM-16","7",,,,,,,,,,,,,,,,,,,,,,,,,,,,,,,,,,,,,,"29.02","13","19","T","-SN:03 |SN |",,,"77",,"OVC:08 24","28.99","3.00","17","VRB",,"6",,,,,,,,,,,,,,,,,,,,,,,,,,,,,,,,,,,,,"MET10201/28/20 17:04:01 SPECI PASO 290204Z VRB05KT 3SM -SN OVC024 M07/M11 A2902 RMK AO2 P0000 T10721106 TSNO","FM-16","7",,,,,,,,,,,,,,,,,,,,,,,,,,,,"2005-10-30"
"70362125516","2020-01-28T17:51:00","FM-16","6",,,,,,,,,,,,,,,,,,,,,,,,,,,,,,,,,,,,,,"28.98","14","19",,"-SN:03 |SN |",,,"79",,"OVC:08 27","28.95","2.50","18","VRB",,"9",,,,,,,,,,,,,,,,,,,,,,,,,,,,,,,,,,,,,"MET10101/28/20 17:51:03 SPECI PASO 290251Z 36008KT 2 1/2SM -SN OVC027 M07/M10 A2898 RMK AO2 P0000 TSNO FIBI","FM-16","6",,,,,,,,,,,,,,,,,,,,,,,,,,,,"2005-10-30"
"70362125516","2020-01-28T17:53:00","FM-15","7",,,,,,,,,,,,,,,,,,,,,,,,,,,,,,,,,,,,,,"28.97","14","19","T","-SN:03 |SN |","+0.14","8","81","28.97","OVC:08 27","28.94","2.50","18","360",,"8",,,,,,,,,,,,,,,,,,,,,,,,,,,,,,,,,,,,,"MET12501/28/20 17:53:01 METAR PASO 290253Z 36007KT 2 1/2SM -SN OVC027 M07/M10 A2897 RMK AO2 SLP812 P0000 60000 T10721100 58048 TSNO","FM-15","7",,,,,,,,,,,,,,,,,,,,,,,,,,,,"2005-10-30"
"70362125516","2020-01-28T18:11:00","FM-16","7",,,,,,,,,,,,,,,,,,,,,,,,,,,,,,,,,,,,,,"28.96","14","19","T","-SN:03 |SN |",,,"81",,"OVC:08 19","28.93","1.25","18","360",,"9",,,,,,,,,,,,,,,,,,,,,,,,,,,,,,,,,,,,,"MET10601/28/20 18:11:01 SPECI PASO 290311Z 36008KT 1 1/4SM -SN OVC019 M07/M10 A2896 RMK AO2 P0000 T10721100 TSNO","FM-16","7",,,,,,,,,,,,,,,,,,,,,,,,,,,,"2005-10-30"
"70362125516","2020-01-28T18:25:00","FM-16","7",,,,,,,,,,,,,,,,,,,,,,,,,,,,,,,,,,,,,,"28.95","15","19","T","-SN:03 BR:1 |SN |",,,"84",,"VV:09 12","28.92","0.75","18","360",,"10",,,,,,,,,,,,,,,,,,,,,,,,,,,,,,,,,,,,,"MET10601/28/20 18:25:01 SPECI PASO 290325Z 36009KT 3/4SM -SN BR VV012 M07/M09 A2895 RMK AO2 P0000 T10721094 TSNO","FM-16","7",,,,,,,,,,,,,,,,,,,,,,,,,,,,"2005-10-30"
"70362125516","2020-01-28T18:40:00","FM-16","7",,,,,,,,,,,,,,,,,,,,,,,,,,,,,,,,,,,,,,"28.93","15","19","T","-SN:03 BR:1 |SN |",,,"84",,"VV:09 9","28.90","0.75","18","010",,"11",,,,,,,,,,,,,,,,,,,,,,,,,,,,,,,,,,,,,"MET10601/28/20 18:40:01 SPECI PASO 290340Z 01010KT 3/4SM -SN BR VV009 M07/M09 A2893 RMK AO2 P0000 T10721094 TSNO","FM-16","7",,,,,,,,,,,,,,,,,,,,,,,,,,,,"2005-10-30"
"70362125516","2020-01-28T18:53:00","FM-15","7",,,,,,,,,,,,,,,,,,,,,,,,,,,,,,,,,,,,,,"28.92","15","19","T","-SN:03 BR:1 |SN |",,,"84","28.92","VV:09 9","28.89","0.75","18","010",,"14",,,,,,,,,,,,,,,,,,,,,,,,,,,,,,,,,,,,,"MET11301/28/20 18:53:01 METAR PASO 290353Z 01012KT 3/4SM -SN BR VV009 M07/M09 A2892 RMK AO2 SLP795 P0000 T10721094 TSNO","FM-15","7",,,,,,,,,,,,,,,,,,,,,,,,,,,,"2005-10-30"
"70362125516","2020-01-28T19:12:00","FM-16","7",,,,,,,,,,,,,,,,,,,,,,,,,,,,,,,,,,,,,,"28.91","14","19","T","-SN:03 |SN |",,,"81",,"VV:09 11","28.88","0.75","18","360",,"10",,,,,,,,,,,,,,,,,,,,,,,,,,,,,,,,,,,,,"MET10301/28/20 19:12:01 SPECI PASO 290412Z 36009KT 3/4SM -SN VV011 M07/M10 A2891 RMK AO2 P0000 T10721100 TSNO","FM-16","7",,,,,,,,,,,,,,,,,,,,,,,,,,,,"2005-10-30"
"70362125516","2020-01-28T19:20:00","FM-16","7",,,,,,,,,,,,,,,,,,,,,,,,,,,,,,,,,,,,,,"28.90","14","19","T","-SN:03 |SN |",,,"81",,"VV:09 12","28.87","1.00","18","360",,"10",,,,,,,,,,,,,,,,,,,,,,,,,,,,,,,,,,,,,"MET10101/28/20 19:20:01 SPECI PASO 290420Z 36009KT 1SM -SN VV012 M07/M10 A2890 RMK AO2 P0000 T10721100 TSNO","FM-16","7",,,,,,,,,,,,,,,,,,,,,,,,,,,,"2005-10-30"
"70362125516","2020-01-28T19:46:00","FM-16","7",,,,,,,,,,,,,,,,,,,,,,,,,,,,,,,,,,,,,,"28.88","15","19","T","-SN:03 BR:1 |SN |",,,"84",,"VV:09 12","28.85","0.75","18","VRB",,"9",,,,,,,,,,,,,,,,,,,,,,,,,,,,,,,,,,,,,"MET10601/28/20 19:46:02 SPECI PASO 290446Z 36008KT 3/4SM -SN BR VV012 M07/M09 A2888 RMK AO2 P0000 T10721094 TSNO","FM-16","7",,,,,,,,,,,,,,,,,,,,,,,,,,,,"2005-10-30"
"70362125516","2020-01-28T19:53:00","FM-15","7",,,,,,,,,,,,,,,,,,,,,,,,,,,,,,,,,,,,,,"28.87","14","19","T","-SN:03 |SN |",,,"81","28.87","VV:09 11","28.84","0.75","18","360","17","10",,,,,,,,,,,,,,,,,,,,,,,,,,,,,,,,,,,,,"MET12201/28/20 19:53:02 METAR PASO 290453Z 36009G15KT 3/4SM -SN VV011 M07/M10 A2887 RMK SLP778 P0000 T10721100 TSNO VIA AUTODIAL","FM-15","7",,,,,,,,,,,,,,,,,,,,,,,,,,,,"2005-10-30"
"70362125516","2020-01-28T20:02:00","FM-16","7",,,,,,,,,,,,,,,,,,,,,,,,,,,,,,,,,,,,,,"28.87","14","19","T","-SN:03 |SN |",,,"81",,"OVC:08 14","28.84","1.25","18","360","17","9",,,,,,,,,,,,,,,,,,,,,,,,,,,,,,,,,,,,,"MET10901/28/20 20:02:02 SPECI PASO 290502Z 36008G15KT 1 1/4SM -SN OVC014 M07/M10 A2887 RMK AO2 P0000 T10721100 TSNO","FM-16","7",,,,,,,,,,,,,,,,,,,,,,,,,,,,"2005-10-30"
"70362125516","2020-01-28T20:09:00","FM-16","7",,,,,,,,,,,,,,,,,,,,,,,,,,,,,,,,,,,,,,"28.86","14","19","T","-SN:03 |SN |",,,"81",,"OVC:08 16","28.83","1.25","18","010",,"10",,,,,,,,,,,,,,,,,,,,,,,,,,,,,,,,,,,,,"MET10601/28/20 20:09:02 SPECI PASO 290509Z 01009KT 1 1/4SM -SN OVC016 M07/M10 A2886 RMK AO2 P0000 T10721100 TSNO","FM-16","7",,,,,,,,,,,,,,,,,,,,,,,,,,,,"2005-10-30"
"70362125516","2020-01-28T20:38:00","FM-16","7",,,,,,,,,,,,,,,,,,,,,,,,,,,,,,,,,,,,,,"28.84","14","18","T","-SN:03 BR:1 |SN |",,,"84",,"OVC:08 14","28.81","1.25","17","010","17","10",,,,,,,,,,,,,,,,,,,,,,,,,,,,,,,,,,,,,"MET11201/28/20 20:38:02 SPECI PASO 290538Z 01009G15KT 1 1/4SM -SN BR OVC014 M08/M10 A2884 RMK AO2 P0000 T10781100 TSNO","FM-16","7",,,,,,,,,,,,,,,,,,,,,,,,,,,,"2005-10-30"
"70362125516","2020-01-28T20:51:00","FM-16","6",,,,,,,,,,,,,,,,,,,,,,,,,,,,,,,,,,,,,,"28.83","12","18",,"-SN:03 |SN |",,,"79",,"OVC:08 15","28.80","1.50","16","360",,"8",,,,,,,,,,,,,,,,,,,,,,,,,,,,,,,,,,,,,"MET10101/28/20 20:51:03 SPECI PASO 290551Z 36007KT 1 1/2SM -SN OVC015 M08/M11 A2883 RMK AO2 P0000 TSNO FIBI","FM-16","6",,,,,,,,,,,,,,,,,,,,,,,,,,,,"2005-10-30"
"70362125516","2020-01-28T20:53:00","FM-15","7",,,,,,,,,,,,,,,,,,,,,,,,,,,,,,,,,,,,,,"28.82","13","18","T","-SN:03 |SN |","+0.15","8","81","28.82","OVC:08 15","28.79","1.50","17","360",,"8",,,,,,,,,,,,,,,,,,,,,,,,,,,,,,,,,,,,,"MET13701/28/20 20:53:02 METAR PASO 290553Z 36007KT 1 1/2SM -SN OVC015 M08/M11 A2882 RMK AO2 SLP761 P0000 60000 T10781106 11067 21078 58050 TSNO","FM-15","7",,,,,,,,,,,,,,,,,,,,,,,,,,,,"2005-10-30"
"70362125516","2020-01-28T21:21:00","FM-16","7",,,,,,,,,,,,,,,,,,,,,,,,,,,,,,,,,,,,,,"28.80","13","18","T","-SN:03 |SN |",,,"81",,"VV:09 13","28.77","0.75","17","VRB","23","10",,,,,,,,,,,,,,,,,,,,,,,,,,,,,,,,,,,,,"MET10601/28/20 21:21:02 SPECI PASO 290621Z 36009G20KT 3/4SM -SN VV013 M08/M11 A2880 RMK AO2 P0000 T10781106 TSNO","FM-16","7",,,,,,,,,,,,,,,,,,,,,,,,,,,,"2005-10-30"
"70362125516","2020-01-28T21:45:00","FM-16","7",,,,,,,,,,,,,,,,,,,,,,,,,,,,,,,,,,,,,,"28.78","13","18","T","-SN:03 |SN |",,,"81",,"VV:09 9","28.75","0.75","17","010","22","16",,,,,,,,,,,,,,,,,,,,,,,,,,,,,,,,,,,,,"MET10601/28/20 21:45:02 SPECI PASO 290645Z 01014G19KT 3/4SM -SN VV009 M08/M11 A2878 RMK AO2 P0000 T10781106 TSNO","FM-16","7",,,,,,,,,,,,,,,,,,,,,,,,,,,,"2005-10-30"
"70362125516","2020-01-28T21:51:00","FM-16","6",,,,,,,,,,,,,,,,,,,,,,,,,,,,,,,,,,,,,,"28.78","12","18",,"-SN:03 |SN |",,,"79",,"VV:09 10","28.75","0.75","16","020",,"16",,,,,,,,,,,,,,,,,,,,,,,,,,,,,,,,,,,,,"MET09801/28/20 21:51:03 SPECI PASO 290651Z 02014KT 3/4SM -SN VV010 M08/M11 A2878 RMK AO2 P0000 TSNO FIBI","FM-16","6",,,,,,,,,,,,,,,,,,,,,,,,,,,,"2005-10-30"
"70362125516","2020-01-28T21:53:00","FM-15","7",,,,,,,,,,,,,,,,,,,,,,,,,,,,,,,,,,,,,,"28.78","13","18","T","-SN:03 |SN |",,,"81","28.78","VV:09 10","28.75","0.75","17","020","22","14",,,,,,,,,,,,,,,,,,,,,,,,,,,,,,,,,,,,,"MET11301/28/20 21:53:02 METAR PASO 290653Z 02012G19KT 3/4SM -SN VV010 M08/M11 A2878 RMK AO2 SLP745 P0000 T10781106 TSNO","FM-15","7",,,,,,,,,,,,,,,,,,,,,,,,,,,,"2005-10-30"
"70362125516","2020-01-28T22:44:00","FM-16","7",,,,,,,,,,,,,,,,,,,,,,,,,,,,,,,,,,,,,,"28.75","12","17","T","-SN:03 |SN |",,,"80",,"VV:09 11","28.72","1.00","16","020","23","11",,,,,,,,,,,,,,,,,,,,,,,,,,,,,,,,,,,,,"MET10401/28/20 22:44:02 SPECI PASO 290744Z 02010G20KT 1SM -SN VV011 M08/M11 A2875 RMK AO2 P0000 T10831111 TSNO","FM-16","7",,,,,,,,,,,,,,,,,,,,,,,,,,,,"2005-10-30"
"70362125516","2020-01-28T22:53:00","FM-15","7",,,,,,,,,,,,,,,,,,,,,,,,,,,,,,,,,,,,,,"28.74","11","17","T","-SN:03 |SN |",,,"77","28.74","VV:09 11","28.71","1.00","15","360","20","10",,,,,,,,,,,,,,,,,,,,,,,,,,,,,,,,,,,,,"MET11101/28/20 22:53:02 METAR PASO 290753Z 36009G17KT 1SM -SN VV011 M08/M12 A2874 RMK AO2 SLP733 P0000 T10831117 TSNO","FM-15","7",,,,,,,,,,,,,,,,,,,,,,,,,,,,"2005-10-30"
"70362125516","2020-01-28T23:11:00","FM-16","7",,,,,,,,,,,,,,,,,,,,,,,,,,,,,,,,,,,,,,"28.73","12","17","T","-SN:03 |SN |",,,"80",,"VV:09 11","28.70","0.75","16","VRB","22","13",,,,,,,,,,,,,,,,,,,,,,,,,,,,,,,,,,,,,"MET10601/28/20 23:11:02 SPECI PASO 290811Z 02011G19KT 3/4SM -SN VV011 M08/M11 A2873 RMK AO2 P0000 T10831111 TSNO","FM-16","7",,,,,,,,,,,,,,,,,,,,,,,,,,,,"2005-10-30"
"70362125516","2020-01-28T23:36:00","FM-16","7",,,,,,,,,,,,,,,,,,,,,,,,,,,,,,,,,,,,,,"28.71","11","16","T","-SN:03 |SN |",,,"80",,"VV:09 12","28.68","1.00","15","030","21","11",,,,,,,,,,,,,,,,,,,,,,,,,,,,,,,,,,,,,"MET10401/28/20 23:36:02 SPECI PASO 290836Z 03010G18KT 1SM -SN VV012 M09/M12 A2871 RMK AO2 P0000 T10891117 TSNO","FM-16","7",,,,,,,,,,,,,,,,,,,,,,,,,,,,"2005-10-30"
"70362125516","2020-01-28T23:49:00","FM-16","7",,,,,,,,,,,,,,,,,,,,,,,,,,,,,,,,,,,,,,"28.70","10","16","T","-SN:03 |SN |",,,"79",,"VV:09 11","28.67","0.75","14","VRB","20","11",,,,,,,,,,,,,,,,,,,,,,,,,,,,,,,,,,,,,"MET09601/28/20 23:49:02 SPECI PASO 290849Z 01010G17KT 3/4SM -SN VV011 M09/M12 A2870 RMK AO2 P0000 TSNO","FM-16","7",,,,,,,,,,,,,,,,,,,,,,,,,,,,"2005-10-30"
"70362125516","2020-01-28T23:53:00","FM-15","7",,,,,,,,,,,,,,,,,,,,,,,,,,,,,,,,,,,,,,"28.69","11","16","T","-SN:03 |SN |","+0.08","6","80","28.69","VV:09 11","28.66","0.75","15","VRB","23","11",,,,,,,,,,,,,,,,,,,,,,,,,,,,,,,,,,,,,"MET13501/28/20 23:53:02 METAR PASO 290853Z 02010G20KT 3/4SM -SN VV011 M09/M12 A2869 RMK AO2 SLP717 P0000 60000 T10891117 410671139 56028 TSNO","FM-15","7",,,,,,,,,,,,,,,,,,,,,,,,,,,,"2005-10-30"
"70362125516","2020-01-28T23:59:00","SOD  ","6",,,,,,,,,,,,,,,,"14",,,"29.10",,"5.1","0","-12.0","51","20","7","020","27","T",,,"010","20","SN BR",,,,,,,,,,,,,,,,,,,,,,,,,,,,,,,,,,,,,,,,,,,,,,,,,,,,,,,,"SOD72724 HR PRECIPITATION (IN):T     24 HR MAX TEMP (F):20 24 HR MAX TEMP TIME (LST):1836 24 HR MIN TEMP (F):7  24 HR MIN TEMP TIME (LST):0912 AVERAGE STATION PRESSURE:29.095 MINIMUM SEA LEVEL PRESSURE:28.69 TIME OF OCCURRENCE:2359 PEAK WIND SPEED (MPH):27  PEAK WIND DIR (DEG):20  PEAK WIND TIME (LST):2135  FASTEST 2MIN SPEED (MPH):20 FASTEST 2MIN DIR (DEG):10  FASTEST 2MIN TIME (LST):2209 AVERAGE WIND SPEED (MPH):5.1  24 HR AVG TEMP (F):14 HEATING DEGREE DAYS:51  COOLING DEGREE DAYS:0   LATEST DAY MAX TEMP (0700-1900 LST):20  LATEST NIGHT MIN TEMP(1900-0800 LST):9  HOURLY INCREMENTAL PRECIPITATION VALUES (IN):    T    0.00 T    T    T    T    0.00 0.00 0.00 0.00 T    0.00 0.00 T    0.00 T    T    T    T    T    T    T    T","SOD  ","6",,,,,,,,,,,,,,,,,,,,,,,,,"0927","1714",,"2005-10-30"
"70362125516","2020-01-29T00:53:00","FM-15","7",,,,,,,,,,,,,,,,,,,,,,,,,,,,,,,,,,,,,,"28.66","12","17","T","-SN:03 |SN |",,,"80","28.66","VV:09 10","28.63","0.75","16","VRB","17","7",,,,,,,,,,,,,,,,,,,,,,,,,,,,,,,,,,,,,"MET11301/29/20 00:53:02 METAR PASO 290953Z VRB06G15KT 3/4SM -SN VV010 M08/M11 A2866 RMK AO2 SLP705 P0000 T10831111 TSNO","FM-15","7",,,,,,,,,,,,,,,,,,,,,,,,,,,,"2005-10-30"
"70362125516","2020-01-29T01:03:00","FM-16","7",,,,,,,,,,,,,,,,,,,,,,,,,,,,,,,,,,,,,,"28.65","12","17","T","-SN:03 |SN |",,,"80",,"VV:09 9","28.62","0.75","16","VRB","17","10",,,,,,,,,,,,,,,,,,,,,,,,,,,,,,,,,,,,,"MET10601/29/20 01:03:02 SPECI PASO 291003Z 02009G15KT 3/4SM -SN VV009 M08/M11 A2865 RMK AO2 P0000 T10831111 TSNO","FM-16","7",,,,,,,,,,,,,,,,,,,,,,,,,,,,"2005-10-30"
"70362125516","2020-01-29T01:53:00","FM-15","7",,,,,,,,,,,,,,,,,,,,,,,,,,,,,,,,,,,,,,"28.63","12","17","T","SN:03 s |SN s |s",,,"80","28.63","VV:09 8","28.60","0.50s","16","010","23","10",,,,,,,,,,,,,,,,,,,,,,,,,,,,,,,,,,,,,"MET11201/29/20 01:53:02 METAR PASO 291053Z 01009G20KT 1/2SM SN VV008 M08/M11 A2863 RMK AO2 SLP695 P0000 T10831111 TSNO","FM-15","7",,,,,,,,,,,,,,,,,,,,,,,,,,,,"2005-10-30"
"70362125516","2020-01-29T02:34:00","FM-16","7",,,,,,,,,,,,,,,,,,,,,,,,,,,,,,,,,,,,,,"28.60","13","18","T","-SN:03 |SN |",,,"81",,"VV:09 10","28.57","0.75","17","010",,"7",,,,,,,,,,,,,,,,,,,,,,,,,,,,,,,,,,,,,"MET10301/29/20 02:34:02 SPECI PASO 291134Z 01006KT 3/4SM -SN VV010 M08/M11 A2860 RMK AO2 P0000 T10781106 TSNO","FM-16","7",,,,,,,,,,,,,,,,,,,,,,,,,,,,"2005-10-30"
"70362125516","2020-01-29T02:51:00","FM-16","6",,,,,,,,,,,,,,,,,,,,,,,,,,,,,,,,,,,,,,"28.59","14","18",,"-SN:03 BR:1 |SN |",,,"86",,"VV:09 9","28.56","0.75","17",,,,,,,,,,,,,,,,,,,,,,,,,,,,,,,,,,,,,,,,"MET10101/29/20 02:51:02 SPECI PASO 291151Z      KT 3/4SM -SN BR VV009 M08/M10 A2859 RMK AO2 P0000 TSNO FIBI","FM-16","6",,,,,,,,,,,,,,,,,,,,,,,,,,,,"2005-10-30"
"70362125516","2020-01-29T02:53:00","FM-15","7",,,,,,,,,,,,,,,,,,,,,,,,,,,,,,,,,,,,,,"28.59","14","18","T","SN:03 FZ:8 FG:2 |FG SN |","+0.10","8","84","28.59","VV:09 9","28.56","0.50","17","VRB",,"3",,,,,,,,,,,,,,,,,,,,,,,,,,,,,,,,,,,,,"MET13801/29/20 02:53:02 METAR PASO 291153Z VRB03KT 1/2SM SN FZFG VV009 M08/M10 A2859 RMK AO2 SLP682 P0000 60000 T10781100 11078 21089 58035 TSNO","FM-15","7",,,,,,,,,,,,,,,,,,,,,,,,,,,,"2005-10-30"
"70362125516","2020-01-29T03:26:00","FM-16","7",,,,,,,,,,,,,,,,,,,,,,,,,,,,,,,,,,,,,,"28.58","14","19","T","-SN:03 |SN |",,,"81",,"VV:09 10","28.55","1.00","18","VRB",,"9",,,,,,,,,,,,,,,,,,,,,,,,,,,,,,,,,,,,,"MET10101/29/20 03:26:02 SPECI PASO 291226Z 02008KT 1SM -SN VV010 M07/M10 A2858 RMK AO2 P0000 T10721100 TSNO","FM-16","7",,,,,,,,,,,,,,,,,,,,,,,,,,,,"2005-10-30"
"70362125516","2020-01-29T03:34:00","FM-16","7",,,,,,,,,,,,,,,,,,,,,,,,,,,,,,,,,,,,,,"28.57","14","19","T","-SN:03 |SN |",,,"81",,"VV:09 10","28.54","0.75","18","VRB","16","8",,,,,,,,,,,,,,,,,,,,,,,,,,,,,,,,,,,,,"MET10601/29/20 03:34:02 SPECI PASO 291234Z 01007G14KT 3/4SM -SN VV010 M07/M10 A2857 RMK AO2 P0000 T10721100 TSNO","FM-16","7",,,,,,,,,,,,,,,,,,,,,,,,,,,,"2005-10-30"
"70362125516","2020-01-29T03:49:00","FM-16","7",,,,,,,,,,,,,,,,,,,,,,,,,,,,,,,,,,,,,,"28.56","14","19","T","-SN:03 |SN |",,,"79",,"VV:09 12","28.53","1.00","18","VRB","20","7",,,,,,,,,,,,,,,,,,,,,,,,,,,,,,,,,,,,,"MET09401/29/20 03:49:02 SPECI PASO 291249Z VRB06G17KT 1SM -SN VV012 M07/M10 A2856 RMK AO2 P0000 TSNO","FM-16","7",,,,,,,,,,,,,,,,,,,,,,,,,,,,"2005-10-30"
"70362125516","2020-01-29T03:53:00","FM-15","7",,,,,,,,,,,,,,,,,,,,,,,,,,,,,,,,,,,,,,"28.56","14","20","T","-SN:03 |SN |",,,"78","28.56","VV:09 13","28.53","1.00","18","VRB","20","10",,,,,,,,,,,,,,,,,,,,,,,,,,,,,,,,,,,,,"MET11101/29/20 03:53:02 METAR PASO 291253Z 02009G17KT 1SM -SN VV013 M07/M10 A2856 RMK AO2 SLP673 P0000 T10671100 TSNO","FM-15","7",,,,,,,,,,,,,,,,,,,,,,,,,,,,"2005-10-30"
"70362125516","2020-01-29T04:07:00","FM-16","7",,,,,,,,,,,,,,,,,,,,,,,,,,,,,,,,,,,,,,"28.56","14","20","T","-SN:03 |SN |",,,"78",,"OVC:08 18","28.53","1.50","18","VRB","20","9",,,,,,,,,,,,,,,,,,,,,,,,,,,,,,,,,,,,,"MET10901/29/20 04:07:02 SPECI PASO 291307Z 02008G17KT 1 1/2SM -SN OVC018 M07/M10 A2856 RMK AO2 P0000 T10671100 TSNO","FM-16","7",,,,,,,,,,,,,,,,,,,,,,,,,,,,"2005-10-30"
"70362125516","2020-01-29T04:27:00","FM-16","7",,,,,,,,,,,,,,,,,,,,,,,,,,,,,,,,,,,,,,"28.55","14","20","T","-SN:03 |SN |",,,"78",,"OVC:08 24","28.52","2.00","18","VRB","23","6",,,,,,,,,,,,,,,,,,,,,,,,,,,,,,,,,,,,,"MET10501/29/20 04:27:02 SPECI PASO 291327Z VRB05G20KT 2SM -SN OVC024 M07/M10 A2855 RMK AO2 P0000 T10671100 TSNO","FM-16","7",,,,,,,,,,,,,,,,,,,,,,,,,,,,"2005-10-30"
"70362125516","2020-01-29T04:50:00","FM-16","7",,,,,,,,,,,,,,,,,,,,,,,,,,,,,,,,,,,,,,"28.54","16","21","T","-SN:03 |SN |",,,"80",,"OVC:08 32","28.51","2.50","19","020","20","10",,,,,,,,,,,,,,,,,,,,,,,,,,,,,,,,,,,,,"MET09901/29/20 04:50:02 SPECI PASO 291350Z 02009G17KT 2 1/2SM -SN OVC032 M06/M09 A2854 RMK AO2 P0000 TSNO","FM-16","7",,,,,,,,,,,,,,,,,,,,,,,,,,,,"2005-10-30"
"70362125516","2020-01-29T04:53:00","FM-15","7",,,,,,,,,,,,,,,,,,,,,,,,,,,,,,,,,,,,,,"28.54","15","21","T","-SN:03 |SN |",,,"78","28.54","OVC:08 32","28.51","2.50","19","VRB","22","9",,,,,,,,,,,,,,,,,,,,,,,,,,,,,,,,,,,,,"MET11601/29/20 04:53:02 METAR PASO 291353Z 03008G19KT 2 1/2SM -SN OVC032 M06/M09 A2854 RMK AO2 SLP665 P0000 T10611094 TSNO","FM-15","7",,,,,,,,,,,,,,,,,,,,,,,,,,,,"2005-10-30"
"70362125516","2020-01-29T05:40:00","FM-16","7",,,,,,,,,,,,,,,,,,,,,,,,,,,,,,,,,,,,,,"28.53","15","21","T","-SN:03 |SN |",,,"78",,"OVC:08 28","28.50","2.50","19","010","18","8",,,,,,,,,,,,,,,,,,,,,,,,,,,,,,,,,,,,,"MET10901/29/20 05:40:02 SPECI PASO 291440Z 01007G16KT 2 1/2SM -SN OVC028 M06/M09 A2853 RMK AO2 P0000 T10611094 TSNO","FM-16","7",,,,,,,,,,,,,,,,,,,,,,,,,,,,"2005-10-30"
"70362125516","2020-01-29T05:53:00","FM-15","7",,,,,,,,,,,,,,,,,,,,,,,,,,,,,,,,,,,,,,"28.52","15","22","T","-SN:03 |SN |","+0.04","6","75","28.53","OVC:08 28","28.49","2.00","20","VRB",,"5",,,,,,,,,,,,,,,,,,,,,,,,,,,,,,,,,,,,,"MET12101/29/20 05:53:02 METAR PASO 291453Z VRB04KT 2SM -SN OVC028 M06/M09 A2852 RMK AO2 SLP660 P0000 60000 T10561094 56013 TSNO","FM-15","7",,,,,,,,,,,,,,,,,,,,,,,,,,,,"2005-10-30"
"70362125516","2020-01-29T06:20:00","FM-16","7",,,,,,,,,,,,,,,,,,,,,,,,,,,,,,,,,,,,,,"28.51","16","22","T","-SN:03 |SN |",,,"78",,"OVC:08 20","28.48","1.25","20","VRB","18","9",,,,,,,,,,,,,,,,,,,,,,,,,,,,,,,,,,,,,"MET10901/29/20 06:20:02 SPECI PASO 291520Z 02008G16KT 1 1/4SM -SN OVC020 M06/M09 A2851 RMK AO2 P0000 T10561089 TSNO","FM-16","7",,,,,,,,,,,,,,,,,,,,,,,,,,,,"2005-10-30"
"70362125516","2020-01-29T06:43:00","FM-16","7",,,,,,,,,,,,,,,,,,,,,,,,,,,,,,,,,,,,,,"28.50","16","22","T","-SN:03 |SN |",,,"78",,"OVC:08 14","28.47","1.25","20","VRB","17","6",,,,,,,,,,,,,,,,,,,,,,,,,,,,,,,,,,,,,"MET10901/29/20 06:43:02 SPECI PASO 291543Z VRB05G15KT 1 1/4SM -SN OVC014 M06/M09 A2850 RMK AO2 P0000 T10561089 TSNO","FM-16","7",,,,,,,,,,,,,,,,,,,,,,,,,,,,"2005-10-30"
"70362125516","2020-01-29T06:53:00","FM-15","7",,,,,,,,,,,,,,,,,,,,,,,,,,,,,,,,,,,,,,"28.50","16","22","T","-SN:03 |SN |",,,"78","28.50","OVC:08 15","28.47","1.50","20","VRB",,"9",,,,,,,,,,,,,,,,,,,,,,,,,,,,,,,,,,,,,"MET11301/29/20 06:53:02 METAR PASO 291553Z 02008KT 1 1/2SM -SN OVC015 M06/M09 A2850 RMK AO2 SLP650 P0000 T10561089 TSNO","FM-15","7",,,,,,,,,,,,,,,,,,,,,,,,,,,,"2005-10-30"
"70362125516","2020-01-29T07:37:00","FM-16","7",,,,,,,,,,,,,,,,,,,,,,,,,,,,,,,,,,,,,,"28.48","17","22","T","-SN:03 |SN |",,,"82",,"OVC:08 22","28.45","2.00","20","VRB",,"6",,,,,,,,,,,,,,,,,,,,,,,,,,,,,,,,,,,,,"MET10201/29/20 07:37:02 SPECI PASO 291637Z VRB05KT 2SM -SN OVC022 M06/M08 A2848 RMK AO2 P0000 T10561083 TSNO","FM-16","7",,,,,,,,,,,,,,,,,,,,,,,,,,,,"2005-10-30"
"70362125516","2020-01-29T07:51:00","FM-16","7",,,,,,,,,,,,,,,,,,,,,,,,,,,,,,,,,,,,,,"28.48","18","21","T","-SN:03 |SN |",,,"86",,"OVC:08 26","28.45","3.00","20","350",,"8",,,,,,,,,,,,,,,,,,,,,,,,,,,,,,,,,,,,,"MET09201/29/20 07:51:02 SPECI PASO 291651Z 35007KT 3SM -SN OVC026 M06/M08 A2848 RMK AO2 P0000 TSNO","FM-16","7",,,,,,,,,,,,,,,,,,,,,,,,,,,,"2005-10-30"
"70362125516","2020-01-29T07:53:00","FM-15","7",,,,,,,,,,,,,,,,,,,,,,,,,,,,,,,,,,,,,,"28.48","17","22","T","-SN:03 |SN |",,,"82","28.48","OVC:08 28","28.45","3.00","20","340",,"7",,,,,,,,,,,,,,,,,,,,,,,,,,,,,,,,,,,,,"MET10901/29/20 07:53:02 METAR PASO 291653Z 34006KT 3SM -SN OVC028 M06/M08 A2848 RMK AO2 SLP645 P0000 T10561083 TSNO","FM-15","7",,,,,,,,,,,,,,,,,,,,,,,,,,,,"2005-10-30"
"70362125516","2020-01-29T08:00:00","FM-16","6",,,,,,,,,,,,,,,,,,,,,,,,,,,,,,,,,,,,,,"28.48","17","23",,"-SN:03 |SN |",,,"78",,"OVC:08 37","28.45","5.00","21","360",,"8",,,,,,,,,,,,,,,,,,,,,,,,,,,,,,,,,,,,,"MET10201/29/20 08:00:02 SPECI PASO 291700Z 36007KT 5SM -SN OVC037 M05/M08 A2848 RMK AO2 P0000 T10501083 TSNO","FM-16","6",,,,,,,,,,,,,,,,,,,,,,,,,,,,"2005-10-30"
"70362125516","2020-01-29T08:53:00","FM-15","7",,,,,,,,,,,,,,,,,,,,,,,,,,,,,,,,,,,,,,"28.48","17","22","T","-SN:03 |SN |","+0.02","6","82","28.48","OVC:08 37","28.45","4.00","20","VRB",,"6",,,,,,,,,,,,,,,,,,,,,,,,,,,,,,,,,,,,,"MET13301/29/20 08:53:02 METAR PASO 291753Z VRB05KT 4SM -SN OVC037 M06/M08 A2848 RMK AO2 SLP644 P0000 60000 T10561083 11050 21078 56006 TSNO","FM-15","7",,,,,,,,,,,,,,,,,,,,,,,,,,,,"2005-10-30"
"70362125516","2020-01-29T09:18:00","FM-16","7",,,,,,,,,,,,,,,,,,,,,,,,,,,,,,,,,,,,,,"28.48","18","23","T","-SN:03 |SN |",,,"81",,"FEW:02 19 OVC:08 31","28.45","2.00","21","350",,"5",,,,,,,,,,,,,,,,,,,,,,,,,,,,,,,,,,,,,"MET10901/29/20 09:18:02 SPECI PASO 291818Z 35004KT 2SM -SN FEW019 OVC031 M05/M08 A2848 RMK AO2 P0000 T10501078 TSNO","FM-16","7",,,,,,,,,,,,,,,,,,,,,,,,,,,,"2005-10-30"
"70362125516","2020-01-29T09:37:00","FM-16","7",,,,,,,,,,,,,,,,,,,,,,,,,,,,,,,,,,,,,,"28.47","18","23","T","-SN:03 |SN |",,,"81",,"FEW:02 19 OVC:08 29","28.44","3.00","21","360",,"7",,,,,,,,,,,,,,,,,,,,,,,,,,,,,,,,,,,,,"MET10901/29/20 09:37:02 SPECI PASO 291837Z 36006KT 3SM -SN FEW019 OVC029 M05/M08 A2847 RMK AO2 P0000 T10501078 TSNO","FM-16","7",,,,,,,,,,,,,,,,,,,,,,,,,,,,"2005-10-30"
"70362125516","2020-01-29T09:48:00","FM-16","7",,,,,,,,,,,,,,,,,,,,,,,,,,,,,,,,,,,,,,"28.47","18","23","T","-SN:03 |SN |",,,"80",,"SCT:04 17 OVC:08 28","28.44","2.50","21","VRB",,"5",,,,,,,,,,,,,,,,,,,,,,,,,,,,,,,,,,,,,"MET10301/29/20 09:48:02 SPECI PASO 291848Z VRB04KT 2 1/2SM -SN SCT017 OVC028 M05/M08 A2847 RMK AO2 P0000 TSNO","FM-16","7",,,,,,,,,,,,,,,,,,,,,,,,,,,,"2005-10-30"
"70362125516","2020-01-29T09:53:00","FM-15","7",,,,,,,,,,,,,,,,,,,,,,,,,,,,,,,,,,,,,,"28.47","18","23","T","-SN:03 |SN |",,,"81","28.47","SCT:04 17 OVC:08 28","28.44","2.50","21","010",,"6",,,,,,,,,,,,,,,,,,,,,,,,,,,,,,,,,,,,,"MET12001/29/20 09:53:02 METAR PASO 291853Z 01005KT 2 1/2SM -SN SCT017 OVC028 M05/M08 A2847 RMK AO2 SLP641 P0000 T10501078 TSNO","FM-15","7",,,,,,,,,,,,,,,,,,,,,,,,,,,,"2005-10-30"
"70362125516","2020-01-29T10:06:00","FM-16","7",,,,,,,,,,,,,,,,,,,,,,,,,,,,,,,,,,,,,,"28.47","18","23","T","-SN:03 |SN |",,,"81",,"SCT:04 17 OVC:08 22","28.44","1.50","21","340",,"5",,,,,,,,,,,,,,,,,,,,,,,,,,,,,,,,,,,,,"MET11301/29/20 10:06:02 SPECI PASO 291906Z 34004KT 1 1/2SM -SN SCT017 OVC022 M05/M08 A2847 RMK AO2 P0000 T10501078 TSNO","FM-16","7",,,,,,,,,,,,,,,,,,,,,,,,,,,,"2005-10-30"
"70362125516","2020-01-29T10:53:00","FM-15","7",,,,,,,,,,,,,,,,,,,,,,,,,,,,,,,,,,,,,,"28.47","19","23","T","-SN:03 BR:1 |SN |",,,"85","28.47","SCT:04 17 OVC:08 22","28.44","1.00","22","010",,"6",,,,,,,,,,,,,,,,,,,,,,,,,,,,,,,,,,,,,"MET11901/29/20 10:53:02 METAR PASO 291953Z 01005KT 1SM -SN BR SCT017 OVC022 M05/M07 A2847 RMK AO2 SLP640 P0000 T10501072 TSNO","FM-15","7",,,,,,,,,,,,,,,,,,,,,,,,,,,,"2005-10-30"
"70362125516","2020-01-29T11:22:00","FM-16","7",,,,,,,,,,,,,,,,,,,,,,,,,,,,,,,,,,,,,,"28.47","19","23","T","-SN:03 BR:1 |SN |",,,"85",,"VV:09 17","28.44","0.75","22","VRB",,"3",,,,,,,,,,,,,,,,,,,,,,,,,,,,,,,,,,,,,"MET10601/29/20 11:22:02 SPECI PASO 292022Z VRB03KT 3/4SM -SN BR VV017 M05/M07 A2847 RMK AO2 P0000 T10501072 TSNO","FM-16","7",,,,,,,,,,,,,,,,,,,,,,,,,,,,"2005-10-30"
"70362125516","2020-01-29T11:30:00","FM-16","7",,,,,,,,,,,,,,,,,,,,,,,,,,,,,,,,,,,,,,"28.47","19","24","T","-SN:03 |SN |",,,"81",,"FEW:02 15 OVC:08 21","28.44","1.50","22","VRB",,"5",,,,,,,,,,,,,,,,,,,,,,,,,,,,,,,,,,,,,"MET11301/29/20 11:30:02 SPECI PASO 292030Z VRB04KT 1 1/2SM -SN FEW015 OVC021 M04/M07 A2847 RMK AO2 P0000 T10441072 TSNO","FM-16","7",,,,,,,,,,,,,,,,,,,,,,,,,,,,"2005-10-30"
"70362125516","2020-01-29T11:36:00","FM-16","6",,,,,,,,,,,,,,,,,,,,,,,,,,,,,,,,,,,,,,"28.47","19","24",,"-SN:03 |SN |",,,"81",,"FEW:02 15 BKN:07 31 OVC:08 65","28.44","2.00","22","020",,"7",,,,,,,,,,,,,,,,,,,,,,,,,,,,,,,,,,,,,"MET11601/29/20 11:36:02 SPECI PASO 292036Z 02006KT 2SM -SN FEW015 BKN031 OVC065 M04/M07 A2847 RMK AO2 P0000 T10441072 TSNO","FM-16","6",,,,,,,,,,,,,,,,,,,,,,,,,,,,"2005-10-30"
"70362125516","2020-01-29T11:45:00","FM-16","7",,,,,,,,,,,,,,,,,,,,,,,,,,,,,,,,,,,,,,"28.47","18","24","T","-SN:03 |SN |",,,"77",,"BKN:07 44 OVC:08 65","28.44","6.00","22","040",,"6",,,,,,,,,,,,,,,,,,,,,,,,,,,,,,,,,,,,,"MET10901/29/20 11:45:02 SPECI PASO 292045Z 04005KT 6SM -SN BKN044 OVC065 M04/M08 A2847 RMK AO2 P0000 T10441078 TSNO","FM-16","7",,,,,,,,,,,,,,,,,,,,,,,,,,,,"2005-10-30"
"70362125516","2020-01-29T11:53:00","FM-15","7",,,,,,,,,,,,,,,,,,,,,,,,,,,,,,,,,,,,,,"28.47","18","24","T",,"+0.00","8","77","28.47","BKN:07 60 OVC:08 70","28.44","9.00","22","VRB",,"3",,,,,,,,,,,,,,,,,,,,,,,,,,,,,,,,,,,,,"MET13001/29/20 11:53:02 METAR PASO 292053Z VRB03KT 9SM BKN060 OVC070 M04/M08 A2847 RMK AO2 SNE49 SLP640 P0000 60000 T10441078 58001 TSNO","FM-15","7",,,,,,,,,,,,,,,,,,,,,,,,,,,,"2005-10-30"
"70362125516","2020-01-29T12:44:00","FM-16","7",,,,,,,,,,,,,,,,,,,,,,,,,,,,,,,,,,,,,,"28.47","20","25","T",,,,"81",,"SCT:04 16 BKN:07 29 OVC:08 50","28.44","10.00","23","000",,"0",,,,,,,,,,,,,,,,,,,,,,,,,,,,,,,,,,,,,"MET12401/29/20 12:44:02 SPECI PASO 292144Z 00000KT 10SM SCT016 BKN029 OVC050 M04/M07 A2847 RMK AO2 SNB2059E25 P0000 T10391067 TSNO","FM-16","7",,,,,,,,,,,,,,,,,,,,,,,,,,,,"2005-10-30"
"70362125516","2020-01-29T12:53:00","FM-15","7",,,,,,,,,,,,,,,,,,,,,,,,,,,,,,,,,,,,,,"28.47","20","24","T","-SN:03 BR:1 |SN |",,,"84","28.47","SCT:04 18 BKN:07 23 OVC:08 28","28.44","4.00","23","000",,"0",,,,,,,,,,,,,,,,,,,,,,,,,,,,,,,,,,,,,"MET14001/29/20 12:53:02 METAR PASO 292153Z 00000KT 4SM -SN BR SCT018 BKN023 OVC028 M04/M07 A2847 RMK AO2 SNB2059E25B50 SLP642 P0000 T10441067 TSNO","FM-15","7",,,,,,,,,,,,,,,,,,,,,,,,,,,,"2005-10-30"
"70362125516","2020-01-29T13:00:00","FM-16","7",,,,,,,,,,,,,,,,,,,,,,,,,,,,,,,,,,,,,,"28.47","20","24","T","-SN:03 BR:1 |SN |",,,"84",,"SCT:04 16 OVC:08 21","28.44","1.75V","23","000",,"0",,,,,,,,,,,,,,,,,,,,,,,,,,,,,,,,,,,,,"MET12801/29/20 13:00:02 SPECI PASO 292200Z 00000KT 1 3/4SM -SN BR SCT016 OVC021 M04/M07 A2847 RMK AO2 VIS 1 1/4V3 P0000 T10441067 TSNO","FM-16","7",,,,,,,,,,,,,,,,,,,,,,,,,,,,"2005-10-30"
"70362125516","2020-01-29T13:13:00","FM-16","7",,,,,,,,,,,,,,,,,,,,,,,,,,,,,,,,,,,,,,"28.48","21","24","T","SN:03 FZ:8 FG:2 |FG SN |",,,"88",,"VV:09 15","28.45","0.50","23","000",,"0",,,,,,,,,,,,,,,,,,,,,,,,,,,,,,,,,,,,,"MET10701/29/20 13:13:02 SPECI PASO 292213Z 00000KT 1/2SM SN FZFG VV015 M04/M06 A2848 RMK AO2 P0000 T10441061 TSNO","FM-16","7",,,,,,,,,,,,,,,,,,,,,,,,,,,,"2005-10-30"
"70362125516","2020-01-29T13:29:00","FM-16","7",,,,,,,,,,,,,,,,,,,,,,,,,,,,,,,,,,,,,,"28.48","21","24","T","-SN:03 BR:1 |SN |",,,"88",,"OVC:08 16","28.45","1.00","23","000",,"0",,,,,,,,,,,,,,,,,,,,,,,,,,,,,,,,,,,,,"MET10501/29/20 13:29:02 SPECI PASO 292229Z 00000KT 1SM -SN BR OVC016 M04/M06 A2848 RMK AO2 P0000 T10441061 TSNO","FM-16","7",,,,,,,,,,,,,,,,,,,,,,,,,,,,"2005-10-30"
"70362125516","2020-01-29T13:51:00","FM-16","6",,,,,,,,,,,,,,,,,,,,,,,,,,,,,,,,,,,,,,"28.48","21","25",,"-SN:03 BR:1 |SN |",,,"86",,"BKN:07 14 OVC:08 22","28.45","2.00","24","000",,"0",,,,,,,,,,,,,,,,,,,,,,,,,,,,,,,,,,,,,"MET10701/29/20 13:51:02 SPECI PASO 292251Z 00000KT 2SM -SN BR BKN014 OVC022 M04/M06 A2848 RMK AO2 P0000 TSNO FIBI","FM-16","6",,,,,,,,,,,,,,,,,,,,,,,,,,,,"2005-10-30"
"70362125516","2020-01-29T13:53:00","FM-15","7",,,,,,,,,,,,,,,,,,,,,,,,,,,,,,,,,,,,,,"28.48","22","25","T","-SN:03 BR:1 |SN |",,,"88","28.48","BKN:07 14 OVC:08 22","28.45","2.00V","24","000",,"0",,,,,,,,,,,,,,,,,,,,,,,,,,,,,,,,,,,,,"MET13101/29/20 13:53:02 METAR PASO 292253Z 00000KT 2SM -SN BR BKN014 OVC022 M04/M06 A2848 RMK AO2 VIS 1 1/2V3 SLP645 P0000 T10391056 TSNO","FM-15","7",,,,,,,,,,,,,,,,,,,,,,,,,,,,"2005-10-30"
"70362125516","2020-01-29T13:57:00","FM-16","7",,,,,,,,,,,,,,,,,,,,,,,,,,,,,,,,,,,,,,"28.48","22","25","T","-SN:03 BR:1 |SN |",,,"88",,"SCT:04 14 BKN:07 18 OVC:08 23","28.45","1.75","24","000",,"0",,,,,,,,,,,,,,,,,,,,,,,,,,,,,,,,,,,,,"MET12301/29/20 13:57:02 SPECI PASO 292257Z 00000KT 1 3/4SM -SN BR SCT014 BKN018 OVC023 M04/M06 A2848 RMK AO2 P0000 T10391056 TSNO","FM-16","7",,,,,,,,,,,,,,,,,,,,,,,,,,,,"2005-10-30"
"70362125516","2020-01-29T14:21:00","FM-16","7",,,,,,,,,,,,,,,,,,,,,,,,,,,,,,,,,,,,,,"28.48","22","27","T","-SN:03 |SN |",,,"81",,"BKN:07 14 OVC:08 20","28.45","2.00","25","VRB",,"8",,,,,,,,,,,,,,,,,,,,,,,,,,,,,,,,,,,,,"MET10901/29/20 14:21:02 SPECI PASO 292321Z 36007KT 2SM -SN BKN014 OVC020 M03/M06 A2848 RMK AO2 P0000 T10281056 TSNO","FM-16","7",,,,,,,,,,,,,,,,,,,,,,,,,,,,"2005-10-30"
"70362125516","2020-01-29T14:26:00","FM-16","7",,,,,,,,,,,,,,,,,,,,,,,,,,,,,,,,,,,,,,"28.49","22","27","T","-SN:03 |SN |",,,"81",,"OVC:08 17","28.46","3.00","25","VRB",,"8",,,,,,,,,,,,,,,,,,,,,,,,,,,,,,,,,,,,,"MET10201/29/20 14:26:02 SPECI PASO 292326Z 36007KT 3SM -SN OVC017 M03/M06 A2849 RMK AO2 P0000 T10281056 TSNO","FM-16","7",,,,,,,,,,,,,,,,,,,,,,,,,,,,"2005-10-30"
"70362125516","2020-01-29T14:42:00","FM-16","7",,,,,,,,,,,,,,,,,,,,,,,,,,,,,,,,,,,,,,"28.50","22","26","T","-SN:03 BR:1 |SN |",,,"84",,"FEW:02 7 BKN:07 16 OVC:08 21","28.47","1.75","25","VRB",,"5",,,,,,,,,,,,,,,,,,,,,,,,,,,,,,,,,,,,,"MET12301/29/20 14:42:02 SPECI PASO 292342Z VRB04KT 1 3/4SM -SN BR FEW007 BKN016 OVC021 M03/M06 A2850 RMK AO2 P0000 T10331056 TSNO","FM-16","7",,,,,,,,,,,,,,,,,,,,,,,,,,,,"2005-10-30"
"70362125516","2020-01-29T14:51:00","FM-16","6",,,,,,,,,,,,,,,,,,,,,,,,,,,,,,,,,,,,,,"28.51","21","25",,"-SN:03 BR:1 |SN |",,,"86",,"SCT:04 7 BKN:07 15 OVC:08 20","28.48","0.75","24","VRB",,"8",,,,,,,,,,,,,,,,,,,,,,,,,,,,,,,,,,,,,"MET11601/29/20 14:51:02 SPECI PASO 292351Z 15007KT 3/4SM -SN BR SCT007 BKN015 OVC020 M04/M06 A2851 RMK AO2 P0000 TSNO FIBI","FM-16","6",,,,,,,,,,,,,,,,,,,,,,,,,,,,"2005-10-30"
"70362125516","2020-01-29T14:53:00","FM-15","7",,,,,,,,,,,,,,,,,,,,,,,,,,,,,,,,,,,,,,"28.51","20","24","T","-SN:03 BR:1 |SN |","-0.04","3","84","28.51","BKN:07 7 OVC:08 15","28.48","0.75","23","VRB",,"6",,,,,,,,,,,,,,,,,,,,,,,,,,,,,,,,,,,,,"MET14501/29/20 14:53:02 METAR PASO 292353Z VRB05KT 3/4SM -SN BR BKN007 OVC015 M04/M07 A2851 RMK AO2 SLP655 P0000 60000 T10441067 11028 21050 53015 TSNO","FM-15","7",,,,,,,,,,,,,,,,,,,,,,,,,,,,"2005-10-30"
"70362125516","2020-01-29T15:25:00","FM-16","7",,,,,,,,,,,,,,,,,,,,,,,,,,,,,,,,,,,,,,"28.54","17","21","T","-SN:03 BR:1 |SN |",,,"85",,"SCT:04 8 BKN:07 15 OVC:08 19","28.51","0.75","20","VRB",,"6",,,,,,,,,,,,,,,,,,,,,,,,,,,,,,,,,,,,,"MET12101/29/20 15:25:01 SPECI PASO 300025Z VRB05KT 3/4SM -SN BR SCT008 BKN015 OVC019 M06/M08 A2854 RMK AO2 P0000 T10611083 TSNO","FM-16","7",,,,,,,,,,,,,,,,,,,,,,,,,,,,"2005-10-30"
"70362125516","2020-01-29T15:41:00","FM-16","7",,,,,,,,,,,,,,,,,,,,,,,,,,,,,,,,,,,,,,"28.56","15","19","T","-SN:03 FZ:8 FG:2 |FG SN |",,,"84",,"BKN:07 13 OVC:08 20","28.53","0.50","18","VRB",,"8",,,,,,,,,,,,,,,,,,,,,,,,,,,,,,,,,,,,,"MET11601/29/20 15:41:01 SPECI PASO 300041Z 17007KT 1/2SM -SN FZFG BKN013 OVC020 M07/M09 A2856 RMK AO2 P0000 T10721094 TSNO","FM-16","7",,,,,,,,,,,,,,,,,,,,,,,,,,,,"2005-10-30"
"70362125516","2020-01-29T15:53:00","FM-15","7",,,,,,,,,,,,,,,,,,,,,,,,,,,,,,,,,,,,,,"28.57","14","19","T","SN:03 s |SN s |s",,,"81","28.57","VV:09 12","28.54","0.50s","18","150",,"6",,,,,,,,,,,,,,,,,,,,,,,,,,,,,,,,,,,,,"MET11601/29/20 15:53:01 METAR PASO 300053Z 15005KT 1/2SM SN VV012 M07/M10 A2857 RMK AO2 PRESRR SLP675 P0000 T10721100 TSNO","FM-15","7",,,,,,,,,,,,,,,,,,,,,,,,,,,,"2005-10-30"
"70362125516","2020-01-29T16:53:00","FM-15","7",,,,,,,,,,,,,,,,,,,,,,,,,,,,,,,,,,,,,,"28.63","11","16","T","-SN:03 |SN |",,,"80","28.64","VV:09 12","28.60","1.00","15","VRB","23","9",,,,,,,,,,,,,,,,,,,,,,,,,,,,,,,,,,,,,"MET11101/29/20 16:53:01 METAR PASO 300153Z 18008G20KT 1SM -SN VV012 M09/M12 A2863 RMK AO2 SLP697 P0000 T10891117 TSNO","FM-15","7",,,,,,,,,,,,,,,,,,,,,,,,,,,,"2005-10-30"
"70362125516","2020-01-29T17:35:00","FM-16","7",,,,,,,,,,,,,,,,,,,,,,,,,,,,,,,,,,,,,,"28.71","12","16","T","-SN:03 BR:1 |SN |",,,"84",,"VV:09 11","28.68","0.75","15","190",,"9",,,,,,,,,,,,,,,,,,,,,,,,,,,,,,,,,,,,,"MET11301/29/20 17:35:01 SPECI PASO 300235Z 19008KT 3/4SM -SN BR VV011 M09/M11 A2871 RMK AO2 PRESRR P0000 T10891111 TSNO","FM-16","7",,,,,,,,,,,,,,,,,,,,,,,,,,,,"2005-10-30"
"70362125516","2020-01-29T17:48:00","FM-16","7",,,,,,,,,,,,,,,,,,,,,,,,,,,,,,,,,,,,,,"28.72","12","16","T","-SN:03 BR:1 |SN |",,,"86",,"VV:09 9","28.69","0.75","15","VRB",,"6",,,,,,,,,,,,,,,,,,,,,,,,,,,,,,,,,,,,,"MET09601/29/20 17:48:01 SPECI PASO 300248Z VRB05KT 3/4SM -SN BR VV009 M09/M11 A2872 RMK AO2 P0000 TSNO","FM-16","7",,,,,,,,,,,,,,,,,,,,,,,,,,,,"2005-10-30"
"70362125516","2020-01-29T17:53:00","FM-15","7",,,,,,,,,,,,,,,,,,,,,,,,,,,,,,,,,,,,,,"28.72","12","16","T","-SN:03 BR:1 |SN |","-0.15","1","84","28.72","VV:09 9","28.69","0.75","15","210",,"8",,,,,,,,,,,,,,,,,,,,,,,,,,,,,,,,,,,,,"MET12501/29/20 17:53:01 METAR PASO 300253Z 21007KT 3/4SM -SN BR VV009 M09/M11 A2872 RMK AO2 SLP726 P0000 60000 T10891111 51051 TSNO","FM-15","7",,,,,,,,,,,,,,,,,,,,,,,,,,,,"2005-10-30"
"70362125516","2020-01-29T17:55:00","FM-16","7",,,,,,,,,,,,,,,,,,,,,,,,,,,,,,,,,,,,,,"28.72","12","16","T","-SN:03 BR:1 |SN |",,,"84",,"VV:09 10","28.69","1.00","15","210","17","10",,,,,,,,,,,,,,,,,,,,,,,,,,,,,,,,,,,,,"MET10701/29/20 17:55:01 SPECI PASO 300255Z 21009G15KT 1SM -SN BR VV010 M09/M11 A2872 RMK AO2 P0000 T10891111 TSNO","FM-16","7",,,,,,,,,,,,,,,,,,,,,,,,,,,,"2005-10-30"
"70362125516","2020-01-29T18:09:00","FM-16","7",,,,,,,,,,,,,,,,,,,,,,,,,,,,,,,,,,,,,,"28.74","12","17","T","-SN:03 |SN |",,,"80",,"OVC:08 17","28.71","2.00","16","230",,"6",,,,,,,,,,,,,,,,,,,,,,,,,,,,,,,,,,,,,"MET10201/29/20 18:09:01 SPECI PASO 300309Z 23005KT 2SM -SN OVC017 M08/M11 A2874 RMK AO2 P0000 T10831111 TSNO","FM-16","7",,,,,,,,,,,,,,,,,,,,,,,,,,,,"2005-10-30"
"70362125516","2020-01-29T18:27:00","FM-16","7",,,,,,,,,,,,,,,,,,,,,,,,,,,,,,,,,,,,,,"28.76","12","16","T","-SN:03 BR:1 |SN |",,,"84",,"OVC:08 29","28.73","4.00","15","200",,"6",,,,,,,,,,,,,,,,,,,,,,,,,,,,,,,,,,,,,"MET11201/29/20 18:27:01 SPECI PASO 300327Z 20005KT 4SM -SN BR OVC029 M09/M11 A2876 RMK AO2 PRESRR P0000 T10891111 TSNO","FM-16","7",,,,,,,,,,,,,,,,,,,,,,,,,,,,"2005-10-30"
"70362125516","2020-01-29T18:35:00","FM-16","7",,,,,,,,,,,,,,,,,,,,,,,,,,,,,,,,,,,,,,"28.77","11","16","T","-SN:03 |SN |",,,"80",,"OVC:08 41","28.74","5.00","15","200",,"8",,,,,,,,,,,,,,,,,,,,,,,,,,,,,,,,,,,,,"MET10901/29/20 18:35:01 SPECI PASO 300335Z 20007KT 5SM -SN OVC041 M09/M12 A2877 RMK AO2 PRESRR P0000 T10891117 TSNO","FM-16","7",,,,,,,,,,,,,,,,,,,,,,,,,,,,"2005-10-30"
"70362125516","2020-01-29T18:53:00","FM-15","7",,,,,,,,,,,,,,,,,,,,,,,,,,,,,,,,,,,,,,"28.79","10","16","T",,,,"77","28.79","OVC:08 50","28.76","10.00","14","VRB",,"6",,,,,,,,,,,,,,,,,,,,,,,,,,,,,,,,,,,,,"MET11201/29/20 18:53:01 METAR PASO 300353Z VRB05KT 10SM OVC050 M09/M12 A2879 RMK AO2 SNE40 SLP751 P0000 T10891122 TSNO","FM-15","7",,,,,,,,,,,,,,,,,,,,,,,,,,,,"2005-10-30"
"70362125516","2020-01-29T19:51:00","FM-16","7",,,,,,,,,,,,,,,,,,,,,,,,,,,,,,,,,,,,,,"28.85","10","16","T","-SN:03 |SN |",,,"79",,"OVC:08 28","28.82","3.00","14","220",,"8",,,,,,,,,,,,,,,,,,,,,,,,,,,,,,,,,,,,,"MET09801/29/20 19:51:02 SPECI PASO 300451Z 22007KT 3SM -SN OVC028 M09/M12 A2885 RMK AO2 SNB10 P0000 TSNO","FM-16","7",,,,,,,,,,,,,,,,,,,,,,,,,,,,"2005-10-30"
"70362125516","2020-01-29T19:53:00","FM-15","7",,,,,,,,,,,,,,,,,,,,,,,,,,,,,,,,,,,,,,"28.85","11","16","T","-SN:03 |SN |",,,"80","28.85","OVC:08 28","28.82","3.00","15","220",,"8",,,,,,,,,,,,,,,,,,,,,,,,,,,,,,,,,,,,,"MET11501/29/20 19:53:02 METAR PASO 300453Z 22007KT 3SM -SN OVC028 M09/M12 A2885 RMK AO2 SNB10 SLP770 P0000 T10891117 TSNO","FM-15","7",,,,,,,,,,,,,,,,,,,,,,,,,,,,"2005-10-30"
"70362125516","2020-01-29T20:00:00","FM-16","7",,,,,,,,,,,,,,,,,,,,,,,,,,,,,,,,,,,,,,"28.85","10","16","T","-SN:03 |SN |",,,"77",,"OVC:08 30","28.82","4.00","14","200",,"6",,,,,,,,,,,,,,,,,,,,,,,,,,,,,,,,,,,,,"MET10201/29/20 20:00:02 SPECI PASO 300500Z 20005KT 4SM -SN OVC030 M09/M12 A2885 RMK AO2 P0000 T10891122 TSNO","FM-16","7",,,,,,,,,,,,,,,,,,,,,,,,,,,,"2005-10-30"
"70362125516","2020-01-29T20:53:00","FM-15","7",,,,,,,,,,,,,,,,,,,,,,,,,,,,,,,,,,,,,,"28.90","9","15","T","-SN:03 |SN |","-0.11","1","77","28.90","OVC:08 36","28.87","6.00","13","000",,"0",,,,,,,,,,,,,,,,,,,,,,,,,,,,,,,,,,,,,"MET14201/29/20 20:53:02 METAR PASO 300553Z 00000KT 6SM -SN OVC036 M09/M13 A2890 RMK AO2 SNE02B32 SLP787 P0000 60000 T10941128 11072 21094 51036 TSNO","FM-15","7",,,,,,,,,,,,,,,,,,,,,,,,,,,,"2005-10-30"
"70362125516","2020-01-29T21:53:00","FM-15","7",,,,,,,,,,,,,,,,,,,,,,,,,,,,,,,,,,,,,,"28.94","9","15","T",,,,"77","28.94","BKN:07 45 OVC:08 85","28.91","10.00","13","000",,"0",,,,,,,,,,,,,,,,,,,,,,,,,,,,,,,,,,,,,"MET11901/29/20 21:53:02 METAR PASO 300653Z 00000KT 10SM BKN045 OVC085 M09/M13 A2894 RMK AO2 SNE37 SLP801 P0000 T10941128 TSNO","FM-15","7",,,,,,,,,,,,,,,,,,,,,,,,,,,,"2005-10-30"
"70362125516","2020-01-29T22:27:00","FM-16","7",,,,,,,,,,,,,,,,,,,,,,,,,,,,,,,,,,,,,,"28.96","10","16","T","-SN:03 |SN |",,,"77",,"OVC:08 28","28.93","2.50V","14","050",,"3",,,,,,,,,,,,,,,,,,,,,,,,,,,,,,,,,,,,,"MET12401/29/20 22:27:02 SPECI PASO 300727Z 05003KT 2 1/2SM -SN OVC028 M09/M12 A2896 RMK AO2 VIS 1 1/2V5 SNB05 P0000 T10891122 TSNO","FM-16","7",,,,,,,,,,,,,,,,,,,,,,,,,,,,"2005-10-30"
"70362125516","2020-01-29T22:35:00","FM-16","7",,,,,,,,,,,,,,,,,,,,,,,,,,,,,,,,,,,,,,"28.97","11","15","T","-SN:03 BR:1 |SN |",,,"84",,"OVC:08 20","28.94","1.25","14","020",,"3",,,,,,,,,,,,,,,,,,,,,,,,,,,,,,,,,,,,,"MET11501/29/20 22:35:02 SPECI PASO 300735Z 02003KT 1 1/4SM -SN BR OVC020 M09/M12 A2897 RMK AO2 SNB05 P0000 T10941117 TSNO","FM-16","7",,,,,,,,,,,,,,,,,,,,,,,,,,,,"2005-10-30"
"70362125516","2020-01-29T22:51:00","FM-16","7",,,,,,,,,,,,,,,,,,,,,,,,,,,,,,,,,,,,,,"28.98","10","16","T","-SN:03 BR:1 |SN |",,,"79",,"OVC:08 14","28.95","1.50","14","020",,"6",,,,,,,,,,,,,,,,,,,,,,,,,,,,,,,,,,,,,"MET10501/29/20 22:51:02 SPECI PASO 300751Z 02005KT 1 1/2SM -SN BR OVC014 M09/M12 A2898 RMK AO2 SNB05 P0000 TSNO","FM-16","7",,,,,,,,,,,,,,,,,,,,,,,,,,,,"2005-10-30"
"70362125516","2020-01-29T22:53:00","FM-15","7",,,,,,,,,,,,,,,,,,,,,,,,,,,,,,,,,,,,,,"28.98","11","16","T","-SN:03 |SN |",,,"80","28.98","OVC:08 12","28.95","1.50","15","030",,"7",,,,,,,,,,,,,,,,,,,,,,,,,,,,,,,,,,,,,"MET11901/29/20 22:53:02 METAR PASO 300753Z 03006KT 1 1/2SM -SN OVC012 M09/M12 A2898 RMK AO2 SNB05 SLP814 P0000 T10891117 TSNO","FM-15","7",,,,,,,,,,,,,,,,,,,,,,,,,,,,"2005-10-30"
"70362125516","2020-01-29T23:12:00","FM-16","7",,,,,,,,,,,,,,,,,,,,,,,,,,,,,,,,,,,,,,"28.99","12","16","T","-SN:03 BR:1 |SN |",,,"84",,"FEW:02 13 BKN:07 21 OVC:08 50","28.96","2.50","15","010",,"8",,,,,,,,,,,,,,,,,,,,,,,,,,,,,,,,,,,,,"MET12301/29/20 23:12:02 SPECI PASO 300812Z 01007KT 2 1/2SM -SN BR FEW013 BKN021 OVC050 M09/M11 A2899 RMK AO2 P0000 T10891111 TSNO","FM-16","7",,,,,,,,,,,,,,,,,,,,,,,,,,,,"2005-10-30"
"70362125516","2020-01-29T23:19:00","FM-16","7",,,,,,,,,,,,,,,,,,,,,,,,,,,,,,,,,,,,,,"28.99","11","15","T","-SN:03 BR:1 |SN |",,,"84",,"FEW:02 13 BKN:07 25 OVC:08 46","28.96","4.00","14","020",,"9",,,,,,,,,,,,,,,,,,,,,,,,,,,,,,,,,,,,,"MET11901/29/20 23:19:02 SPECI PASO 300819Z 02008KT 4SM -SN BR FEW013 BKN025 OVC046 M09/M12 A2899 RMK AO2 P0000 T10941117 TSNO","FM-16","7",,,,,,,,,,,,,,,,,,,,,,,,,,,,"2005-10-30"
"70362125516","2020-01-29T23:33:00","FM-16","7",,,,,,,,,,,,,,,,,,,,,,,,,,,,,,,,,,,,,,"29.00","12","16","T","-SN:03 BR:1 |SN |",,,"84",,"SCT:04 13 OVC:08 43","28.97","6.00","15","030",,"9",,,,,,,,,,,,,,,,,,,,,,,,,,,,,,,,,,,,,"MET11201/29/20 23:33:02 SPECI PASO 300833Z 03008KT 6SM -SN BR SCT013 OVC043 M09/M11 A2900 RMK AO2 P0000 T10891111 TSNO","FM-16","7",,,,,,,,,,,,,,,,,,,,,,,,,,,,"2005-10-30"
"70362125516","2020-01-29T23:42:00","FM-16","7",,,,,,,,,,,,,,,,,,,,,,,,,,,,,,,,,,,,,,"29.00","11","16","T","-SN:03 |SN |",,,"80",,"BKN:07 14 OVC:08 33","28.97","6.00","15","020",,"3",,,,,,,,,,,,,,,,,,,,,,,,,,,,,,,,,,,,,"MET10901/29/20 23:42:02 SPECI PASO 300842Z 02003KT 6SM -SN BKN014 OVC033 M09/M12 A2900 RMK AO2 P0000 T10891117 TSNO","FM-16","7",,,,,,,,,,,,,,,,,,,,,,,,,,,,"2005-10-30"
"70362125516","2020-01-29T23:51:00","FM-16","6",,,,,,,,,,,,,,,,,,,,,,,,,,,,,,,,,,,,,,"29.00","12","16",,"-SN:03 BR:1 |SN |",,,"86",,"BKN:07 14 OVC:08 24","28.97","2.50","15","010",,"6",,,,,,,,,,,,,,,,,,,,,,,,,,,,,,,,,,,,,"MET11101/29/20 23:51:03 SPECI PASO 300851Z 01005KT 2 1/2SM -SN BR BKN014 OVC024 M09/M11 A2900 RMK AO2 P0000 TSNO FIBI","FM-16","6",,,,,,,,,,,,,,,,,,,,,,,,,,,,"2005-10-30"
"70362125516","2020-01-29T23:53:00","FM-15","7",,,,,,,,,,,,,,,,,,,,,,,,,,,,,,,,,,,,,,"29.00","12","16","T","-SN:03 BR:1 |SN |","-0.06","1","84","29.00","BKN:07 14 OVC:08 21","28.97","1.75","15","360",,"6",,,,,,,,,,,,,,,,,,,,,,,,,,,,,,,,,,,,,"MET14501/29/20 23:53:02 METAR PASO 300853Z 36005KT 1 3/4SM -SN BR BKN014 OVC021 M09/M11 A2900 RMK AO2 SLP822 P0000 60000 T10891111 410281094 51021 TSNO","FM-15","7",,,,,,,,,,,,,,,,,,,,,,,,,,,,"2005-10-30"
"70362125516","2020-01-29T23:59:00","SOD  ","6",,,,,,,,,,,,,,,,"21",,,"28.59",,"5.8","0","-5.0","44","27","15","030","23","T",,,"020","15","SN FZFG BR FG",,,,,,,,,,,,,,,,,,,,,,,,,,,,,,,,,,,,,,,,,,,,,,,,,,,,,,,,"SOD72724 HR PRECIPITATION (IN):T     24 HR MAX TEMP (F):27 24 HR MAX TEMP TIME (LST):1440 24 HR MIN TEMP (F):15 24 HR MIN TEMP TIME (LST):2319 AVERAGE STATION PRESSURE:28.585 MINIMUM SEA LEVEL PRESSURE:28.47 TIME OF OCCURRENCE:1256 PEAK WIND SPEED (MPH):23  PEAK WIND DIR (DEG):30  PEAK WIND TIME (LST):0419  FASTEST 2MIN SPEED (MPH):15 FASTEST 2MIN DIR (DEG):20  FASTEST 2MIN TIME (LST):0009 AVERAGE WIND SPEED (MPH):5.8  24 HR AVG TEMP (F):21 HEATING DEGREE DAYS:44  COOLING DEGREE DAYS:0   LATEST DAY MAX TEMP (0700-1900 LST):27  LATEST NIGHT MIN TEMP(1900-0800 LST):16 HOURLY INCREMENTAL PRECIPITATION VALUES (IN):    T    T    T    T    T    T    T    T    T    T    T    T    T    T    T    T    T    T    T    T    T    T    T","SOD  ","6",,,,,,,,,,,,,,,,,,,,,,,,,"0925","1717",,"2005-10-30"
"70362125516","2020-01-30T00:05:00","FM-16","7",,,,,,,,,,,,,,,,,,,,,,,,,,,,,,,,,,,,,,"29.01","12","16","T","-SN:03 BR:1 |SN |",,,"84",,"VV:09 10","28.98","0.75","15","340",,"3",,,,,,,,,,,,,,,,,,,,,,,,,,,,,,,,,,,,,"MET10601/30/20 00:05:02 SPECI PASO 300905Z 34003KT 3/4SM -SN BR VV010 M09/M11 A2901 RMK AO2 P0000 T10891111 TSNO","FM-16","7",,,,,,,,,,,,,,,,,,,,,,,,,,,,"2005-10-30"
"70362125516","2020-01-30T00:18:00","FM-16","7",,,,,,,,,,,,,,,,,,,,,,,,,,,,,,,,,,,,,,"29.01","11","16","T","-SN:03 |SN |",,,"80",,"VV:09 10","28.98","1.00","15","000",,"0",,,,,,,,,,,,,,,,,,,,,,,,,,,,,,,,,,,,,"MET10101/30/20 00:18:02 SPECI PASO 300918Z 00000KT 1SM -SN VV010 M09/M12 A2901 RMK AO2 P0000 T10891117 TSNO","FM-16","7",,,,,,,,,,,,,,,,,,,,,,,,,,,,"2005-10-30"
"70362125516","2020-01-30T00:20:00","FM-16","7",,,,,,,,,,,,,,,,,,,,,,,,,,,,,,,,,,,,,,"29.01","11","15","T","-SN:03 BR:1 |SN |",,,"84",,"VV:09 9","28.98","0.75","14","000",,"0",,,,,,,,,,,,,,,,,,,,,,,,,,,,,,,,,,,,,"MET10601/30/20 00:20:02 SPECI PASO 300920Z 00000KT 3/4SM -SN BR VV009 M09/M12 A2901 RMK AO2 P0000 T10941117 TSNO","FM-16","7",,,,,,,,,,,,,,,,,,,,,,,,,,,,"2005-10-30"
"70362125516","2020-01-30T00:40:00","FM-16","7",,,,,,,,,,,,,,,,,,,,,,,,,,,,,,,,,,,,,,"29.01","13","16","T","-SN:03 BR:1 |SN |",,,"88",,"VV:09 14","28.98","1.00","15","000",,"0",,,,,,,,,,,,,,,,,,,,,,,,,,,,,,,,,,,,,"MET10401/30/20 00:40:02 SPECI PASO 300940Z 00000KT 1SM -SN BR VV014 M09/M11 A2901 RMK AO2 P0000 T10891106 TSNO","FM-16","7",,,,,,,,,,,,,,,,,,,,,,,,,,,,"2005-10-30"
"70362125516","2020-01-30T00:48:00","FM-16","7",,,,,,,,,,,,,,,,,,,,,,,,,,,,,,,,,,,,,,"29.02","12","16","T","-SN:03 BR:1 |SN |",,,"86",,"OVC:08 15","28.99","1.50","15","000",,"0",,,,,,,,,,,,,,,,,,,,,,,,,,,,,,,,,,,,,"MET09901/30/20 00:48:02 SPECI PASO 300948Z 00000KT 1 1/2SM -SN BR OVC015 M09/M11 A2902 RMK AO2 P0000 TSNO","FM-16","7",,,,,,,,,,,,,,,,,,,,,,,,,,,,"2005-10-30"
"70362125516","2020-01-30T00:53:00","FM-15","7",,,,,,,,,,,,,,,,,,,,,,,,,,,,,,,,,,,,,,"29.01","12","16","T","-SN:03 BR:1 |SN |",,,"84","29.01","OVC:08 15","28.98","1.25","15","000",,"0",,,,,,,,,,,,,,,,,,,,,,,,,,,,,,,,,,,,,"MET11601/30/20 00:53:02 METAR PASO 300953Z 00000KT 1 1/4SM -SN BR OVC015 M09/M11 A2901 RMK AO2 SLP825 P0000 T10891111 TSNO","FM-15","7",,,,,,,,,,,,,,,,,,,,,,,,,,,,"2005-10-30"
"70362125516","2020-01-30T01:00:00","FM-16","7",,,,,,,,,,,,,,,,,,,,,,,,,,,,,,,,,,,,,,"29.01","12","15","T","-SN:03 BR:1 |SN |",,,"88",,"VV:09 14","28.98","1.00","14","000",,"0",,,,,,,,,,,,,,,,,,,,,,,,,,,,,,,,,,,,,"MET10401/30/20 01:00:02 SPECI PASO 301000Z 00000KT 1SM -SN BR VV014 M09/M11 A2901 RMK AO2 P0000 T10941111 TSNO","FM-16","7",,,,,,,,,,,,,,,,,,,,,,,,,,,,"2005-10-30"
"70362125516","2020-01-30T01:13:00","FM-16","7",,,,,,,,,,,,,,,,,,,,,,,,,,,,,,,,,,,,,,"29.01","13","16","T","-SN:03 BR:1 |SN |",,,"88",,"OVC:08 20","28.98","1.50","15","000",,"0",,,,,,,,,,,,,,,,,,,,,,,,,,,,,,,,,,,,,"MET10901/30/20 01:13:02 SPECI PASO 301013Z 00000KT 1 1/2SM -SN BR OVC020 M09/M11 A2901 RMK AO2 P0000 T10891106 TSNO","FM-16","7",,,,,,,,,,,,,,,,,,,,,,,,,,,,"2005-10-30"
"70362125516","2020-01-30T01:22:00","FM-16","7",,,,,,,,,,,,,,,,,,,,,,,,,,,,,,,,,,,,,,"29.01","13","16","T","-SN:03 BR:1 |SN |",,,"88",,"BKN:07 24 OVC:08 55","28.98","3.00","15","000",,"0",,,,,,,,,,,,,,,,,,,,,,,,,,,,,,,,,,,,,"MET11201/30/20 01:22:02 SPECI PASO 301022Z 00000KT 3SM -SN BR BKN024 OVC055 M09/M11 A2901 RMK AO2 P0000 T10891106 TSNO","FM-16","7",,,,,,,,,,,,,,,,,,,,,,,,,,,,"2005-10-30"
"70362125516","2020-01-30T01:33:00","FM-16","7",,,,,,,,,,,,,,,,,,,,,,,,,,,,,,,,,,,,,,"29.00","12","15","T","-SN:03 BR:1 |SN |",,,"88",,"BKN:07 38 BKN:07 55 OVC:08 70","28.97","3.00","14","000",,"0",,,,,,,,,,,,,,,,,,,,,,,,,,,,,,,,,,,,,"MET11901/30/20 01:33:02 SPECI PASO 301033Z 00000KT 3SM -SN BR BKN038 BKN055 OVC070 M09/M11 A2900 RMK AO2 P0000 T10941111 TSNO","FM-16","7",,,,,,,,,,,,,,,,,,,,,,,,,,,,"2005-10-30"
"70362125516","2020-01-30T01:46:00","FM-16","7",,,,,,,,,,,,,,,,,,,,,,,,,,,,,,,,,,,,,,"29.01","12","15","T","-SN:03 BR:1 |SN |",,,"88",,"BKN:07 26 OVC:08 55","28.98","2.50","14","180",,"3",,,,,,,,,,,,,,,,,,,,,,,,,,,,,,,,,,,,,"MET11601/30/20 01:46:02 SPECI PASO 301046Z 18003KT 2 1/2SM -SN BR BKN026 OVC055 M09/M11 A2901 RMK AO2 P0000 T10941111 TSNO","FM-16","7",,,,,,,,,,,,,,,,,,,,,,,,,,,,"2005-10-30"
"70362125516","2020-01-30T01:53:00","FM-15","7",,,,,,,,,,,,,,,,,,,,,,,,,,,,,,,,,,,,,,"29.00","12","16","T","-SN:03 BR:1 |SN |",,,"84","29.00","OVC:08 22","28.97","1.75","15","000",,"0",,,,,,,,,,,,,,,,,,,,,,,,,,,,,,,,,,,,,"MET11601/30/20 01:53:02 METAR PASO 301053Z 00000KT 1 3/4SM -SN BR OVC022 M09/M11 A2900 RMK AO2 SLP822 P0000 T10891111 TSNO","FM-15","7",,,,,,,,,,,,,,,,,,,,,,,,,,,,"2005-10-30"
"70362125516","2020-01-30T02:06:00","FM-16","7",,,,,,,,,,,,,,,,,,,,,,,,,,,,,,,,,,,,,,"29.01","13","16","T","-SN:03 BR:1 |SN |",,,"88",,"VV:09 13","28.98","0.75","15","210",,"3",,,,,,,,,,,,,,,,,,,,,,,,,,,,,,,,,,,,,"MET10601/30/20 02:06:02 SPECI PASO 301106Z 21003KT 3/4SM -SN BR VV013 M09/M11 A2901 RMK AO2 P0000 T10891106 TSNO","FM-16","7",,,,,,,,,,,,,,,,,,,,,,,,,,,,"2005-10-30"
"70362125516","2020-01-30T02:28:00","FM-16","7",,,,,,,,,,,,,,,,,,,,,,,,,,,,,,,,,,,,,,"29.01","13","16","T","-SN:03 BR:1 |SN |",,,"88",,"BKN:07 16 OVC:08 43","28.98","1.75","15","000",,"0",,,,,,,,,,,,,,,,,,,,,,,,,,,,,,,,,,,,,"MET11601/30/20 02:28:02 SPECI PASO 301128Z 00000KT 1 3/4SM -SN BR BKN016 OVC043 M09/M11 A2901 RMK AO2 P0000 T10891106 TSNO","FM-16","7",,,,,,,,,,,,,,,,,,,,,,,,,,,,"2005-10-30"
"70362125516","2020-01-30T02:32:00","FM-16","7",,,,,,,,,,,,,,,,,,,,,,,,,,,,,,,,,,,,,,"29.01","12","15","T","-SN:03 BR:1 |SN |",,,"88",,"BKN:07 20 OVC:08 43","28.98","3.00","14","000",,"0",,,,,,,,,,,,,,,,,,,,,,,,,,,,,,,,,,,,,"MET11201/30/20 02:32:02 SPECI PASO 301132Z 00000KT 3SM -SN BR BKN020 OVC043 M09/M11 A2901 RMK AO2 P0000 T10941111 TSNO","FM-16","7",,,,,,,,,,,,,,,,,,,,,,,,,,,,"2005-10-30"
"70362125516","2020-01-30T02:49:00","FM-16","7",,,,,,,,,,,,,,,,,,,,,,,,,,,,,,,,,,,,,,"29.01","12","16","T","-SN:03 BR:1 |SN |",,,"86",,"BKN:07 38 OVC:08 46","28.98","6.00","15","160",,"3",,,,,,,,,,,,,,,,,,,,,,,,,,,,,,,,,,,,,"MET10201/30/20 02:49:02 SPECI PASO 301149Z 16003KT 6SM -SN BR BKN038 OVC046 M09/M11 A2901 RMK AO2 P0000 TSNO","FM-16","7",,,,,,,,,,,,,,,,,,,,,,,,,,,,"2005-10-30"
"70362125516","2020-01-30T02:53:00","FM-15","7",,,,,,,,,,,,,,,,,,,,,,,,,,,,,,,,,,,,,,"29.00","12","15","T",,"+0.01","6","88","29.00","OVC:08 41","28.97","8.00","14","000",,"0",,,,,,,,,,,,,,,,,,,,,,,,,,,,,,,,,,,,,"MET13501/30/20 02:53:02 METAR PASO 301153Z 00000KT 8SM OVC041 M09/M11 A2900 RMK AO2 SNE52 SLP822 P0000 60000 T10941111 11089 21094 56003 TSNO","FM-15","7",,,,,,,,,,,,,,,,,,,,,,,,,,,,"2005-10-30"
"70362125516","2020-01-30T03:53:00","FM-15","7",,,,,,,,,,,,,,,,,,,,,,,,,,,,,,,,,,,,,,"29.00","12","15","T",,,,"88","29.00","BKN:07 43 OVC:08 50","28.97","10.00","14","000",,"0",,,,,,,,,,,,,,,,,,,,,,,,,,,,,,,,,,,,,"MET12201/30/20 03:53:02 METAR PASO 301253Z 00000KT 10SM BKN043 OVC050 M09/M11 A2900 RMK AO2 SNB12E22 SLP820 P0000 T10941111 TSNO","FM-15","7",,,,,,,,,,,,,,,,,,,,,,,,,,,,"2005-10-30"
"70362125516","2020-01-30T04:53:00","FM-15","7",,,,,,,,,,,,,,,,,,,,,,,,,,,,,,,,,,,,,,"29.00","13","15","0.00",,,,"91","29.00","BKN:07 43 OVC:08 50","28.97","10.00","14","000",,"0",,,,,,,,,,,,,,,,,,,,,,,,,,,,,,,,,,,,,"MET10701/30/20 04:53:02 METAR PASO 301353Z 00000KT 10SM BKN043 OVC050 M09/M11 A2900 RMK AO2 SLP821 T10941106 TSNO","FM-15","7",,,,,,,,,,,,,,,,,,,,,,,,,,,,"2005-10-30"
"70362125516","2020-01-30T05:53:00","FM-15","7",,,,,,,,,,,,,,,,,,,,,,,,,,,,,,,,,,,,,,"29.00","14","17","T",,"+0.00","5","88","29.00","FEW:02 43 OVC:08 49","28.97","9.00","16","000",,"0",,,,,,,,,,,,,,,,,,,,,,,,,,,,,,,,,,,,,"MET13301/30/20 05:53:02 METAR PASO 301453Z 00000KT 9SM FEW043 OVC049 M08/M10 A2900 RMK AO2 SNB13E51 SLP822 P0000 60000 T10831100 55000 TSNO","FM-15","7",,,,,,,,,,,,,,,,,,,,,,,,,,,,"2005-10-30"
"70362125516","2020-01-30T06:23:00","FM-16","7",,,,,,,,,,,,,,,,,,,,,,,,,,,,,,,,,,,,,,"29.01","14","17","T","-SN:03 BR:1 |SN |",,,"88",,"OVC:08 29","28.98","2.00","16","000",,"0",,,,,,,,,,,,,,,,,,,,,,,,,,,,,,,,,,,,,"MET11101/30/20 06:23:02 SPECI PASO 301523Z 00000KT 2SM -SN BR OVC029 M08/M10 A2901 RMK AO2 SNB08 P0000 T10831100 TSNO","FM-16","7",,,,,,,,,,,,,,,,,,,,,,,,,,,,"2005-10-30"
"70362125516","2020-01-30T06:33:00","FM-16","7",,,,,,,,,,,,,,,,,,,,,,,,,,,,,,,,,,,,,,"29.00","16","18","T","-SN:03 BR:1 |SN |",,,"92",,"OVC:08 22","28.97","1.50","17","000",,"0",,,,,,,,,,,,,,,,,,,,,,,,,,,,,,,,,,,,,"MET11501/30/20 06:33:02 SPECI PASO 301533Z 00000KT 1 1/2SM -SN BR OVC022 M08/M09 A2900 RMK AO2 SNB08 P0000 T10781089 TSNO","FM-16","7",,,,,,,,,,,,,,,,,,,,,,,,,,,,"2005-10-30"
"70362125516","2020-01-30T06:43:00","FM-16","7",,,,,,,,,,,,,,,,,,,,,,,,,,,,,,,,,,,,,,"29.00","15","18","T","-SN:03 BR:1 |SN |",,,"88",,"OVC:08 24","28.97","3.00","17","000",,"0",,,,,,,,,,,,,,,,,,,,,,,,,,,,,,,,,,,,,"MET11101/30/20 06:43:02 SPECI PASO 301543Z 00000KT 3SM -SN BR OVC024 M08/M09 A2900 RMK AO2 SNB08 P0000 T10781094 TSNO","FM-16","7",,,,,,,,,,,,,,,,,,,,,,,,,,,,"2005-10-30"
"70362125516","2020-01-30T06:51:00","FM-16","6",,,,,,,,,,,,,,,,,,,,,,,,,,,,,,,,,,,,,,"29.00","16","18",,"-SN:03 BR:1 |SN |",,,"93",,"BKN:07 31 OVC:08 46","28.97","3.00","17","000",,"0",,,,,,,,,,,,,,,,,,,,,,,,,,,,,,,,,,,,,"MET11301/30/20 06:51:02 SPECI PASO 301551Z 00000KT 3SM -SN BR BKN031 OVC046 M08/M09 A2900 RMK AO2 SNB08 P0000 TSNO FIBI","FM-16","6",,,,,,,,,,,,,,,,,,,,,,,,,,,,"2005-10-30"
"70362125516","2020-01-30T06:53:00","FM-15","7",,,,,,,,,,,,,,,,,,,,,,,,,,,,,,,,,,,,,,"29.00","15","18","T","-SN:03 BR:1 |SN |",,,"88","29.00","OVC:08 31","28.97","3.00","17","000",,"0",,,,,,,,,,,,,,,,,,,,,,,,,,,,,,,,,,,,,"MET11801/30/20 06:53:02 METAR PASO 301553Z 00000KT 3SM -SN BR OVC031 M08/M09 A2900 RMK AO2 SNB08 SLP821 P0000 T10781094 TSNO","FM-15","7",,,,,,,,,,,,,,,,,,,,,,,,,,,,"2005-10-30"
"70362125516","2020-01-30T07:09:00","FM-16","7",,,,,,,,,,,,,,,,,,,,,,,,,,,,,,,,,,,,,,"29.00","14","17","T","-SN:03 BR:1 |SN |",,,"88",,"OVC:08 25","28.97","2.50","16","200",,"3",,,,,,,,,,,,,,,,,,,,,,,,,,,,,,,,,,,,,"MET10901/30/20 07:09:02 SPECI PASO 301609Z 20003KT 2 1/2SM -SN BR OVC025 M08/M10 A2900 RMK AO2 P0000 T10831100 TSNO","FM-16","7",,,,,,,,,,,,,,,,,,,,,,,,,,,,"2005-10-30"
"70362125516","2020-01-30T07:17:00","FM-16","7",,,,,,,,,,,,,,,,,,,,,,,,,,,,,,,,,,,,,,"29.00","15","18","T","-SN:03 BR:1 |SN |",,,"88",,"VV:09 18","28.97","0.75","17","000",,"0",,,,,,,,,,,,,,,,,,,,,,,,,,,,,,,,,,,,,"MET10601/30/20 07:17:02 SPECI PASO 301617Z 00000KT 3/4SM -SN BR VV018 M08/M09 A2900 RMK AO2 P0000 T10781094 TSNO","FM-16","7",,,,,,,,,,,,,,,,,,,,,,,,,,,,"2005-10-30"
"70362125516","2020-01-30T07:28:00","FM-16","7",,,,,,,,,,,,,,,,,,,,,,,,,,,,,,,,,,,,,,"29.00","16","18","T","SN:03 FZ:8 FG:2 |FG SN |",,,"92",,"VV:09 11","28.97","0.50","17","000",,"0",,,,,,,,,,,,,,,,,,,,,,,,,,,,,,,,,,,,,"MET10701/30/20 07:28:02 SPECI PASO 301628Z 00000KT 1/2SM SN FZFG VV011 M08/M09 A2900 RMK AO2 P0000 T10781089 TSNO","FM-16","7",,,,,,,,,,,,,,,,,,,,,,,,,,,,"2005-10-30"
"70362125516","2020-01-30T07:40:00","FM-16","7",,,,,,,,,,,,,,,,,,,,,,,,,,,,,,,,,,,,,,"29.00","15","18","T","-SN:03 BR:1 |SN |",,,"88",,"OVC:08 12","28.97","1.50","17","180",,"3",,,,,,,,,,,,,,,,,,,,,,,,,,,,,,,,,,,,,"MET10901/30/20 07:40:02 SPECI PASO 301640Z 18003KT 1 1/2SM -SN BR OVC012 M08/M09 A2900 RMK AO2 P0000 T10781094 TSNO","FM-16","7",,,,,,,,,,,,,,,,,,,,,,,,,,,,"2005-10-30"
"70362125516","2020-01-30T07:47:00","FM-16","7",,,,,,,,,,,,,,,,,,,,,,,,,,,,,,,,,,,,,,"29.00","14","18","T","-SN:03 BR:1 |SN |",,,"86",,"OVC:08 16","28.97","2.00","17","000",,"0",,,,,,,,,,,,,,,,,,,,,,,,,,,,,,,,,,,,,"MET09501/30/20 07:47:02 SPECI PASO 301647Z 00000KT 2SM -SN BR OVC016 M08/M10 A2900 RMK AO2 P0000 TSNO","FM-16","7",,,,,,,,,,,,,,,,,,,,,,,,,,,,"2005-10-30"
"70362125516","2020-01-30T07:51:00","FM-16","6",,,,,,,,,,,,,,,,,,,,,,,,,,,,,,,,,,,,,,"29.00","16","18",,"-SN:03 BR:1 |SN |",,,"93",,"OVC:08 21","28.97","3.00","17","000",,"0",,,,,,,,,,,,,,,,,,,,,,,,,,,,,,,,,,,,,"MET10001/30/20 07:51:02 SPECI PASO 301651Z 00000KT 3SM -SN BR OVC021 M08/M09 A2900 RMK AO2 P0000 TSNO FIBI","FM-16","6",,,,,,,,,,,,,,,,,,,,,,,,,,,,"2005-10-30"
"70362125516","2020-01-30T07:53:00","FM-15","7",,,,,,,,,,,,,,,,,,,,,,,,,,,,,,,,,,,,,,"29.00","15","18","T","-SN:03 BR:1 |SN |",,,"88","29.00","OVC:08 26","28.97","3.00","17","000",,"0",,,,,,,,,,,,,,,,,,,,,,,,,,,,,,,,,,,,,"MET11201/30/20 07:53:02 METAR PASO 301653Z 00000KT 3SM -SN BR OVC026 M08/M09 A2900 RMK AO2 SLP821 P0000 T10781094 TSNO","FM-15","7",,,,,,,,,,,,,,,,,,,,,,,,,,,,"2005-10-30"
"70362125516","2020-01-30T08:01:00","FM-16","7",,,,,,,,,,,,,,,,,,,,,,,,,,,,,,,,,,,,,,"29.00","15","18","T","BR:1 ||",,,"88",,"OVC:08 35","28.97","6.00","17","000",,"0",,,,,,,,,,,,,,,,,,,,,,,,,,,,,,,,,,,,,"MET10701/30/20 08:01:02 SPECI PASO 301701Z 00000KT 6SM BR OVC035 M08/M09 A2900 RMK AO2 SNE00 P0000 T10781094 TSNO","FM-16","7",,,,,,,,,,,,,,,,,,,,,,,,,,,,"2005-10-30"
"70362125516","2020-01-30T08:45:00","FM-16","7",,,,,,,,,,,,,,,,,,,,,,,,,,,,,,,,,,,,,,"29.00","16","19","T","-SN:03 BR:1 |SN |",,,"88",,"BKN:07 27 OVC:08 39","28.97","4.00","18","000",,"0",,,,,,,,,,,,,,,,,,,,,,,,,,,,,,,,,,,,,"MET12101/30/20 08:45:02 SPECI PASO 301745Z 00000KT 4SM -SN BR BKN027 OVC039 M07/M09 A2900 RMK AO2 SNE00B33 P0000 T10721089 TSNO","FM-16","7",,,,,,,,,,,,,,,,,,,,,,,,,,,,"2005-10-30"
"70362125516","2020-01-30T08:53:00","FM-15","7",,,,,,,,,,,,,,,,,,,,,,,,,,,,,,,,,,,,,,"29.00","17","20","T","-SN:03 BR:1 |SN |","+0.00","7","89","29.00","FEW:02 13 BKN:07 27 OVC:08 37","28.97","4.00","19","000",,"0",,,,,,,,,,,,,,,,,,,,,,,,,,,,,,,,,,,,,"MET15901/30/20 08:53:02 METAR PASO 301753Z 00000KT 4SM -SN BR FEW013 BKN027 OVC037 M07/M08 A2900 RMK AO2 SNE00B33 SLP821 P0000 60000 T10671083 11067 21100 57000 TSNO","FM-15","7",,,,,,,,,,,,,,,,,,,,,,,,,,,,"2005-10-30"
"70362125516","2020-01-30T09:07:00","FM-16","7",,,,,,,,,,,,,,,,,,,,,,,,,,,,,,,,,,,,,,"29.00","17","20","T","-SN:03 BR:1 |SN |",,,"89",,"SCT:04 15 BKN:07 21 OVC:08 27","28.97","2.00","19","000",,"0",,,,,,,,,,,,,,,,,,,,,,,,,,,,,,,,,,,,,"MET11901/30/20 09:07:02 SPECI PASO 301807Z 00000KT 2SM -SN BR SCT015 BKN021 OVC027 M07/M08 A2900 RMK AO2 P0000 T10671083 TSNO","FM-16","7",,,,,,,,,,,,,,,,,,,,,,,,,,,,"2005-10-30"
"70362125516","2020-01-30T09:20:00","FM-16","7",,,,,,,,,,,,,,,,,,,,,,,,,,,,,,,,,,,,,,"29.00","18","21","T","-SN:03 BR:1 |SN |",,,"88",,"BKN:07 15 OVC:08 21","28.97","1.75","20","000",,"0",,,,,,,,,,,,,,,,,,,,,,,,,,,,,,,,,,,,,"MET11601/30/20 09:20:02 SPECI PASO 301820Z 00000KT 1 3/4SM -SN BR BKN015 OVC021 M06/M08 A2900 RMK AO2 P0000 T10611078 TSNO","FM-16","7",,,,,,,,,,,,,,,,,,,,,,,,,,,,"2005-10-30"
"70362125516","2020-01-30T09:29:00","FM-16","7",,,,,,,,,,,,,,,,,,,,,,,,,,,,,,,,,,,,,,"29.00","19","22","T","-SN:03 BR:1 |SN |",,,"89",,"BKN:07 15 OVC:08 23","28.97","2.00","21","000",,"0",,,,,,,,,,,,,,,,,,,,,,,,,,,,,,,,,,,,,"MET11201/30/20 09:29:02 SPECI PASO 301829Z 00000KT 2SM -SN BR BKN015 OVC023 M06/M07 A2900 RMK AO2 P0000 T10561072 TSNO","FM-16","7",,,,,,,,,,,,,,,,,,,,,,,,,,,,"2005-10-30"
"70362125516","2020-01-30T09:40:00","FM-16","7",,,,,,,,,,,,,,,,,,,,,,,,,,,,,,,,,,,,,,"29.00","18","21","T","-SN:03 BR:1 |SN |",,,"88",,"SCT:04 13 BKN:07 24 OVC:08 70","28.97","3.00","20","150",,"5",,,,,,,,,,,,,,,,,,,,,,,,,,,,,,,,,,,,,"MET11901/30/20 09:40:02 SPECI PASO 301840Z 15004KT 3SM -SN BR SCT013 BKN024 OVC070 M06/M08 A2900 RMK AO2 P0000 T10611078 TSNO","FM-16","7",,,,,,,,,,,,,,,,,,,,,,,,,,,,"2005-10-30"
"70362125516","2020-01-30T09:51:00","FM-16","6",,,,,,,,,,,,,,,,,,,,,,,,,,,,,,,,,,,,,,"29.00","19","21",,"-SN:03 BR:1 |SN |",,,"93",,"BKN:07 13 BKN:07 30 OVC:08 55","28.97","6.00","20","150",,"5",,,,,,,,,,,,,,,,,,,,,,,,,,,,,,,,,,,,,"MET11401/30/20 09:51:02 SPECI PASO 301851Z 15004KT 6SM -SN BR BKN013 BKN030 OVC055 M06/M07 A2900 RMK AO2 P0000 TSNO FIBI","FM-16","6",,,,,,,,,,,,,,,,,,,,,,,,,,,,"2005-10-30"
"70362125516","2020-01-30T09:53:00","FM-15","7",,,,,,,,,,,,,,,,,,,,,,,,,,,,,,,,,,,,,,"29.00","19","22","T","-SN:03 BR:1 |SN |",,,"89","29.00","BKN:07 13 BKN:07 29 OVC:08 55","28.97","5.00","21","150",,"5",,,,,,,,,,,,,,,,,,,,,,,,,,,,,,,,,,,,,"MET12601/30/20 09:53:02 METAR PASO 301853Z 15004KT 5SM -SN BR BKN013 BKN029 OVC055 M06/M07 A2900 RMK AO2 SLP821 P0000 T10561072 TSNO","FM-15","7",,,,,,,,,,,,,,,,,,,,,,,,,,,,"2005-10-30"
"70362125516","2020-01-30T10:16:00","FM-16","7",,,,,,,,,,,,,,,,,,,,,,,,,,,,,,,,,,,,,,"29.01","20","22","T","-SN:03 BR:1 |SN |",,,"92",,"OVC:08 12","28.98","1.75","21","000",,"0",,,,,,,,,,,,,,,,,,,,,,,,,,,,,,,,,,,,,"MET10901/30/20 10:16:02 SPECI PASO 301916Z 00000KT 1 3/4SM -SN BR OVC012 M06/M07 A2901 RMK AO2 P0000 T10561067 TSNO","FM-16","7",,,,,,,,,,,,,,,,,,,,,,,,,,,,"2005-10-30"
"70362125516","2020-01-30T10:51:00","FM-16","6",,,,,,,,,,,,,,,,,,,,,,,,,,,,,,,,,,,,,,"29.01","19","23",,"-SN:03 BR:1 |SN |",,,"86",,"OVC:08 8","28.98","1.00","22","VRB",,"5",,,,,,,,,,,,,,,,,,,,,,,,,,,,,,,,,,,,,"MET10001/30/20 10:51:02 SPECI PASO 301951Z VRB04KT 1SM -SN BR OVC008 M05/M07 A2901 RMK AO2 P0000 TSNO FIBI","FM-16","6",,,,,,,,,,,,,,,,,,,,,,,,,,,,"2005-10-30"
"70362125516","2020-01-30T10:53:00","FM-15","7",,,,,,,,,,,,,,,,,,,,,,,,,,,,,,,,,,,,,,"29.01","19","23","T","-SN:03 BR:1 |SN |",,,"85","29.01","OVC:08 8","28.98","1.00","22","VRB",,"5",,,,,,,,,,,,,,,,,,,,,,,,,,,,,,,,,,,,,"MET11201/30/20 10:53:02 METAR PASO 301953Z VRB04KT 1SM -SN BR OVC008 M05/M07 A2901 RMK AO2 SLP823 P0000 T10501072 TSNO","FM-15","7",,,,,,,,,,,,,,,,,,,,,,,,,,,,"2005-10-30"
"70362125516","2020-01-30T11:05:00","FM-16","7",,,,,,,,,,,,,,,,,,,,,,,,,,,,,,,,,,,,,,"29.01","19","22","T","-SN:03 BR:1 |SN |",,,"89",,"OVC:08 10","28.98","3.00","21","VRB",,"6",,,,,,,,,,,,,,,,,,,,,,,,,,,,,,,,,,,,,"MET10501/30/20 11:05:02 SPECI PASO 302005Z VRB05KT 3SM -SN BR OVC010 M06/M07 A2901 RMK AO2 P0000 T10561072 TSNO","FM-16","7",,,,,,,,,,,,,,,,,,,,,,,,,,,,"2005-10-30"
"70362125516","2020-01-30T11:21:00","FM-16","7",,,,,,,,,,,,,,,,,,,,,,,,,,,,,,,,,,,,,,"29.01","19","22","T","-SN:03 BR:1 |SN |",,,"89",,"OVC:08 9","28.98","4.00","21","100",,"7",,,,,,,,,,,,,,,,,,,,,,,,,,,,,,,,,,,,,"MET10501/30/20 11:21:02 SPECI PASO 302021Z 10006KT 4SM -SN BR OVC009 M06/M07 A2901 RMK AO2 P0000 T10561072 TSNO","FM-16","7",,,,,,,,,,,,,,,,,,,,,,,,,,,,"2005-10-30"
"70362125516","2020-01-30T11:38:00","FM-16","7",,,,,,,,,,,,,,,,,,,,,,,,,,,,,,,,,,,,,,"29.02","19","22","T","-SN:03 BR:1 |SN |",,,"89",,"OVC:08 9","28.99","1.75","21","060",,"6",,,,,,,,,,,,,,,,,,,,,,,,,,,,,,,,,,,,,"MET12101/30/20 11:38:02 SPECI PASO 302038Z 06005KT 1 3/4SM -SN BR OVC009 M06/M07 A2902 RMK AO2 CIG 008V012 P0000 T10561072 TSNO","FM-16","7",,,,,,,,,,,,,,,,,,,,,,,,,,,,"2005-10-30"
"70362125516","2020-01-30T11:49:00","FM-16","7",,,,,,,,,,,,,,,,,,,,,,,,,,,,,,,,,,,,,,"29.02","18","21","T","-SN:03 BR:1 |SN |",,,"86",,"OVC:08 12","28.99","2.50","20","VRB",,"5",,,,,,,,,,,,,,,,,,,,,,,,,,,,,,,,,,,,,"MET09901/30/20 11:49:02 SPECI PASO 302049Z VRB04KT 2 1/2SM -SN BR OVC012 M06/M08 A2902 RMK AO2 P0000 TSNO","FM-16","7",,,,,,,,,,,,,,,,,,,,,,,,,,,,"2005-10-30"
"70362125516","2020-01-30T11:53:00","FM-15","7",,,,,,,,,,,,,,,,,,,,,,,,,,,,,,,,,,,,,,"29.02","18","22","T","-SN:03 BR:1 |SN |","-0.01","3","85","29.02","OVC:08 12","28.99","3.00","21","VRB",,"6",,,,,,,,,,,,,,,,,,,,,,,,,,,,,,,,,,,,,"MET12401/30/20 11:53:02 METAR PASO 302053Z VRB05KT 3SM -SN BR OVC012 M06/M08 A2902 RMK AO2 SLP827 P0000 60000 T10561078 53005 TSNO","FM-15","7",,,,,,,,,,,,,,,,,,,,,,,,,,,,"2005-10-30"
"70362125516","2020-01-30T12:43:00","FM-16","7",,,,,,,,,,,,,,,,,,,,,,,,,,,,,,,,,,,,,,"29.03","18","22","T",,,,"85",,"OVC:08 9","29.00","9.00","21","150",,"6",,,,,,,,,,,,,,,,,,,,,,,,,,,,,,,,,,,,,"MET11001/30/20 12:43:02 SPECI PASO 302143Z 15005KT 9SM OVC009 M06/M08 A2903 RMK AO2 SNE02B24E38 P0000 T10561078 TSNO","FM-16","7",,,,,,,,,,,,,,,,,,,,,,,,,,,,"2005-10-30"
"70362125516","2020-01-30T12:53:00","FM-15","7",,,,,,,,,,,,,,,,,,,,,,,,,,,,,,,,,,,,,,"29.02","18","22","T",,,,"85","29.03","OVC:08 10","28.99","10.00","21","160",,"7",,,,,,,,,,,,,,,,,,,,,,,,,,,,,,,,,,,,,"MET13001/30/20 12:53:02 METAR PASO 302153Z 16006KT 10SM OVC010 M06/M08 A2902 RMK AO2 SNE02B24E38 CIG 008V013 SLP829 P0000 T10561078 TSNO","FM-15","7",,,,,,,,,,,,,,,,,,,,,,,,,,,,"2005-10-30"
"70362125516","2020-01-30T13:53:00","FM-15","7",,,,,,,,,,,,,,,,,,,,,,,,,,,,,,,,,,,,,,"29.03","19","23","T",,,,"85","29.03","OVC:08 10","29.00","9.00","22","160",,"5",,,,,,,,,,,,,,,,,,,,,,,,,,,,,,,,,,,,,"MET12601/30/20 13:53:02 METAR PASO 302253Z 16004KT 9SM OVC010 M05/M07 A2903 RMK AO2 SNB35E48 CIG 009V014 SLP829 P0000 T10501072 TSNO","FM-15","7",,,,,,,,,,,,,,,,,,,,,,,,,,,,"2005-10-30"
"70362125516","2020-01-30T14:53:00","FM-15","7",,,,,,,,,,,,,,,,,,,,,,,,,,,,,,,,,,,,,,"29.04","18","22","0.00",,"-0.02","3","85","29.04","OVC:08 10","29.01","10.00","21","170",,"8",,,,,,,,,,,,,,,,,,,,,,,,,,,,,,,,,,,,,"MET12401/30/20 14:53:02 METAR PASO 302353Z 17007KT 10SM OVC010 M06/M08 A2904 RMK AO2 SLP833 60000 T10561078 11050 21072 53006 TSNO","FM-15","7",,,,,,,,,,,,,,,,,,,,,,,,,,,,"2005-10-30"
"70362125516","2020-01-30T15:03:00","FM-16","7",,,,,,,,,,,,,,,,,,,,,,,,,,,,,,,,,,,,,,"29.04","18","22",,,,,"85",,"OVC:08 9","29.01","9.00","21","160",,"6",,,,,,,,,,,,,,,,,,,,,,,,,,,,,,,,,,,,,"MET09201/30/20 15:03:03 SPECI PASO 310003Z 16005KT 9SM OVC009 M06/M08 A2904 RMK AO2 T10561078 TSNO","FM-16","7",,,,,,,,,,,,,,,,,,,,,,,,,,,,"2005-10-30"
"70362125516","2020-01-30T15:53:00","FM-15","7",,,,,,,,,,,,,,,,,,,,,,,,,,,,,,,,,,,,,,"29.05","20","23","0.00",,,,"88","29.05","OVC:08 9","29.02","10.00","22","VRB",,"5",,,,,,,,,,,,,,,,,,,,,,,,,,,,,,,,,,,,,"MET10001/30/20 15:53:03 METAR PASO 310053Z VRB04KT 10SM OVC009 M05/M07 A2905 RMK AO2 SLP838 T10501067 TSNO","FM-15","7",,,,,,,,,,,,,,,,,,,,,,,,,,,,"2005-10-30"
"70362125516","2020-01-30T16:53:00","FM-15","7",,,,,,,,,,,,,,,,,,,,,,,,,,,,,,,,,,,,,,"29.07","19","23","0.00",,,,"85","29.07","OVC:08 9","29.04","10.00","22","VRB",,"6",,,,,,,,,,,,,,,,,,,,,,,,,,,,,,,,,,,,,"MET11201/30/20 16:53:03 METAR PASO 310153Z VRB05KT 10SM OVC009 M05/M07 A2907 RMK AO2 CIG 008V014 SLP844 T10501072 TSNO","FM-15","7",,,,,,,,,,,,,,,,,,,,,,,,,,,,"2005-10-30"
"70362125516","2020-01-30T17:53:00","FM-15","7",,,,,,,,,,,,,,,,,,,,,,,,,,,,,,,,,,,,,,"29.10","18","21","T","-SN:03 |SN |","-0.06","3","88","29.10","OVC:08 9","29.07","9.00","20","VRB",,"5",,,,,,,,,,,,,,,,,,,,,,,,,,,,,,,,,,,,,"MET12701/30/20 17:53:03 METAR PASO 310253Z VRB04KT 9SM -SN OVC009 M06/M08 A2910 RMK AO2 SNB29 SLP853 P0000 60000 T10611078 53020 TSNO","FM-15","7",,,,,,,,,,,,,,,,,,,,,,,,,,,,"2005-10-30"
"70362125516","2020-01-30T18:51:00","FM-16","6",,,,,,,,,,,,,,,,,,,,,,,,,,,,,,,,,,,,,,"29.12","18","21",,"-SN:03 |SN |",,,"86",,"OVC:08 10","29.09","7.00","20","VRB",,"3",,,,,,,,,,,,,,,,,,,,,,,,,,,,,,,,,,,,,"MET09701/30/20 18:51:03 SPECI PASO 310351Z VRB03KT 7SM -SN OVC010 M06/M08 A2912 RMK AO2 P0000 TSNO FIBI","FM-16","6",,,,,,,,,,,,,,,,,,,,,,,,,,,,"2005-10-30"
"70362125516","2020-01-30T18:53:00","FM-15","7",,,,,,,,,,,,,,,,,,,,,,,,,,,,,,,,,,,,,,"29.12","17","21","T","-SN:03 |SN |",,,"85","29.12","OVC:08 10","29.09","7.00","20","VRB",,"7",,,,,,,,,,,,,,,,,,,,,,,,,,,,,,,,,,,,,"MET10901/30/20 18:53:03 METAR PASO 310353Z VRB06KT 7SM -SN OVC010 M06/M08 A2912 RMK AO2 SLP862 P0000 T10611083 TSNO","FM-15","7",,,,,,,,,,,,,,,,,,,,,,,,,,,,"2005-10-30"
"70362125516","2020-01-30T19:53:00","FM-15","7",,,,,,,,,,,,,,,,,,,,,,,,,,,,,,,,,,,,,,"29.14","16","20","T","-SN:03 BR:1 |SN |",,,"85","29.14","OVC:08 11","29.11","6.00","19","VRB",,"5",,,,,,,,,,,,,,,,,,,,,,,,,,,,,,,,,,,,,"MET11201/30/20 19:53:03 METAR PASO 310453Z VRB04KT 6SM -SN BR OVC011 M07/M09 A2914 RMK AO2 SLP867 P0000 T10671089 TSNO","FM-15","7",,,,,,,,,,,,,,,,,,,,,,,,,,,,"2005-10-30"
"70362125516","2020-01-30T20:53:00","FM-15","7",,,,,,,,,,,,,,,,,,,,,,,,,,,,,,,,,,,,,,"29.16","15","19","T","-SN:03 BR:1 |SN |","-0.04","3","84","29.16","OVC:08 12","29.13","5.00","18","200",,"5",,,,,,,,,,,,,,,,,,,,,,,,,,,,,,,,,,,,,"MET13601/30/20 20:53:03 METAR PASO 310553Z 20004KT 5SM -SN BR OVC012 M07/M09 A2916 RMK AO2 SLP874 P0000 60000 T10721094 11050 21072 53012 TSNO","FM-15","7",,,,,,,,,,,,,,,,,,,,,,,,,,,,"2005-10-30"
"70362125516","2020-01-30T21:53:00","FM-15","7",,,,,,,,,,,,,,,,,,,,,,,,,,,,,,,,,,,,,,"29.18","14","19","T","-SN:03 |SN |",,,"81","29.18","OVC:08 14","29.15","4.00","18","160",,"3",,,,,,,,,,,,,,,,,,,,,,,,,,,,,,,,,,,,,"MET10901/30/20 21:53:03 METAR PASO 310653Z 16003KT 4SM -SN OVC014 M07/M10 A2918 RMK AO2 SLP881 P0000 T10721100 TSNO","FM-15","7",,,,,,,,,,,,,,,,,,,,,,,,,,,,"2005-10-30"
"70362125516","2020-01-30T22:31:00","FM-16","7",,,,,,,,,,,,,,,,,,,,,,,,,,,,,,,,,,,,,,"29.19","13","18","T","-SN:03 |SN |",,,"81",,"OVC:08 16","29.16","3.00","17","VRB",,"7",,,,,,,,,,,,,,,,,,,,,,,,,,,,,,,,,,,,,"MET10201/30/20 22:31:03 SPECI PASO 310731Z VRB06KT 3SM -SN OVC016 M08/M11 A2919 RMK AO2 P0000 T10781106 TSNO","FM-16","7",,,,,,,,,,,,,,,,,,,,,,,,,,,,"2005-10-30"
"70362125516","2020-01-30T22:53:00","FM-15","7",,,,,,,,,,,,,,,,,,,,,,,,,,,,,,,,,,,,,,"29.19","13","18","T","-SN:03 |SN |",,,"81","29.19","OVC:08 16","29.16","3.00","17","150",,"5",,,,,,,,,,,,,,,,,,,,,,,,,,,,,,,,,,,,,"MET10901/30/20 22:53:03 METAR PASO 310753Z 15004KT 3SM -SN OVC016 M08/M11 A2919 RMK AO2 SLP886 P0000 T10781106 TSNO","FM-15","7",,,,,,,,,,,,,,,,,,,,,,,,,,,,"2005-10-30"
"70362125516","2020-01-30T23:12:00","FM-16","7",,,,,,,,,,,,,,,,,,,,,,,,,,,,,,,,,,,,,,"29.20","12","18","T","-SN:03 |SN |",,,"77",,"OVC:08 17","29.17","2.50","16","VRB",,"6",,,,,,,,,,,,,,,,,,,,,,,,,,,,,,,,,,,,,"MET10601/30/20 23:12:03 SPECI PASO 310812Z VRB05KT 2 1/2SM -SN OVC017 M08/M11 A2920 RMK AO2 P0000 T10781111 TSNO","FM-16","7",,,,,,,,,,,,,,,,,,,,,,,,,,,,"2005-10-30"
"70362125516","2020-01-30T23:19:00","FM-16","7",,,,,,,,,,,,,,,,,,,,,,,,,,,,,,,,,,,,,,"29.20","13","18","T","-SN:03 |SN |",,,"81",,"BKN:07 15 OVC:08 21","29.17","3.00","17","VRB",,"3",,,,,,,,,,,,,,,,,,,,,,,,,,,,,,,,,,,,,"MET10901/30/20 23:19:03 SPECI PASO 310819Z VRB03KT 3SM -SN BKN015 OVC021 M08/M11 A2920 RMK AO2 P0000 T10781106 TSNO","FM-16","7",,,,,,,,,,,,,,,,,,,,,,,,,,,,"2005-10-30"
"70362125516","2020-01-30T23:53:00","FM-15","7",,,,,,,,,,,,,,,,,,,,,,,,,,,,,,,,,,,,,,"29.21","12","17","T","-SN:03 |SN |","-0.05","1","80","29.21","OVC:08 17","29.18","4.00","16","000",,"0",,,,,,,,,,,,,,,,,,,,,,,,,,,,,,,,,,,,,"MET13101/30/20 23:53:03 METAR PASO 310853Z 00000KT 4SM -SN OVC017 M08/M11 A2921 RMK AO2 SLP892 P0000 60000 T10831111 410501100 51018 TSNO","FM-15","7",,,,,,,,,,,,,,,,,,,,,,,,,,,,"2005-10-30"
"70362125516","2020-01-30T23:59:00","SOD  ","6",,,,,,,,,,,,,,,,"19",,,"29.02",,"3.1","0","-7.1","46","23","14","180","19","T",,,"190","12","SN FZFG BR FG",,,,,,,,,,,,,,,,,,,,,,,,,,,,,,,,,,,,,,,,,,,,,,,,,,,,,,,,"SOD72724 HR PRECIPITATION (IN):T     24 HR MAX TEMP (F):23 24 HR MAX TEMP TIME (LST):1722 24 HR MIN TEMP (F):14 24 HR MIN TEMP TIME (LST):0437 AVERAGE STATION PRESSURE:29.015 MINIMUM SEA LEVEL PRESSURE:28.99 TIME OF OCCURRENCE:0400 PEAK WIND SPEED (MPH):19  PEAK WIND DIR (DEG):180 PEAK WIND TIME (LST):1507  FASTEST 2MIN SPEED (MPH):12 FASTEST 2MIN DIR (DEG):190 FASTEST 2MIN TIME (LST):1508 AVERAGE WIND SPEED (MPH):3.1  24 HR AVG TEMP (F):19 HEATING DEGREE DAYS:46  COOLING DEGREE DAYS:0   LATEST DAY MAX TEMP (0700-1900 LST):23  LATEST NIGHT MIN TEMP(1900-0800 LST):14 HOURLY INCREMENTAL PRECIPITATION VALUES (IN):    T    T    T    0.00 T    T    T    T    T    T    T    T    T    0.00 0.00 0.00 T    T    T    T    T    T    T","SOD  ","6",,,,,,,,,,,,,,,,,,,,,,,,,"0922","1719",,"2005-10-30"
"70362125516","2020-01-31T00:53:00","FM-15","7",,,,,,,,,,,,,,,,,,,,,,,,,,,,,,,,,,,,,,"29.22","12","17","T","-SN:03 |SN |",,,"80","29.22","OVC:08 18","29.19","5.00","16","VRB",,"3",,,,,,,,,,,,,,,,,,,,,,,,,,,,,,,,,,,,,"MET10901/31/20 00:53:02 METAR PASO 310953Z VRB03KT 5SM -SN OVC018 M08/M11 A2922 RMK AO2 SLP895 P0000 T10831111 TSNO","FM-15","7",,,,,,,,,,,,,,,,,,,,,,,,,,,,"2005-10-30"
"70362125516","2020-01-31T01:53:00","FM-15","7",,,,,,,,,,,,,,,,,,,,,,,,,,,,,,,,,,,,,,"29.23","11","17","T","-SN:03 |SN |",,,"77","29.23","OVC:08 15","29.20","5.00","15","000",,"0",,,,,,,,,,,,,,,,,,,,,,,,,,,,,,,,,,,,,"MET10901/31/20 01:53:02 METAR PASO 311053Z 00000KT 5SM -SN OVC015 M08/M12 A2923 RMK AO2 SLP899 P0000 T10831117 TSNO","FM-15","7",,,,,,,,,,,,,,,,,,,,,,,,,,,,"2005-10-30"
"70362125516","2020-01-31T02:45:00","FM-16","7",,,,,,,,,,,,,,,,,,,,,,,,,,,,,,,,,,,,,,"29.24","11","16","T","-SN:03 |SN |",,,"80",,"OVC:08 14","29.21","4.00","15","000",,"0",,,,,,,,,,,,,,,,,,,,,,,,,,,,,,,,,,,,,"MET10201/31/20 02:45:02 SPECI PASO 311145Z 00000KT 4SM -SN OVC014 M09/M12 A2924 RMK AO2 P0000 T10891117 TSNO","FM-16","7",,,,,,,,,,,,,,,,,,,,,,,,,,,,"2005-10-30"
"70362125516","2020-01-31T02:53:00","FM-15","7",,,,,,,,,,,,,,,,,,,,,,,,,,,,,,,,,,,,,,"29.24","12","16","T","-SN:03 BR:1 |SN |","-0.03","3","84","29.24","OVC:08 14","29.21","5.00","15","VRB",,"3",,,,,,,,,,,,,,,,,,,,,,,,,,,,,,,,,,,,,"MET13601/31/20 02:53:02 METAR PASO 311153Z VRB03KT 5SM -SN BR OVC014 M09/M11 A2924 RMK AO2 SLP903 P0000 60000 T10891111 11072 21089 53011 TSNO","FM-15","7",,,,,,,,,,,,,,,,,,,,,,,,,,,,"2005-10-30"
"70362125516","2020-01-31T03:15:00","FM-16","7",,,,,,,,,,,,,,,,,,,,,,,,,,,,,,,,,,,,,,"29.25","11","16","T","-SN:03 |SN |",,,"80",,"OVC:08 16","29.22","5.00","15","VRB",,"7",,,,,,,,,,,,,,,,,,,,,,,,,,,,,,,,,,,,,"MET10201/31/20 03:15:02 SPECI PASO 311215Z VRB06KT 5SM -SN OVC016 M09/M12 A2925 RMK AO2 P0000 T10891117 TSNO","FM-16","7",,,,,,,,,,,,,,,,,,,,,,,,,,,,"2005-10-30"
"70362125516","2020-01-31T03:27:00","FM-16","7",,,,,,,,,,,,,,,,,,,,,,,,,,,,,,,,,,,,,,"29.26","12","16","T","-SN:03 BR:1 |SN |",,,"84",,"OVC:08 14","29.23","4.00","15","VRB",,"3",,,,,,,,,,,,,,,,,,,,,,,,,,,,,,,,,,,,,"MET10501/31/20 03:27:02 SPECI PASO 311227Z VRB03KT 4SM -SN BR OVC014 M09/M11 A2926 RMK AO2 P0000 T10891111 TSNO","FM-16","7",,,,,,,,,,,,,,,,,,,,,,,,,,,,"2005-10-30"
"70362125516","2020-01-31T03:53:00","FM-15","7",,,,,,,,,,,,,,,,,,,,,,,,,,,,,,,,,,,,,,"29.26","11","16","T","-SN:03 |SN |",,,"80","29.26","OVC:08 14","29.23","4.00","15","190",,"6",,,,,,,,,,,,,,,,,,,,,,,,,,,,,,,,,,,,,"MET10901/31/20 03:53:02 METAR PASO 311253Z 19005KT 4SM -SN OVC014 M09/M12 A2926 RMK AO2 SLP907 P0000 T10891117 TSNO","FM-15","7",,,,,,,,,,,,,,,,,,,,,,,,,,,,"2005-10-30"
"70362125516","2020-01-31T04:53:00","FM-15","7",,,,,,,,,,,,,,,,,,,,,,,,,,,,,,,,,,,,,,"29.27","11","16","T","-SN:03 |SN |",,,"80","29.27","OVC:08 14","29.24","5.00","15","160",,"7",,,,,,,,,,,,,,,,,,,,,,,,,,,,,,,,,,,,,"MET10901/31/20 04:53:02 METAR PASO 311353Z 16006KT 5SM -SN OVC014 M09/M12 A2927 RMK AO2 SLP911 P0000 T10891117 TSNO","FM-15","7",,,,,,,,,,,,,,,,,,,,,,,,,,,,"2005-10-30"
"70362125516","2020-01-31T05:05:00","FM-16","7",,,,,,,,,,,,,,,,,,,,,,,,,,,,,,,,,,,,,,"29.27","11","16","T","-SN:03 |SN |",,,"80",,"OVC:08 15","29.24","4.00","15","VRB",,"6",,,,,,,,,,,,,,,,,,,,,,,,,,,,,,,,,,,,,"MET10201/31/20 05:05:02 SPECI PASO 311405Z VRB05KT 4SM -SN OVC015 M09/M12 A2927 RMK AO2 P0000 T10891117 TSNO","FM-16","7",,,,,,,,,,,,,,,,,,,,,,,,,,,,"2005-10-30"
"70362125516","2020-01-31T05:44:00","FM-16","7",,,,,,,,,,,,,,,,,,,,,,,,,,,,,,,,,,,,,,"29.28","11","16","T","-SN:03 |SN |",,,"80",,"OVC:08 14","29.25","3.00","15","160",,"5",,,,,,,,,,,,,,,,,,,,,,,,,,,,,,,,,,,,,"MET10201/31/20 05:44:02 SPECI PASO 311444Z 16004KT 3SM -SN OVC014 M09/M12 A2928 RMK AO2 P0000 T10891117 TSNO","FM-16","7",,,,,,,,,,,,,,,,,,,,,,,,,,,,"2005-10-30"
"70362125516","2020-01-31T05:53:00","FM-15","7",,,,,,,,,,,,,,,,,,,,,,,,,,,,,,,,,,,,,,"29.28","12","16","T","-SN:03 BR:1 |SN |","-0.04","1","84","29.28","OVC:08 14","29.25","3.00","15","000",,"0",,,,,,,,,,,,,,,,,,,,,,,,,,,,,,,,,,,,,"MET12401/31/20 05:53:02 METAR PASO 311453Z 00000KT 3SM -SN BR OVC014 M09/M11 A2928 RMK AO2 SLP914 P0000 60000 T10891111 51012 TSNO","FM-15","7",,,,,,,,,,,,,,,,,,,,,,,,,,,,"2005-10-30"
"70362125516","2020-01-31T06:44:00","FM-16","7",,,,,,,,,,,,,,,,,,,,,,,,,,,,,,,,,,,,,,"29.28","12","17","T","-SN:03 |SN |",,,"80",,"OVC:08 12","29.25","1.75","16","VRB",,"5",,,,,,,,,,,,,,,,,,,,,,,,,,,,,,,,,,,,,"MET10601/31/20 06:44:02 SPECI PASO 311544Z VRB04KT 1 3/4SM -SN OVC012 M08/M11 A2928 RMK AO2 P0000 T10831111 TSNO","FM-16","7",,,,,,,,,,,,,,,,,,,,,,,,,,,,"2005-10-30"
"70362125516","2020-01-31T06:51:00","FM-16","6",,,,,,,,,,,,,,,,,,,,,,,,,,,,,,,,,,,,,,"29.28","12","18",,"-SN:03 BR:1 |SN |",,,"79",,"OVC:08 12","29.25","2.00","16","VRB",,"5",,,,,,,,,,,,,,,,,,,,,,,,,,,,,,,,,,,,,"MET10001/31/20 06:51:02 SPECI PASO 311551Z VRB04KT 2SM -SN BR OVC012 M08/M11 A2928 RMK AO2 P0000 TSNO FIBI","FM-16","6",,,,,,,,,,,,,,,,,,,,,,,,,,,,"2005-10-30"
"70362125516","2020-01-31T06:53:00","FM-15","7",,,,,,,,,,,,,,,,,,,,,,,,,,,,,,,,,,,,,,"29.28","13","17","T","-SN:03 BR:1 |SN |",,,"84","29.28","OVC:08 12","29.25","2.00","16","140",,"6",,,,,,,,,,,,,,,,,,,,,,,,,,,,,,,,,,,,,"MET11201/31/20 06:53:02 METAR PASO 311553Z 14005KT 2SM -SN BR OVC012 M08/M11 A2928 RMK AO2 SLP916 P0000 T10831106 TSNO","FM-15","7",,,,,,,,,,,,,,,,,,,,,,,,,,,,"2005-10-30"
"70362125516","2020-01-31T07:15:00","FM-16","7",,,,,,,,,,,,,,,,,,,,,,,,,,,,,,,,,,,,,,"29.29","12","17","T","-SN:03 |SN |",,,"80",,"OVC:08 12","29.26","3.00","16","VRB",,"5",,,,,,,,,,,,,,,,,,,,,,,,,,,,,,,,,,,,,"MET10201/31/20 07:15:02 SPECI PASO 311615Z VRB04KT 3SM -SN OVC012 M08/M11 A2929 RMK AO2 P0000 T10831111 TSNO","FM-16","7",,,,,,,,,,,,,,,,,,,,,,,,,,,,"2005-10-30"
"70362125516","2020-01-31T07:31:00","FM-16","7",,,,,,,,,,,,,,,,,,,,,,,,,,,,,,,,,,,,,,"29.29","13","17","T","-SN:03 BR:1 |SN |",,,"84",,"OVC:08 12","29.26","2.50","16","VRB",,"3",,,,,,,,,,,,,,,,,,,,,,,,,,,,,,,,,,,,,"MET10901/31/20 07:31:02 SPECI PASO 311631Z VRB03KT 2 1/2SM -SN BR OVC012 M08/M11 A2929 RMK AO2 P0000 T10831106 TSNO","FM-16","7",,,,,,,,,,,,,,,,,,,,,,,,,,,,"2005-10-30"
"70362125516","2020-01-31T07:53:00","FM-15","7",,,,,,,,,,,,,,,,,,,,,,,,,,,,,,,,,,,,,,"29.29","12","17","T","-SN:03 |SN |",,,"80","29.29","OVC:08 12","29.26","2.50","16","VRB",,"5",,,,,,,,,,,,,,,,,,,,,,,,,,,,,,,,,,,,,"MET11301/31/20 07:53:02 METAR PASO 311653Z VRB04KT 2 1/2SM -SN OVC012 M08/M11 A2929 RMK AO2 SLP918 P0000 T10831111 TSNO","FM-15","7",,,,,,,,,,,,,,,,,,,,,,,,,,,,"2005-10-30"
"70362125516","2020-01-31T08:30:00","FM-16","7",,,,,,,,,,,,,,,,,,,,,,,,,,,,,,,,,,,,,,"29.30","13","17","T","-SN:03 BR:1 |SN |",,,"84",,"OVC:08 11","29.27","3.00","16","VRB",,"5",,,,,,,,,,,,,,,,,,,,,,,,,,,,,,,,,,,,,"MET10501/31/20 08:30:02 SPECI PASO 311730Z VRB04KT 3SM -SN BR OVC011 M08/M11 A2930 RMK AO2 P0000 T10831106 TSNO","FM-16","7",,,,,,,,,,,,,,,,,,,,,,,,,,,,"2005-10-30"
"70362125516","2020-01-31T08:37:00","FM-16","7",,,,,,,,,,,,,,,,,,,,,,,,,,,,,,,,,,,,,,"29.30","13","17","T","-SN:03 BR:1 |SN |",,,"84",,"OVC:08 11","29.27","2.50","16","130",,"6",,,,,,,,,,,,,,,,,,,,,,,,,,,,,,,,,,,,,"MET10901/31/20 08:37:02 SPECI PASO 311737Z 13005KT 2 1/2SM -SN BR OVC011 M08/M11 A2930 RMK AO2 P0000 T10831106 TSNO","FM-16","7",,,,,,,,,,,,,,,,,,,,,,,,,,,,"2005-10-30"
"70362125516","2020-01-31T08:53:00","FM-15","7",,,,,,,,,,,,,,,,,,,,,,,,,,,,,,,,,,,,,,"29.30","13","17","T","-SN:03 BR:1 |SN |","-0.02","3","84","29.30","OVC:08 10","29.27","2.50","16",,,,,,,,,,,,,,,,,,,,,,,,,,,,,,,,,,,,,,,,"MET14001/31/20 08:53:02 METAR PASO 311753Z      KT 2 1/2SM -SN BR OVC010 M08/M11 A2930 RMK AO2 SLP923 P0000 60000 T10831106 11083 21089 53008 TSNO","FM-15","7",,,,,,,,,,,,,,,,,,,,,,,,,,,,"2005-10-30"
"70362125516","2020-01-31T09:15:00","FM-16","7",,,,,,,,,,,,,,,,,,,,,,,,,,,,,,,,,,,,,,"29.31","12","17","T","-SN:03 |SN |",,,"80",,"OVC:08 11","29.28","1.50","16","VRB",,"3",,,,,,,,,,,,,,,,,,,,,,,,,,,,,,,,,,,,,"MET10601/31/20 09:15:02 SPECI PASO 311815Z VRB03KT 1 1/2SM -SN OVC011 M08/M11 A2931 RMK AO2 P0000 T10831111 TSNO","FM-16","7",,,,,,,,,,,,,,,,,,,,,,,,,,,,"2005-10-30"
"70362125516","2020-01-31T09:53:00","FM-15","7",,,,,,,,,,,,,,,,,,,,,,,,,,,,,,,,,,,,,,"29.31","12","17","T","-SN:03 |SN |",,,"80","29.31","OVC:08 13","29.28","1.50","16","000",,"0",,,,,,,,,,,,,,,,,,,,,,,,,,,,,,,,,,,,,"MET11301/31/20 09:53:02 METAR PASO 311853Z 00000KT 1 1/2SM -SN OVC013 M08/M11 A2931 RMK AO2 SLP927 P0000 T10831111 TSNO","FM-15","7",,,,,,,,,,,,,,,,,,,,,,,,,,,,"2005-10-30"
"70362125516","2020-01-31T10:53:00","FM-15","7",,,,,,,,,,,,,,,,,,,,,,,,,,,,,,,,,,,,,,"29.33","12","16","T","-SN:03 BR:1 |SN |",,,"84","29.33","OVC:08 10","29.30","1.50","15","VRB",,"3",,,,,,,,,,,,,,,,,,,,,,,,,,,,,,,,,,,,,"MET11601/31/20 10:53:02 METAR PASO 311953Z VRB03KT 1 1/2SM -SN BR OVC010 M09/M11 A2933 RMK AO2 SLP931 P0000 T10891111 TSNO","FM-15","7",,,,,,,,,,,,,,,,,,,,,,,,,,,,"2005-10-30"
"70362125516","2020-01-31T11:51:00","FM-16","7",,,,,,,,,,,,,,,,,,,,,,,,,,,,,,,,,,,,,,"29.34","10","16","T","-SN:03 |SN |",,,"79",,"OVC:08 11","29.31","0.75","14","VRB",,"8",,,,,,,,,,,,,,,,,,,,,,,,,,,,,,,,,,,,,"MET09401/31/20 11:51:02 SPECI PASO 312051Z 16007KT 3/4SM -SN OVC011 M09/M12 A2934 RMK AO2 P0000 TSNO","FM-16","7",,,,,,,,,,,,,,,,,,,,,,,,,,,,"2005-10-30"
"70362125516","2020-01-31T11:53:00","FM-15","7",,,,,,,,,,,,,,,,,,,,,,,,,,,,,,,,,,,,,,"29.34","11","16","T","-SN:03 |SN |","-0.02","1","80","29.34","OVC:08 11","29.31","0.75","15","VRB",,"5",,,,,,,,,,,,,,,,,,,,,,,,,,,,,,,,,,,,,"MET12301/31/20 11:53:02 METAR PASO 312053Z VRB04KT 3/4SM -SN OVC011 M09/M12 A2934 RMK AO2 SLP935 P0000 60000 T10891117 51008 TSNO","FM-15","7",,,,,,,,,,,,,,,,,,,,,,,,,,,,"2005-10-30"
"70362125516","2020-01-31T12:08:00","FM-16","7",,,,,,,,,,,,,,,,,,,,,,,,,,,,,,,,,,,,,,"29.34","11","16","T","-SN:03 |SN |",,,"80",,"OVC:08 12","29.31","1.00V","15","VRB",,"3",,,,,,,,,,,,,,,,,,,,,,,,,,,,,,,,,,,,,"MET11601/31/20 12:08:02 SPECI PASO 312108Z VRB03KT 1SM -SN OVC012 M09/M12 A2934 RMK AO2 VIS 3/4V1 1/2 P0000 T10891117 TSNO","FM-16","7",,,,,,,,,,,,,,,,,,,,,,,,,,,,"2005-10-30"
"70362125516","2020-01-31T12:51:00","FM-16","6",,,,,,,,,,,,,,,,,,,,,,,,,,,,,,,,,,,,,,"29.35","10","16",,"-SN:03 |SN |",,,"79",,"OVC:08 14","29.32","0.75","14","000",,"0",,,,,,,,,,,,,,,,,,,,,,,,,,,,,,,,,,,,,"MET09901/31/20 12:51:02 SPECI PASO 312151Z 00000KT 3/4SM -SN OVC014 M09/M12 A2935 RMK AO2 P0000 TSNO FIBI","FM-16","6",,,,,,,,,,,,,,,,,,,,,,,,,,,,"2005-10-30"
"70362125516","2020-01-31T12:53:00","FM-15","7",,,,,,,,,,,,,,,,,,,,,,,,,,,,,,,,,,,,,,"29.35","11","16","T","-SN:03 |SN |",,,"80","29.35","OVC:08 14","29.32","0.75","15","000",,"0",,,,,,,,,,,,,,,,,,,,,,,,,,,,,,,,,,,,,"MET11101/31/20 12:53:02 METAR PASO 312153Z 00000KT 3/4SM -SN OVC014 M09/M12 A2935 RMK AO2 SLP938 P0000 T10891117 TSNO","FM-15","7",,,,,,,,,,,,,,,,,,,,,,,,,,,,"2005-10-30"
"70362125516","2020-01-31T13:32:00","FM-16","7",,,,,,,,,,,,,,,,,,,,,,,,,,,,,,,,,,,,,,"29.36","11","15","T","-SN:03 BR:1 |SN |",,,"84",,"OVC:08 15","29.33","0.75","14","VRB",,"3",,,,,,,,,,,,,,,,,,,,,,,,,,,,,,,,,,,,,"MET10701/31/20 13:32:02 SPECI PASO 312232Z VRB03KT 3/4SM -SN BR OVC015 M09/M12 A2936 RMK AO2 P0000 T10941117 TSNO","FM-16","7",,,,,,,,,,,,,,,,,,,,,,,,,,,,"2005-10-30"
"70362125516","2020-01-31T13:39:00","FM-16","7",,,,,,,,,,,,,,,,,,,,,,,,,,,,,,,,,,,,,,"29.36","11","15","T","-SN:03 BR:1 |SN |",,,"84",,"OVC:08 13","29.33","1.00","14","VRB",,"5",,,,,,,,,,,,,,,,,,,,,,,,,,,,,,,,,,,,,"MET10501/31/20 13:39:02 SPECI PASO 312239Z VRB04KT 1SM -SN BR OVC013 M09/M12 A2936 RMK AO2 P0000 T10941117 TSNO","FM-16","7",,,,,,,,,,,,,,,,,,,,,,,,,,,,"2005-10-30"
"70362125516","2020-01-31T13:53:00","FM-15","7",,,,,,,,,,,,,,,,,,,,,,,,,,,,,,,,,,,,,,"29.35","11","15","T","-SN:03 BR:1 |SN |",,,"84","29.35","OVC:08 14","29.32","1.25","14","VRB",,"3",,,,,,,,,,,,,,,,,,,,,,,,,,,,,,,,,,,,,"MET11601/31/20 13:53:02 METAR PASO 312253Z VRB03KT 1 1/4SM -SN BR OVC014 M09/M12 A2935 RMK AO2 SLP939 P0000 T10941117 TSNO","FM-15","7",,,,,,,,,,,,,,,,,,,,,,,,,,,,"2005-10-30"
"70362125516","2020-01-31T14:53:00","FM-15","7",,,,,,,,,,,,,,,,,,,,,,,,,,,,,,,,,,,,,,"29.36","11","15","T","-SN:03 BR:1 |SN |","-0.02","1","84","29.36","OVC:08 11","29.33","1.00","14","VRB",,"6",,,,,,,,,,,,,,,,,,,,,,,,,,,,,,,,,,,,,"MET13601/31/20 14:53:02 METAR PASO 312353Z VRB05KT 1SM -SN BR OVC011 M09/M12 A2936 RMK AO2 SLP941 P0000 60000 T10941117 11083 21094 51006 TSNO","FM-15","7",,,,,,,,,,,,,,,,,,,,,,,,,,,,"2005-10-30"
"70362125516","2020-01-31T15:53:00","FM-15","7",,,,,,,,,,,,,,,,,,,,,,,,,,,,,,,,,,,,,,"29.36","11","15","T","-SN:03 BR:1 |SN |",,,"84","29.36","OVC:08 12","29.33","1.00","14","VRB",,"6",,,,,,,,,,,,,,,,,,,,,,,,,,,,,,,,,,,,,"MET11201/31/20 15:53:01 METAR PASO 010053Z VRB05KT 1SM -SN BR OVC012 M09/M12 A2936 RMK AO2 SLP942 P0000 T10941117 TSNO","FM-15","7",,,,,,,,,,,,,,,,,,,,,,,,,,,,"2005-10-30"
"70362125516","2020-01-31T16:53:00","FM-15","7",,,,,,,,,,,,,,,,,,,,,,,,,,,,,,,,,,,,,,"29.37","11","15","T","-SN:03 BR:1 |SN |",,,"84","29.37","OVC:08 10","29.34","1.50","14","VRB",,"3",,,,,,,,,,,,,,,,,,,,,,,,,,,,,,,,,,,,,"MET12801/31/20 16:53:01 METAR PASO 010153Z VRB03KT 1 1/2SM -SN BR OVC010 M09/M12 A2937 RMK AO2 CIG 007V014 SLP947 P0000 T10941117 TSNO","FM-15","7",,,,,,,,,,,,,,,,,,,,,,,,,,,,"2005-10-30"
"70362125516","2020-01-31T17:53:00","FM-15","7",,,,,,,,,,,,,,,,,,,,,,,,,,,,,,,,,,,,,,"29.39","10","14","T","-SN:03 BR:1 |SN |","-0.04","3","84","29.39","OVC:08 12","29.36","1.75","13","110",,"6",,,,,,,,,,,,,,,,,,,,,,,,,,,,,,,,,,,,,"MET12801/31/20 17:53:01 METAR PASO 010253Z 11005KT 1 3/4SM -SN BR OVC012 M10/M12 A2939 RMK AO2 SLP953 P0000 60000 T11001122 53012 TSNO","FM-15","7",,,,,,,,,,,,,,,,,,,,,,,,,,,,"2005-10-30"
"70362125516","2020-01-31T18:36:00","FM-16","7",,,,,,,,,,,,,,,,,,,,,,,,,,,,,,,,,,,,,,"29.40","9","13","T","-SN:03 BR:1 |SN |",,,"84",,"OVC:08 12","29.37","2.00","12","VRB",,"3",,,,,,,,,,,,,,,,,,,,,,,,,,,,,,,,,,,,,"MET10501/31/20 18:36:01 SPECI PASO 010336Z VRB03KT 2SM -SN BR OVC012 M11/M13 A2940 RMK AO2 P0000 T11061128 TSNO","FM-16","7",,,,,,,,,,,,,,,,,,,,,,,,,,,,"2005-10-30"
"70362125516","2020-01-31T18:51:00","FM-16","6",,,,,,,,,,,,,,,,,,,,,,,,,,,,,,,,,,,,,,"29.40","9","12",,"-SN:03 BR:1 |SN |",,,"85",,"OVC:08 12","29.37","1.75","11","140",,"6",,,,,,,,,,,,,,,,,,,,,,,,,,,,,,,,,,,,,"MET10401/31/20 18:51:03 SPECI PASO 010351Z 14005KT 1 3/4SM -SN BR OVC012 M11/M13 A2940 RMK AO2 P0000 TSNO FIBI","FM-16","6",,,,,,,,,,,,,,,,,,,,,,,,,,,,"2005-10-30"
"70362125516","2020-01-31T18:53:00","FM-15","7",,,,,,,,,,,,,,,,,,,,,,,,,,,,,,,,,,,,,,"29.40","9","13","T","-SN:03 BR:1 |SN |",,,"84","29.40","OVC:08 12","29.37","2.00","12","VRB",,"5",,,,,,,,,,,,,,,,,,,,,,,,,,,,,,,,,,,,,"MET11201/31/20 18:53:01 METAR PASO 010353Z VRB04KT 2SM -SN BR OVC012 M11/M13 A2940 RMK AO2 SLP957 P0000 T11061128 TSNO","FM-15","7",,,,,,,,,,,,,,,,,,,,,,,,,,,,"2005-10-30"
"70362125516","2020-01-31T19:00:00","FM-16","7",,,,,,,,,,,,,,,,,,,,,,,,,,,,,,,,,,,,,,"29.41","9","13","T","-SN:03 BR:1 |SN |",,,"84",,"OVC:08 12","29.38","1.75","12","VRB",,"8",,,,,,,,,,,,,,,,,,,,,,,,,,,,,,,,,,,,,"MET10901/31/20 19:00:01 SPECI PASO 010400Z 19007KT 1 3/4SM -SN BR OVC012 M11/M13 A2941 RMK AO2 P0000 T11061128 TSNO","FM-16","7",,,,,,,,,,,,,,,,,,,,,,,,,,,,"2005-10-30"
"70362125516","2020-01-31T19:13:00","FM-16","7",,,,,,,,,,,,,,,,,,,,,,,,,,,,,,,,,,,,,,"29.41","9","13","T","-SN:03 BR:1 |SN |",,,"84",,"OVC:08 11","29.38","2.00","12","180",,"7",,,,,,,,,,,,,,,,,,,,,,,,,,,,,,,,,,,,,"MET10501/31/20 19:13:01 SPECI PASO 010413Z 18006KT 2SM -SN BR OVC011 M11/M13 A2941 RMK AO2 P0000 T11061128 TSNO","FM-16","7",,,,,,,,,,,,,,,,,,,,,,,,,,,,"2005-10-30"
"70362125516","2020-01-31T19:51:00","FM-16","6",,,,,,,,,,,,,,,,,,,,,,,,,,,,,,,,,,,,,,"29.41","9","12",,"-SN:03 BR:1 |SN |",,,"85",,"OVC:08 12","29.38","3.00","11","VRB",,"6",,,,,,,,,,,,,,,,,,,,,,,,,,,,,,,,,,,,,"MET10001/31/20 19:51:03 SPECI PASO 010451Z VRB05KT 3SM -SN BR OVC012 M11/M13 A2941 RMK AO2 P0000 TSNO FIBI","FM-16","6",,,,,,,,,,,,,,,,,,,,,,,,,,,,"2005-10-30"
"70362125516","2020-01-31T19:53:00","FM-15","7",,,,,,,,,,,,,,,,,,,,,,,,,,,,,,,,,,,,,,"29.41","9","13","T","-SN:03 BR:1 |SN |",,,"84","29.41","OVC:08 12","29.38","3.00","12","VRB",,"7",,,,,,,,,,,,,,,,,,,,,,,,,,,,,,,,,,,,,"MET11201/31/20 19:53:02 METAR PASO 010453Z VRB06KT 3SM -SN BR OVC012 M11/M13 A2941 RMK AO2 SLP960 P0000 T11061128 TSNO","FM-15","7",,,,,,,,,,,,,,,,,,,,,,,,,,,,"2005-10-30"
"70362125516","2020-01-31T20:11:00","FM-16","7",,,,,,,,,,,,,,,,,,,,,,,,,,,,,,,,,,,,,,"29.41","9","14","T","-SN:03 |SN |",,,"80",,"OVC:08 12","29.38","2.50","13","VRB",,"7",,,,,,,,,,,,,,,,,,,,,,,,,,,,,,,,,,,,,"MET10601/31/20 20:11:02 SPECI PASO 010511Z VRB06KT 2 1/2SM -SN OVC012 M10/M13 A2941 RMK AO2 P0000 T11001128 TSNO","FM-16","7",,,,,,,,,,,,,,,,,,,,,,,,,,,,"2005-10-30"
"70362125516","2020-01-31T20:53:00","FM-15","7",,,,,,,,,,,,,,,,,,,,,,,,,,,,,,,,,,,,,,"29.43","8","13","T","-SN:03 |SN |","-0.04","3","81","29.43","OVC:08 13","29.40","2.50","12","VRB",,"6",,,,,,,,,,,,,,,,,,,,,,,,,,,,,,,,,,,,,"MET13701/31/20 20:53:02 METAR PASO 010553Z VRB05KT 2 1/2SM -SN OVC013 M11/M13 A2943 RMK AO2 SLP965 P0000 60000 T11061133 11089 21106 53013 TSNO","FM-15","7",,,,,,,,,,,,,,,,,,,,,,,,,,,,"2005-10-30"
"70362125516","2020-01-31T21:37:00","FM-16","7",,,,,,,,,,,,,,,,,,,,,,,,,,,,,,,,,,,,,,"29.44","9","13","T","-SN:03 BR:1 |SN |",,,"84",,"OVC:08 14","29.41","1.75","12","VRB","20","9",,,,,,,,,,,,,,,,,,,,,,,,,,,,,,,,,,,,,"MET11201/31/20 21:37:02 SPECI PASO 010637Z 16008G17KT 1 3/4SM -SN BR OVC014 M11/M13 A2944 RMK AO2 P0000 T11061128 TSNO","FM-16","7",,,,,,,,,,,,,,,,,,,,,,,,,,,,"2005-10-30"
"70362125516","2020-01-31T21:46:00","FM-16","7",,,,,,,,,,,,,,,,,,,,,,,,,,,,,,,,,,,,,,"29.44","9","13","T","-SN:03 BR:1 |SN |",,,"84",,"OVC:08 14","29.41","2.00","12","VRB",,"7",,,,,,,,,,,,,,,,,,,,,,,,,,,,,,,,,,,,,"MET10501/31/20 21:46:02 SPECI PASO 010646Z VRB06KT 2SM -SN BR OVC014 M11/M13 A2944 RMK AO2 P0000 T11061128 TSNO","FM-16","7",,,,,,,,,,,,,,,,,,,,,,,,,,,,"2005-10-30"
"70362125516","2020-01-31T21:53:00","FM-15","7",,,,,,,,,,,,,,,,,,,,,,,,,,,,,,,,,,,,,,"29.44","8","13","T","-SN:03 |SN |",,,"81","29.44","OVC:08 14","29.41","2.00","12","VRB",,"8",,,,,,,,,,,,,,,,,,,,,,,,,,,,,,,,,,,,,"MET10901/31/20 21:53:02 METAR PASO 010653Z 17007KT 2SM -SN OVC014 M11/M13 A2944 RMK AO2 SLP970 P0000 T11061133 TSNO","FM-15","7",,,,,,,,,,,,,,,,,,,,,,,,,,,,"2005-10-30"
"70362125516","2020-01-31T22:06:00","FM-16","7",,,,,,,,,,,,,,,,,,,,,,,,,,,,,,,,,,,,,,"29.45","9","13","T","-SN:03 BR:1 |SN |",,,"84",,"OVC:08 15","29.42","3.00","12","VRB",,"7",,,,,,,,,,,,,,,,,,,,,,,,,,,,,,,,,,,,,"MET10501/31/20 22:06:02 SPECI PASO 010706Z VRB06KT 3SM -SN BR OVC015 M11/M13 A2945 RMK AO2 P0000 T11061128 TSNO","FM-16","7",,,,,,,,,,,,,,,,,,,,,,,,,,,,"2005-10-30"
"70362125516","2020-01-31T22:17:00","FM-16","7",,,,,,,,,,,,,,,,,,,,,,,,,,,,,,,,,,,,,,"29.45","9","13","T","-SN:03 BR:1 |SN |",,,"84",,"OVC:08 15","29.42","2.50","12","VRB",,"5",,,,,,,,,,,,,,,,,,,,,,,,,,,,,,,,,,,,,"MET10901/31/20 22:17:02 SPECI PASO 010717Z VRB04KT 2 1/2SM -SN BR OVC015 M11/M13 A2945 RMK AO2 P0000 T11061128 TSNO","FM-16","7",,,,,,,,,,,,,,,,,,,,,,,,,,,,"2005-10-30"
"70362125516","2020-01-31T22:35:00","FM-16","7",,,,,,,,,,,,,,,,,,,,,,,,,,,,,,,,,,,,,,"29.46","8","13","T","-SN:03 |SN |",,,"81",,"OVC:08 15","29.43","3.00","12","VRB",,"7",,,,,,,,,,,,,,,,,,,,,,,,,,,,,,,,,,,,,"MET10201/31/20 22:35:02 SPECI PASO 010735Z VRB06KT 3SM -SN OVC015 M11/M13 A2946 RMK AO2 P0000 T11061133 TSNO","FM-16","7",,,,,,,,,,,,,,,,,,,,,,,,,,,,"2005-10-30"
"70362125516","2020-01-31T22:45:00","FM-16","7",,,,,,,,,,,,,,,,,,,,,,,,,,,,,,,,,,,,,,"29.46","9","13","T","-SN:03 BR:1 |SN |",,,"84",,"OVC:08 14","29.43","2.50","12","VRB",,"6",,,,,,,,,,,,,,,,,,,,,,,,,,,,,,,,,,,,,"MET10901/31/20 22:45:02 SPECI PASO 010745Z VRB05KT 2 1/2SM -SN BR OVC014 M11/M13 A2946 RMK AO2 P0000 T11061128 TSNO","FM-16","7",,,,,,,,,,,,,,,,,,,,,,,,,,,,"2005-10-30"
"70362125516","2020-01-31T22:51:00","FM-16","6",,,,,,,,,,,,,,,,,,,,,,,,,,,,,,,,,,,,,,"29.46","9","14",,"-SN:03 |SN |",,,"79",,"OVC:08 14","29.43","3.00","13","VRB",,"6",,,,,,,,,,,,,,,,,,,,,,,,,,,,,,,,,,,,,"MET09701/31/20 22:51:03 SPECI PASO 010751Z VRB05KT 3SM -SN OVC014 M10/M13 A2946 RMK AO2 P0000 TSNO FIBI","FM-16","6",,,,,,,,,,,,,,,,,,,,,,,,,,,,"2005-10-30"
"70362125516","2020-01-31T22:53:00","FM-15","7",,,,,,,,,,,,,,,,,,,,,,,,,,,,,,,,,,,,,,"29.46","9","14","T","-SN:03 |SN |",,,"80","29.46","OVC:08 14","29.43","3.00","13","VRB",,"7",,,,,,,,,,,,,,,,,,,,,,,,,,,,,,,,,,,,,"MET10901/31/20 22:53:02 METAR PASO 010753Z VRB06KT 3SM -SN OVC014 M10/M13 A2946 RMK AO2 SLP976 P0000 T11001128 TSNO","FM-15","7",,,,,,,,,,,,,,,,,,,,,,,,,,,,"2005-10-30"
"70362125516","2020-01-31T23:53:00","FM-15","7",,,,,,,,,,,,,,,,,,,,,,,,,,,,,,,,,,,,,,"29.48","9","14","T","-SN:03 |SN |","-0.05","3","80","29.48","OVC:08 14","29.45","4.00","13","VRB",,"6",,,,,,,,,,,,,,,,,,,,,,,,,,,,,,,,,,,,,"MET13101/31/20 23:53:02 METAR PASO 010853Z VRB05KT 4SM -SN OVC014 M10/M13 A2948 RMK AO2 SLP982 P0000 60000 T11001128 410831106 53017 TSNO","FM-15","7",,,,,,,,,,,,,,,,,,,,,,,,,,,,"2005-10-30"
"70362125516","2020-01-31T23:59:00","SOD  ","6",,,,,,,,,,,,,,,,"15",,,"29.29",,"4.4","0","-11.1","50","17","13","200s","19s","T",,,"180","12","SN BR",,,,,,,,,,,,,,,,,,,,,,,,,,,,,,,,,,,,,,,,,,,,,,,,,,,,,,,,"SOD72724 HR PRECIPITATION (IN):T     24 HR MAX TEMP (F):17 24 HR MAX TEMP TIME (LST):0957 24 HR MIN TEMP (F):13 24 HR MIN TEMP TIME (LST):2249 AVERAGE STATION PRESSURE:29.295 MINIMUM SEA LEVEL PRESSURE:29.21 TIME OF OCCURRENCE:0033 PEAK WIND SPEED (MPH):19  PEAK WIND DIR (DEG):200 PEAK WIND TIME (LST):2136  FASTEST 2MIN SPEED (MPH):12 FASTEST 2MIN DIR (DEG):180 FASTEST 2MIN TIME (LST):2015 AVERAGE WIND SPEED (MPH):4.4  24 HR AVG TEMP (F):15 HEATING DEGREE DAYS:50  COOLING DEGREE DAYS:0   LATEST DAY MAX TEMP (0700-1900 LST):17  LATEST NIGHT MIN TEMP(1900-0800 LST):16 HOURLY INCREMENTAL PRECIPITATION VALUES (IN):    T    T    T    T    T    T    T    T    T    T    T    T    T    T    T    T    T    T    T    T    T    T    T","SOD  ","6",,,,,,,,,,,,,,,,,,,,,,,,,"0920","1722",,"2005-10-30"
"70362125516","2020-01-31T23:59:00","SOM  ","6","4.7",,,,,,,,,,,"0","0",,,,,,,,,,,,,,,,,,,,,,"4542","1534",,,,,,,,,,,,,,,,,,,"0","0","31","0","1","31","-10.5","0","322","-10.0","-11.1","-4.28",,"T",,,,,,"30.53","15","0051","20.8","15.4","28.47","29","1256","9.9","29.64","29.62","T",,,"0","1212","SOM643PCP MTOT:T PCP GT 24HRS:T DATE(S):31+ DAYS W/PCP >=.01:0  DAYS W/PCP >=.10:0  DAYS W/ PCP >=.50:0 DAYS W/PCP >=1.00:0 MSDP AMTS W/DATE-TIME TAGS:MIN: 5/T MIN:10/T MIN:15/T MIN:20/T MIN:30/T MIN:45/T MIN:60/T MIN:80/T MIN:100/T MIN:120/T MIN:150/T MIN:180/T AVG DLY MIN:9.9   AVG DLY MAX:20.8  AVG MLY TMP:15.4  MIN TMP:0  DATE(S):02 MAX TMP:29  DATE(S):17 DAYS MAX <=32:3 DAYS MAX >=70:0  DAYS MIN <=32:31 DAYS MIN  <=0:1  AVG STP:29.620 LWST SLP:28.47 DATE/TIME:291256 HGST SLP:30.53 DATE/TIME:150051 HDD MTH TOT:1531 DEP NORM:-2553 SEASON(JUL 1-JUN 30):4573 DEP NORM:-25536 CDD MTH TOT:0 DEP NORM:-2553 SEASON(JAN 1-DEC 31):0 DEP NORM:-25536","SOM  ","6",,,,,,,,,,,,,,,,,,,,,,,,,,,,"2005-10-30"
"70362125516","2020-02-01T00:53:00","FM-15","7",,,,,,,,,,,,,,,,,,,,,,,,,,,,,,,,,,,,,,"29.50","10","15","T","-SN:03 |SN |",,,"80","29.49","OVC:08 14","29.47","4.00","14","VRB",,"6",,,,,,,,,,,,,,,,,,,,,,,,,,,,,,,,,,,,,"MET10902/01/20 00:53:02 METAR PASO 010953Z VRB05KT 4SM -SN OVC014 M09/M12 A2950 RMK AO2 SLP988 P0000 T10941122 TSNO","FM-15","7",,,,,,,,,,,,,,,,,,,,,,,,,,,,"2005-10-30"
"70362125516","2020-02-01T01:20:00","FM-16","7",,,,,,,,,,,,,,,,,,,,,,,,,,,,,,,,,,,,,,"29.50","10","15","T","-SN:03 |SN |",,,"80",,"OVC:08 15","29.47","4.00","14","140",,"3",,,,,,,,,,,,,,,,,,,,,,,,,,,,,,,,,,,,,"MET10202/01/20 01:20:02 SPECI PASO 011020Z 14003KT 4SM -SN OVC015 M09/M12 A2950 RMK AO2 P0000 T10941122 TSNO","FM-16","7",,,,,,,,,,,,,,,,,,,,,,,,,,,,"2005-10-30"
"70362125516","2020-02-01T01:53:00","FM-15","7",,,,,,,,,,,,,,,,,,,,,,,,,,,,,,,,,,,,,,"29.52","11","16","T","-SN:03 |SN |",,,"80","29.52","OVC:08 16","29.49","3.00","15","VRB",,"5",,,,,,,,,,,,,,,,,,,,,,,,,,,,,,,,,,,,,"MET10902/01/20 01:53:02 METAR PASO 011053Z VRB04KT 3SM -SN OVC016 M09/M12 A2952 RMK AO2 SLP995 P0000 T10891117 TSNO","FM-15","7",,,,,,,,,,,,,,,,,,,,,,,,,,,,"2005-10-30"
"70362125516","2020-02-01T02:00:00","FM-16","7",,,,,,,,,,,,,,,,,,,,,,,,,,,,,,,,,,,,,,"29.52","12","16","T","-SN:03 BR:1 |SN |",,,"84",,"OVC:08 16","29.49","2.50","15","VRB",,"5",,,,,,,,,,,,,,,,,,,,,,,,,,,,,,,,,,,,,"MET10902/01/20 02:00:02 SPECI PASO 011100Z VRB04KT 2 1/2SM -SN BR OVC016 M09/M11 A2952 RMK AO2 P0000 T10891111 TSNO","FM-16","7",,,,,,,,,,,,,,,,,,,,,,,,,,,,"2005-10-30"
"70362125516","2020-02-01T02:38:00","FM-16","7",,,,,,,,,,,,,,,,,,,,,,,,,,,,,,,,,,,,,,"29.53","13","17","T","-SN:03 BR:1 |SN |",,,"84",,"OVC:08 16","29.50","3.00","16","VRB",,"5",,,,,,,,,,,,,,,,,,,,,,,,,,,,,,,,,,,,,"MET10502/01/20 02:38:02 SPECI PASO 011138Z VRB04KT 3SM -SN BR OVC016 M08/M11 A2953 RMK AO2 P0000 T10831106 TSNO","FM-16","7",,,,,,,,,,,,,,,,,,,,,,,,,,,,"2005-10-30"
"70362125516","2020-02-01T02:53:00","FM-15","7",,,,,,,,,,,,,,,,,,,,,,,,,,,,,,,,,,,,,,"29.53","13","17","T","-SN:03 BR:1 |SN |","-0.05","1","84","29.53","OVC:08 18","29.50","4.00","16","000",,"0",,,,,,,,,,,,,,,,,,,,,,,,,,,,,,,,,,,,,"MET13602/01/20 02:53:02 METAR PASO 011153Z 00000KT 4SM -SN BR OVC018 M08/M11 A2953 RMK AO2 SLP000 P0000 60000 T10831106 11083 21106 51018 TSNO","FM-15","7",,,,,,,,,,,,,,,,,,,,,,,,,,,,"2005-10-30"
"70362125516","2020-02-01T03:53:00","FM-15","7",,,,,,,,,,,,,,,,,,,,,,,,,,,,,,,,,,,,,,"29.56","14","19","T",,,,"81","29.56","BKN:07 24 OVC:08 28","29.53","10.00","18","010",,"9",,,,,,,,,,,,,,,,,,,,,,,,,,,,,,,,,,,,,"MET11902/01/20 03:53:02 METAR PASO 011253Z 01008KT 10SM BKN024 OVC028 M07/M10 A2956 RMK AO2 SNE07 SLP011 P0000 T10721100 TSNO","FM-15","7",,,,,,,,,,,,,,,,,,,,,,,,,,,,"2005-10-30"
"70362125516","2020-02-01T04:53:00","FM-15","7",,,,,,,,,,,,,,,,,,,,,,,,,,,,,,,,,,,,,,"29.60","14","19","0.00",,,,"81","29.60","BKN:07 19 OVC:08 25","29.57","10.00","18","020",,"7",,,,,,,,,,,,,,,,,,,,,,,,,,,,,,,,,,,,,"MET10702/01/20 04:53:02 METAR PASO 011353Z 02006KT 10SM BKN019 OVC025 M07/M10 A2960 RMK AO2 SLP023 T10721100 TSNO","FM-15","7",,,,,,,,,,,,,,,,,,,,,,,,,,,,"2005-10-30"
"70362125516","2020-02-01T05:53:00","FM-15","7",,,,,,,,,,,,,,,,,,,,,,,,,,,,,,,,,,,,,,"29.64","12","18","0.00",,"-0.11","3","77","29.64","BKN:07 25 OVC:08 75","29.61","10.00","16","360",,"7",,,,,,,,,,,,,,,,,,,,,,,,,,,,,,,,,,,,,"MET11902/01/20 05:53:02 METAR PASO 011453Z 36006KT 10SM BKN025 OVC075 M08/M11 A2964 RMK AO2 SLP037 60000 T10781111 53037 TSNO","FM-15","7",,,,,,,,,,,,,,,,,,,,,,,,,,,,"2005-10-30"
"70362125516","2020-02-01T06:53:00","FM-15","7",,,,,,,,,,,,,,,,,,,,,,,,,,,,,,,,,,,,,,"29.69","11","17","0.00",,,,"77","29.69","BKN:07 26 OVC:08 31","29.66","10.00","15","010",,"8",,,,,,,,,,,,,,,,,,,,,,,,,,,,,,,,,,,,,"MET10702/01/20 06:53:02 METAR PASO 011553Z 01007KT 10SM BKN026 OVC031 M08/M12 A2969 RMK AO2 SLP054 T10831117 TSNO","FM-15","7",,,,,,,,,,,,,,,,,,,,,,,,,,,,"2005-10-30"
"70362125516","2020-02-01T07:43:00","FM-16","7",,,,,,,,,,,,,,,,,,,,,,,,,,,,,,,,,,,,,,"29.72","10","17",,,,,"74",,"FEW:02 27","29.69","10.00","15","010",,"8",,,,,,,,,,,,,,,,,,,,,,,,,,,,,,,,,,,,,"MET09302/01/20 07:43:02 SPECI PASO 011643Z 01007KT 10SM FEW027 M08/M12 A2972 RMK AO2 T10831122 TSNO","FM-16","7",,,,,,,,,,,,,,,,,,,,,,,,,,,,"2005-10-30"
"70362125516","2020-02-01T07:53:00","FM-15","7",,,,,,,,,,,,,,,,,,,,,,,,,,,,,,,,,,,,,,"29.73","10","15","0.00",,,,"80","29.73","FEW:02 26","29.70","10.00","14","030",,"6",,,,,,,,,,,,,,,,,,,,,,,,,,,,,,,,,,,,,"MET10002/01/20 07:53:02 METAR PASO 011653Z 03005KT 10SM FEW026 M09/M12 A2973 RMK AO2 SLP068 T10941122 TSNO","FM-15","7",,,,,,,,,,,,,,,,,,,,,,,,,,,,"2005-10-30"
"70362125516","2020-02-01T08:53:00","FM-15","7",,,,,,,,,,,,,,,,,,,,,,,,,,,,,,,,,,,,,,"29.77","7","11","0.00",,"-0.13","1","84","29.77","CLR:00","29.74","10.00","10","000",,"0",,,,,,,,,,,,,,,,,,,,,,,,,,,,,,,,,,,,,"MET12102/01/20 08:53:02 METAR PASO 011753Z 00000KT 10SM CLR M12/M14 A2977 RMK AO2 SLP081 60000 T11171139 11072 21117 51044 TSNO","FM-15","7",,,,,,,,,,,,,,,,,,,,,,,,,,,,"2005-10-30"
"70362125516","2020-02-01T09:53:00","FM-15","7",,,,,,,,,,,,,,,,,,,,,,,,,,,,,,,,,,,,,,"29.80","7","11","0.00",,,,"84","29.80","CLR:00","29.77","10.00","10","010",,"3",,,,,,,,,,,,,,,,,,,,,,,,,,,,,,,,,,,,,"MET10302/01/20 09:53:02 METAR PASO 011853Z 01003KT 10SM CLR M12/M14 A2980 RMK AO2 SLP091 I1000 T11171139 TSNO","FM-15","7",,,,,,,,,,,,,,,,,,,,,,,,,,,,"2005-10-30"
"70362125516","2020-02-01T10:53:00","FM-15","7",,,,,,,,,,,,,,,,,,,,,,,,,,,,,,,,,,,,,,"29.84","9","13","0.00",,,,"84","29.84","CLR:00","29.81","10.00","12","010",,"3",,,,,,,,,,,,,,,,,,,,,,,,,,,,,,,,,,,,,"MET09702/01/20 10:53:02 METAR PASO 011953Z 01003KT 10SM CLR M11/M13 A2984 RMK AO2 SLP104 T11061128 TSNO","FM-15","7",,,,,,,,,,,,,,,,,,,,,,,,,,,,"2005-10-30"
"70362125516","2020-02-01T11:53:00","FM-15","7",,,,,,,,,,,,,,,,,,,,,,,,,,,,,,,,,,,,,,"29.87","10","15","0.00",,"-0.10","3","80","29.88","CLR:00","29.84","10.00","14","000",,"0",,,,,,,,,,,,,,,,,,,,,,,,,,,,,,,,,,,,,"MET10902/01/20 11:53:02 METAR PASO 012053Z 00000KT 10SM CLR M09/M12 A2987 RMK AO2 SLP117 I3000 T10941122 53035 TSNO","FM-15","7",,,,,,,,,,,,,,,,,,,,,,,,,,,,"2005-10-30"
"70362125516","2020-02-01T12:53:00","FM-15","7",,,,,,,,,,,,,,,,,,,,,,,,,,,,,,,,,,,,,,"29.91","11","16","0.00",,,,"80","29.91","CLR:00","29.88","10.00","15","000",,"0",,,,,,,,,,,,,,,,,,,,,,,,,,,,,,,,,,,,,"MET09702/01/20 12:53:02 METAR PASO 012153Z 00000KT 10SM CLR M09/M12 A2991 RMK AO2 SLP129 T10891117 TSNO","FM-15","7",,,,,,,,,,,,,,,,,,,,,,,,,,,,"2005-10-30"
"70362125516","2020-02-01T13:53:00","FM-15","7",,,,,,,,,,,,,,,,,,,,,,,,,,,,,,,,,,,,,,"29.94","12","17","0.00",,,,"80","29.94","CLR:00","29.91","10.00","16","000",,"0",,,,,,,,,,,,,,,,,,,,,,,,,,,,,,,,,,,,,"MET09702/01/20 13:53:02 METAR PASO 012253Z 00000KT 10SM CLR M08/M11 A2994 RMK AO2 SLP139 T10831111 TSNO","FM-15","7",,,,,,,,,,,,,,,,,,,,,,,,,,,,"2005-10-30"
"70362125516","2020-02-01T14:53:00","FM-15","7",,,,,,,,,,,,,,,,,,,,,,,,,,,,,,,,,,,,,,"29.97","8","19","0.00",,"-0.10","1","62","29.97","CLR:00","29.94","10.00","16","VRB",,"5",,,,,,,,,,,,,,,,,,,,,,,,,,,,,,,,,,,,,"MET12102/01/20 14:53:02 METAR PASO 012353Z VRB04KT 10SM CLR M07/M13 A2997 RMK AO2 SLP150 I6000 T10721133 11072 21122 51033 TSNO","FM-15","7",,,,,,,,,,,,,,,,,,,,,,,,,,,,"2005-10-30"
"70362125516","2020-02-01T15:53:00","FM-15","7",,,,,,,,,,,,,,,,,,,,,,,,,,,,,,,,,,,,,,"30.01","8","20","0.00",,,,"60","30.01","CLR:00","29.98","10.00","17","010",,"3",,,,,,,,,,,,,,,,,,,,,,,,,,,,,,,,,,,,,"MET09702/01/20 15:53:01 METAR PASO 020053Z 01003KT 10SM CLR M07/M13 A3001 RMK AO2 SLP162 T10671133 TSNO","FM-15","7",,,,,,,,,,,,,,,,,,,,,,,,,,,,"2005-10-30"
"70362125516","2020-02-01T16:53:00","FM-15","6",,,,,,,,,,,,,,,,,,,,,,,,,,,,,,,,,,,,,,"30.03","11","15","0.00",,,,"84","30.03","CLR:00","30.00","10.00","14","000",,"0",,,,,,,,,,,,,,,,,,,,,,,,,,,,,,,,,,,,,"MET10602/01/20 16:53:01 METAR PASO 020153Z 00000KT 10SM CLR M09/M12 A3003 RMK SLP170 T10941117 TSNO VIA AUTODIAL","FM-15","6",,,,,,,,,,,,,,,,,,,,,,,,,,,,"2005-10-30"
"70362125516","2020-02-01T17:53:00","FM-15","7",,,,,,,,,,,,,,,,,,,,,,,,,,,,,,,,,,,,,,"30.07","9","12","0.00",,"-0.09","1","87","30.06","CLR:00","30.04","10.00","11","000",,"0",,,,,,,,,,,,,,,,,,,,,,,,,,,,,,,,,,,,,"MET11502/01/20 17:53:01 METAR PASO 020253Z 00000KT 10SM CLR M11/M13 A3007 RMK AO2 SLP181 I1000 I3000 T11111128 51031 TSNO","FM-15","7",,,,,,,,,,,,,,,,,,,,,,,,,,,,"2005-10-30"
"70362125516","2020-02-01T18:53:00","FM-15","7",,,,,,,,,,,,,,,,,,,,,,,,,,,,,,,,,,,,,,"30.09","5","10","0.00",,,,"80","30.09","CLR:00","30.06","10.00","9","000",,"0",,,,,,,,,,,,,,,,,,,,,,,,,,,,,,,,,,,,,"MET10302/01/20 18:53:01 METAR PASO 020353Z 00000KT 10SM CLR M12/M15 A3009 RMK AO2 SLP188 I1000 T11221150 TSNO","FM-15","7",,,,,,,,,,,,,,,,,,,,,,,,,,,,"2005-10-30"
"70362125516","2020-02-01T19:53:00","FM-15","7",,,,,,,,,,,,,,,,,,,,,,,,,,,,,,,,,,,,,,"30.10","4","8","0.00",,,,"83","30.10","CLR:00","30.07","10.00","7","000",,"0",,,,,,,,,,,,,,,,,,,,,,,,,,,,,,,,,,,,,"MET10302/01/20 19:53:02 METAR PASO 020453Z 00000KT 10SM CLR M13/M16 A3010 RMK AO2 SLP194 I1000 T11331156 TSNO","FM-15","7",,,,,,,,,,,,,,,,,,,,,,,,,,,,"2005-10-30"
"70362125516","2020-02-01T20:53:00","FM-15","7",,,,,,,,,,,,,,,,,,,,,,,,,,,,,,,,,,,,,,"30.11","4","8","0.00",,"-0.05","1","83","30.11","CLR:00","30.08","10.00","7","000",,"0",,,,,,,,,,,,,,,,,,,,,,,,,,,,,,,,,,,,,"MET12702/01/20 20:53:02 METAR PASO 020553Z 00000KT 10SM CLR M13/M16 A3011 RMK AO2 SLP197 I1000 I6000 T11331156 11067 21139 51016 TSNO","FM-15","7",,,,,,,,,,,,,,,,,,,,,,,,,,,,"2005-10-30"
"70362125516","2020-02-01T21:53:00","FM-15","7",,,,,,,,,,,,,,,,,,,,,,,,,,,,,,,,,,,,,,"30.11","2","6","0.00",,,,"83","30.11","CLR:00","30.08","10.00","5","200",,"3",,,,,,,,,,,,,,,,,,,,,,,,,,,,,,,,,,,,,"MET10302/01/20 21:53:02 METAR PASO 020653Z 20003KT 10SM CLR M14/M17 A3011 RMK AO2 SLP197 I1000 T11441167 TSNO","FM-15","7",,,,,,,,,,,,,,,,,,,,,,,,,,,,"2005-10-30"
"70362125516","2020-02-01T22:53:00","FM-15","7",,,,,,,,,,,,,,,,,,,,,,,,,,,,,,,,,,,,,,"30.11","1","5","0.00",,,,"83","30.11","CLR:00","30.08","10.00","4","000",,"0",,,,,,,,,,,,,,,,,,,,,,,,,,,,,,,,,,,,,"MET09702/01/20 22:53:02 METAR PASO 020753Z 00000KT 10SM CLR M15/M17 A3011 RMK AO2 SLP196 T11501172 TSNO","FM-15","7",,,,,,,,,,,,,,,,,,,,,,,,,,,,"2005-10-30"
"70362125516","2020-02-01T23:53:00","FM-15","7",,,,,,,,,,,,,,,,,,,,,,,,,,,,,,,,,,,,,,"30.10","2","6","0.00",,"+0.01","8","83","30.10","CLR:00","30.07","10.00","5","000",,"0",,,,,,,,,,,,,,,,,,,,,,,,,,,,,,,,,,,,,"MET11902/01/20 23:53:02 METAR PASO 020853Z 00000KT 10SM CLR M14/M17 A3010 RMK AO2 SLP193 I3000 T11441167 410671150 58004 TSNO","FM-15","7",,,,,,,,,,,,,,,,,,,,,,,,,,,,"2005-10-30"
"70362125516","2020-02-01T23:59:00","SOD  ","6",,,,,,,,,,,,,,,,"13",,,"29.81",,"2.7","0","-13.2","52","20","5","010","18","T",,,"020","14","SN BR",,,,,,,,,,,,,,,,,,,,,,,,,,,,,,,,,,,,,,,,,,,,,,,,,,,,,,,,"SOD73024 HR PRECIPITATION (IN):T     24 HR MAX TEMP (F):20 24 HR MAX TEMP TIME (LST):1553 24 HR MIN TEMP (F):5  24 HR MIN TEMP TIME (LST):2359 AVERAGE STATION PRESSURE:29.810 MINIMUM SEA LEVEL PRESSURE:29.48 TIME OF OCCURRENCE:0025 PEAK WIND SPEED (MPH):18  PEAK WIND DIR (DEG):10  PEAK WIND TIME (LST):0402  FASTEST 2MIN SPEED (MPH):14 FASTEST 2MIN DIR (DEG):20  FASTEST 2MIN TIME (LST):0338 AVERAGE WIND SPEED (MPH):2.7  24 HR AVG TEMP (F):13 HEATING DEGREE DAYS:52  COOLING DEGREE DAYS:0   LATEST DAY MAX TEMP (0700-1900 LST):20  LATEST NIGHT MIN TEMP(1900-0800 LST):13 HOURLY INCREMENTAL PRECIPITATION VALUES (IN):    T    T    T    0.00 0.00 0.00 0.00 0.00 0.00 0.00 0.00 0.00 0.00 0.00 0.00 0.00 0.00 0.00 0.00 0.00 0.00 0.00 0.00","SOD  ","6",,,,,,,,,,,,,,,,,,,,,,,,,"0918","1724",,"2005-10-30"
"70362125516","2020-02-02T00:53:00","FM-15","7",,,,,,,,,,,,,,,,,,,,,,,,,,,,,,,,,,,,,,"30.11","2","6","0.00",,,,"83","30.11","CLR:00","30.08","10.00","5","000",,"0",,,,,,,,,,,,,,,,,,,,,,,,,,,,,,,,,,,,,"MET09702/02/20 00:53:02 METAR PASO 020953Z 00000KT 10SM CLR M14/M17 A3011 RMK AO2 SLP196 T11441167 TSNO","FM-15","7",,,,,,,,,,,,,,,,,,,,,,,,,,,,"2005-10-30"
"70362125516","2020-02-02T01:53:00","FM-15","7",,,,,,,,,,,,,,,,,,,,,,,,,,,,,,,,,,,,,,"30.11","3","7","0.00",,,,"84","30.11","CLR:00","30.08","10.00","6","000",,"0",,,,,,,,,,,,,,,,,,,,,,,,,,,,,,,,,,,,,"MET09702/02/20 01:53:02 METAR PASO 021053Z 00000KT 10SM CLR M14/M16 A3011 RMK AO2 SLP196 T11391161 TSNO","FM-15","7",,,,,,,,,,,,,,,,,,,,,,,,,,,,"2005-10-30"
"70362125516","2020-02-02T02:53:00","FM-15","7",,,,,,,,,,,,,,,,,,,,,,,,,,,,,,,,,,,,,,"30.08","6","10","0.00",,"+0.02","8","84","30.08","CLR:00","30.05","10.00","9","000",,"0",,,,,,,,,,,,,,,,,,,,,,,,,,,,,,,,,,,,,"MET12102/02/20 02:53:02 METAR PASO 021153Z 00000KT 10SM CLR M12/M14 A3008 RMK AO2 SLP185 I6000 T11221144 11122 21150 58008 TSNO","FM-15","7",,,,,,,,,,,,,,,,,,,,,,,,,,,,"2005-10-30"
"70362125516","2020-02-02T03:53:00","FM-15","7",,,,,,,,,,,,,,,,,,,,,,,,,,,,,,,,,,,,,,"30.06","5","9","0.00",,,,"84","30.06","BKN:07 110","30.03","10.00","8","000",,"0",,,,,,,,,,,,,,,,,,,,,,,,,,,,,,,,,,,,,"MET10002/02/20 03:53:02 METAR PASO 021253Z 00000KT 10SM BKN110 M13/M15 A3006 RMK AO2 SLP179 T11281150 TSNO","FM-15","7",,,,,,,,,,,,,,,,,,,,,,,,,,,,"2005-10-30"
"70362125516","2020-02-02T04:53:00","FM-15","7",,,,,,,,,,,,,,,,,,,,,,,,,,,,,,,,,,,,,,"30.05","7","10","0.00",,,,"87","30.05","BKN:07 110","30.02","10.00","9","000",,"0",,,,,,,,,,,,,,,,,,,,,,,,,,,,,,,,,,,,,"MET10002/02/20 04:53:02 METAR PASO 021353Z 00000KT 10SM BKN110 M12/M14 A3005 RMK AO2 SLP177 T11221139 TSNO","FM-15","7",,,,,,,,,,,,,,,,,,,,,,,,,,,,"2005-10-30"
"70362125516","2020-02-02T05:53:00","FM-15","7",,,,,,,,,,,,,,,,,,,,,,,,,,,,,,,,,,,,,,"30.03","10","13","0.00",,"+0.05","8","88","30.02","OVC:08 90","30.00","10.00","12","000",,"0",,,,,,,,,,,,,,,,,,,,,,,,,,,,,,,,,,,,,"MET10602/02/20 05:53:02 METAR PASO 021453Z 00000KT 10SM OVC090 M11/M12 A3003 RMK AO2 SLP167 T11061122 58018 TSNO","FM-15","7",,,,,,,,,,,,,,,,,,,,,,,,,,,,"2005-10-30"
"70362125516","2020-02-02T06:53:00","FM-15","7",,,,,,,,,,,,,,,,,,,,,,,,,,,,,,,,,,,,,,"30.00","14","17","T",,,,"88","30.00","BKN:07 44 BKN:07 65 OVC:08 100","29.97","10.00","16","000",,"0",,,,,,,,,,,,,,,,,,,,,,,,,,,,,,,,,,,,,"MET11402/02/20 06:53:02 METAR PASO 021553Z 00000KT 10SM BKN044 BKN065 OVC100 M08/M10 A3000 RMK AO2 SLP159 T10831100 TSNO","FM-15","7",,,,,,,,,,,,,,,,,,,,,,,,,,,,"2005-10-30"
"70362125516","2020-02-02T07:53:00","FM-15","7",,,,,,,,,,,,,,,,,,,,,,,,,,,,,,,,,,,,,,"29.98","20","23","T","-SN:03 |SN |",,,"88","29.98","OVC:08 33","29.95","7.00","22","000",,"0",,,,,,,,,,,,,,,,,,,,,,,,,,,,,,,,,,,,,"MET12302/02/20 07:53:02 METAR PASO 021653Z 00000KT 7SM -SN OVC033 M05/M07 A2998 RMK AO2 SNB1558E09B29 SLP153 P0000 T10501067 TSNO","FM-15","7",,,,,,,,,,,,,,,,,,,,,,,,,,,,"2005-10-30"
"70362125516","2020-02-02T08:22:00","FM-16","7",,,,,,,,,,,,,,,,,,,,,,,,,,,,,,,,,,,,,,"29.97","19","22","T","-SN:03 BR:1 |SN |",,,"89",,"BKN:07 28 OVC:08 37","29.94","3.00","21","350",,"3",,,,,,,,,,,,,,,,,,,,,,,,,,,,,,,,,,,,,"MET11202/02/20 08:22:02 SPECI PASO 021722Z 35003KT 3SM -SN BR BKN028 OVC037 M06/M07 A2997 RMK AO2 P0000 T10561072 TSNO","FM-16","7",,,,,,,,,,,,,,,,,,,,,,,,,,,,"2005-10-30"
"70362125516","2020-02-02T08:50:00","FM-16","7",,,,,,,,,,,,,,,,,,,,,,,,,,,,,,,,,,,,,,"29.96","19","21","T","-SN:03 BR:1 |SN |",,,"93",,"OVC:08 21","29.93","1.75","20","000",,"0",,,,,,,,,,,,,,,,,,,,,,,,,,,,,,,,,,,,,"MET09902/02/20 08:50:02 SPECI PASO 021750Z 00000KT 1 3/4SM -SN BR OVC021 M06/M07 A2996 RMK AO2 P0000 TSNO","FM-16","7",,,,,,,,,,,,,,,,,,,,,,,,,,,,"2005-10-30"
"70362125516","2020-02-02T08:51:00","FM-15","7",,,,,,,,,,,,,,,,,,,,,,,,,,,,,,,,,,,,,,"29.96","19","22","T","-SN:03 BR:1 |SN |","+0.06","6","89","29.96","OVC:08 19","29.93","1.75","21","290",,"3",,,,,,,,,,,,,,,,,,,,,,,,,,,,,,,,,,,,,"MET14002/02/20 08:51:02 METAR PASO 021751Z 29003KT 1 3/4SM -SN BR OVC019 M06/M07 A2996 RMK AO2 SLP146 P0000 60000 T10561072 11050 21133 56021 TSNO","FM-15","7",,,,,,,,,,,,,,,,,,,,,,,,,,,,"2005-10-30"
"70362125516","2020-02-02T09:03:00","FM-16","7",,,,,,,,,,,,,,,,,,,,,,,,,,,,,,,,,,,,,,"29.96","20","23","T","-SN:03 BR:1 |SN |",,,"88",,"BKN:07 14 OVC:08 20","29.93","0.75","22","000",,"0",,,,,,,,,,,,,,,,,,,,,,,,,,,,,,,,,,,,,"MET11402/02/20 09:03:02 SPECI PASO 021803Z 00000KT 3/4SM -SN BR BKN014 OVC020 M05/M07 A2996 RMK AO2 P0000 T10501067 TSNO","FM-16","7",,,,,,,,,,,,,,,,,,,,,,,,,,,,"2005-10-30"
"70362125516","2020-02-02T09:24:00","FM-16","7",,,,,,,,,,,,,,,,,,,,,,,,,,,,,,,,,,,,,,"29.95","21","22","T","-SN:03 BR:1 |SN |",,,"96",,"VV:09 9","29.92","0.75","22","000",,"0",,,,,,,,,,,,,,,,,,,,,,,,,,,,,,,,,,,,,"MET10602/02/20 09:24:02 SPECI PASO 021824Z 00000KT 3/4SM -SN BR VV009 M06/M06 A2995 RMK AO2 P0000 T10561061 TSNO","FM-16","7",,,,,,,,,,,,,,,,,,,,,,,,,,,,"2005-10-30"
"70362125516","2020-02-02T09:38:00","FM-16","7",,,,,,,,,,,,,,,,,,,,,,,,,,,,,,,,,,,,,,"29.93","20","23","T","-SN:03 BR:1 |SN |",,,"88",,"VV:09 11","29.90","1.00","22","320",,"3",,,,,,,,,,,,,,,,,,,,,,,,,,,,,,,,,,,,,"MET10402/02/20 09:38:02 SPECI PASO 021838Z 32003KT 1SM -SN BR VV011 M05/M07 A2993 RMK AO2 P0000 T10501067 TSNO","FM-16","7",,,,,,,,,,,,,,,,,,,,,,,,,,,,"2005-10-30"
"70362125516","2020-02-02T09:46:00","FM-16","7",,,,,,,,,,,,,,,,,,,,,,,,,,,,,,,,,,,,,,"29.93","21","23","T","-SN:03 BR:1 |SN |",,,"92",,"OVC:08 18","29.90","2.00","22","VRB",,"3",,,,,,,,,,,,,,,,,,,,,,,,,,,,,,,,,,,,,"MET10502/02/20 09:46:02 SPECI PASO 021846Z VRB03KT 2SM -SN BR OVC018 M05/M06 A2993 RMK AO2 P0000 T10501061 TSNO","FM-16","7",,,,,,,,,,,,,,,,,,,,,,,,,,,,"2005-10-30"
"70362125516","2020-02-02T09:53:00","FM-15","7",,,,,,,,,,,,,,,,,,,,,,,,,,,,,,,,,,,,,,"29.93","21","23","T","-SN:03 BR:1 |SN |",,,"92","29.93","OVC:08 20","29.90","2.50","22","000",,"0",,,,,,,,,,,,,,,,,,,,,,,,,,,,,,,,,,,,,"MET11602/02/20 09:53:02 METAR PASO 021853Z 00000KT 2 1/2SM -SN BR OVC020 M05/M06 A2993 RMK AO2 SLP134 P0000 T10501061 TSNO","FM-15","7",,,,,,,,,,,,,,,,,,,,,,,,,,,,"2005-10-30"
"70362125516","2020-02-02T10:06:00","FM-16","7",,,,,,,,,,,,,,,,,,,,,,,,,,,,,,,,,,,,,,"29.92","22","24","T","-SN:03 BR:1 |SN |",,,"91",,"OVC:08 22","29.89","1.25","23","000",,"0",,,,,,,,,,,,,,,,,,,,,,,,,,,,,,,,,,,,,"MET10902/02/20 10:06:02 SPECI PASO 021906Z 00000KT 1 1/4SM -SN BR OVC022 M04/M06 A2992 RMK AO2 P0000 T10441056 TSNO","FM-16","7",,,,,,,,,,,,,,,,,,,,,,,,,,,,"2005-10-30"
"70362125516","2020-02-02T10:17:00","FM-16","7",,,,,,,,,,,,,,,,,,,,,,,,,,,,,,,,,,,,,,"29.92","21","24","T","-SN:03 BR:1 |SN |",,,"88",,"VV:09 17","29.89","0.75","23","000",,"0",,,,,,,,,,,,,,,,,,,,,,,,,,,,,,,,,,,,,"MET10602/02/20 10:17:02 SPECI PASO 021917Z 00000KT 3/4SM -SN BR VV017 M04/M06 A2992 RMK AO2 P0000 T10441061 TSNO","FM-16","7",,,,,,,,,,,,,,,,,,,,,,,,,,,,"2005-10-30"
"70362125516","2020-02-02T10:35:00","FM-16","7",,,,,,,,,,,,,,,,,,,,,,,,,,,,,,,,,,,,,,"29.92","22","24","T","SN:03 FZ:8 FG:2 |FG SN |",,,"91",,"VV:09 13","29.89","0.50","23","010",,"5",,,,,,,,,,,,,,,,,,,,,,,,,,,,,,,,,,,,,"MET10702/02/20 10:35:02 SPECI PASO 021935Z 01004KT 1/2SM SN FZFG VV013 M04/M06 A2992 RMK AO2 P0000 T10441056 TSNO","FM-16","7",,,,,,,,,,,,,,,,,,,,,,,,,,,,"2005-10-30"
"70362125516","2020-02-02T10:53:00","FM-15","7",,,,,,,,,,,,,,,,,,,,,,,,,,,,,,,,,,,,,,"29.91","23","25","T","SN:03 FZ:8 FG:2 |FG SN |",,,"92","29.91","VV:09 13","29.88","0.50","24","000",,"0",,,,,,,,,,,,,,,,,,,,,,,,,,,,,,,,,,,,,"MET11402/02/20 10:53:02 METAR PASO 021953Z 00000KT 1/2SM SN FZFG VV013 M04/M05 A2991 RMK AO2 SLP128 P0000 T10391050 TSNO","FM-15","7",,,,,,,,,,,,,,,,,,,,,,,,,,,,"2005-10-30"
"70362125516","2020-02-02T11:05:00","FM-16","7",,,,,,,,,,,,,,,,,,,,,,,,,,,,,,,,,,,,,,"29.90","23","25","T","-SN:03 BR:1 |SN |",,,"92",,"VV:09 17","29.87","1.00","24","360",,"5",,,,,,,,,,,,,,,,,,,,,,,,,,,,,,,,,,,,,"MET10402/02/20 11:05:02 SPECI PASO 022005Z 36004KT 1SM -SN BR VV017 M04/M05 A2990 RMK AO2 P0000 T10391050 TSNO","FM-16","7",,,,,,,,,,,,,,,,,,,,,,,,,,,,"2005-10-30"
"70362125516","2020-02-02T11:22:00","FM-16","7",,,,,,,,,,,,,,,,,,,,,,,,,,,,,,,,,,,,,,"29.89","24","26","T","-SN:03 BR:1 |SN |",,,"92",,"BKN:07 23 BKN:07 29 OVC:08 36","29.86","2.00","25","000",,"0",,,,,,,,,,,,,,,,,,,,,,,,,,,,,,,,,,,,,"MET11902/02/20 11:22:02 SPECI PASO 022022Z 00000KT 2SM -SN BR BKN023 BKN029 OVC036 M03/M04 A2989 RMK AO2 P0000 T10331044 TSNO","FM-16","7",,,,,,,,,,,,,,,,,,,,,,,,,,,,"2005-10-30"
"70362125516","2020-02-02T11:29:00","FM-16","7",,,,,,,,,,,,,,,,,,,,,,,,,,,,,,,,,,,,,,"29.89","24","26","T","-SN:03 BR:1 |SN |",,,"92",,"BKN:07 26 OVC:08 36","29.86","1.75","25","210",,"3",,,,,,,,,,,,,,,,,,,,,,,,,,,,,,,,,,,,,"MET11602/02/20 11:29:02 SPECI PASO 022029Z 21003KT 1 3/4SM -SN BR BKN026 OVC036 M03/M04 A2989 RMK AO2 P0000 T10331044 TSNO","FM-16","7",,,,,,,,,,,,,,,,,,,,,,,,,,,,"2005-10-30"
"70362125516","2020-02-02T11:53:00","FM-15","7",,,,,,,,,,,,,,,,,,,,,,,,,,,,,,,,,,,,,,"29.87","25","28","T","-SN:03 BR:1 |SN |","+0.09","6","88","29.87","OVC:08 24","29.84","2.00","27","000",,"0",,,,,,,,,,,,,,,,,,,,,,,,,,,,,,,,,,,,,"MET12402/02/20 11:53:02 METAR PASO 022053Z 00000KT 2SM -SN BR OVC024 M02/M04 A2987 RMK AO2 SLP116 P0000 60000 T10221039 56030 TSNO","FM-15","7",,,,,,,,,,,,,,,,,,,,,,,,,,,,"2005-10-30"
"70362125516","2020-02-02T12:08:00","FM-16","7",,,,,,,,,,,,,,,,,,,,,,,,,,,,,,,,,,,,,,"29.87","25","28","T","-SN:03 BR:1 |SN |",,,"88",,"BKN:07 26 OVC:08 35","29.84","1.50","27","000",,"0",,,,,,,,,,,,,,,,,,,,,,,,,,,,,,,,,,,,,"MET11602/02/20 12:08:02 SPECI PASO 022108Z 00000KT 1 1/2SM -SN BR BKN026 OVC035 M02/M04 A2987 RMK AO2 P0000 T10221039 TSNO","FM-16","7",,,,,,,,,,,,,,,,,,,,,,,,,,,,"2005-10-30"
"70362125516","2020-02-02T12:36:00","FM-16","7",,,,,,,,,,,,,,,,,,,,,,,,,,,,,,,,,,,,,,"29.85","27","29","T","-SN:03 BR:1 |SN |",,,"92",,"FEW:02 17 BKN:07 28 OVC:08 35","29.82","2.50","28","290",,"3",,,,,,,,,,,,,,,,,,,,,,,,,,,,,,,,,,,,,"MET12302/02/20 12:36:02 SPECI PASO 022136Z 29003KT 2 1/2SM -SN BR FEW017 BKN028 OVC035 M02/M03 A2985 RMK AO2 P0000 T10171028 TSNO","FM-16","7",,,,,,,,,,,,,,,,,,,,,,,,,,,,"2005-10-30"
"70362125516","2020-02-02T12:49:00","FM-16","7",,,,,,,,,,,,,,,,,,,,,,,,,,,,,,,,,,,,,,"29.83","27","28","T","-SN:03 BR:1 |SN |",,,"93",,"VV:09 19","29.80","1.00","28","VRB",,"3",,,,,,,,,,,,,,,,,,,,,,,,,,,,,,,,,,,,,"MET09402/02/20 12:49:02 SPECI PASO 022149Z VRB03KT 1SM -SN BR VV019 M02/M03 A2983 RMK AO2 P0000 TSNO","FM-16","7",,,,,,,,,,,,,,,,,,,,,,,,,,,,"2005-10-30"
"70362125516","2020-02-02T12:53:00","FM-15","7",,,,,,,,,,,,,,,,,,,,,,,,,,,,,,,,,,,,,,"29.83","27","29","T","-SN:03 BR:1 |SN |",,,"92","29.83","VV:09 18","29.80","0.75","28","180",,"5",,,,,,,,,,,,,,,,,,,,,,,,,,,,,,,,,,,,,"MET11302/02/20 12:53:02 METAR PASO 022153Z 18004KT 3/4SM -SN BR VV018 M02/M03 A2983 RMK AO2 SLP102 P0000 T10171028 TSNO","FM-15","7",,,,,,,,,,,,,,,,,,,,,,,,,,,,"2005-10-30"
"70362125516","2020-02-02T13:07:00","FM-16","7",,,,,,,,,,,,,,,,,,,,,,,,,,,,,,,,,,,,,,"29.83","27","30","T","-SN:03 BR:1 |SN |",,,"88",,"VV:09 13","29.80","0.75","29","200",,"7",,,,,,,,,,,,,,,,,,,,,,,,,,,,,,,,,,,,,"MET10602/02/20 13:07:02 SPECI PASO 022207Z 20006KT 3/4SM -SN BR VV013 M01/M03 A2983 RMK AO2 P0000 T10111028 TSNO","FM-16","7",,,,,,,,,,,,,,,,,,,,,,,,,,,,"2005-10-30"
"70362125516","2020-02-02T13:51:00","FM-16","6",,,,,,,,,,,,,,,,,,,,,,,,,,,,,,,,,,,,,,"29.81","28","30",,"SN:03 FZ:8 FG:2 |FG SN |",,,"93",,"VV:09 9","29.78","0.50","29","190",,"6",,,,,,,,,,,,,,,,,,,,,,,,,,,,,,,,,,,,,"MET10202/02/20 13:51:02 SPECI PASO 022251Z 19005KT 1/2SM SN FZFG VV009 M01/M02 A2981 RMK AO2 P0000 TSNO FIBI","FM-16","6",,,,,,,,,,,,,,,,,,,,,,,,,,,,"2005-10-30"
"70362125516","2020-02-02T13:53:00","FM-15","7",,,,,,,,,,,,,,,,,,,,,,,,,,,,,,,,,,,,,,"29.81","28","30","T","SN:03 FZ:8 FG:2 |FG SN |",,,"92","29.80","VV:09 9","29.78","0.50","29","VRB",,"3",,,,,,,,,,,,,,,,,,,,,,,,,,,,,,,,,,,,,"MET11402/02/20 13:53:02 METAR PASO 022253Z VRB03KT 1/2SM SN FZFG VV009 M01/M02 A2981 RMK AO2 SLP093 P0000 T10111022 TSNO","FM-15","7",,,,,,,,,,,,,,,,,,,,,,,,,,,,"2005-10-30"
"70362125516","2020-02-02T14:25:00","FM-16","7",,,,,,,,,,,,,,,,,,,,,,,,,,,,,,,,,,,,,,"29.79","28","30","T","SN:03 FZ:8 FG:2 |FG SN |",,,"92",,"VV:09 10","29.76","0.50","29","190",,"8",,,,,,,,,,,,,,,,,,,,,,,,,,,,,,,,,,,,,"MET10702/02/20 14:25:02 SPECI PASO 022325Z 19007KT 1/2SM SN FZFG VV010 M01/M02 A2979 RMK AO2 P0000 T10111022 TSNO","FM-16","7",,,,,,,,,,,,,,,,,,,,,,,,,,,,"2005-10-30"
"70362125516","2020-02-02T14:53:00","FM-15","7",,,,,,,,,,,,,,,,,,,,,,,,,,,,,,,,,,,,,,"29.77","28","31","T","SN:03 FZ:8 FG:2 |FG SN |","+0.06","8","89","29.77","VV:09 10","29.74","0.50","30","VRB",,"5",,,,,,,,,,,,,,,,,,,,,,,,,,,,,,,,,,,,,"MET13802/02/20 14:53:02 METAR PASO 022353Z VRB04KT 1/2SM SN FZFG VV010 M01/M02 A2977 RMK AO2 SLP081 P0000 60000 T10061022 11006 21050 58022 TSNO","FM-15","7",,,,,,,,,,,,,,,,,,,,,,,,,,,,"2005-10-30"
"70362125516","2020-02-02T15:26:00","FM-16","7",,,,,,,,,,,,,,,,,,,,,,,,,,,,,,,,,,,,,,"29.76","29","31","T","-SN:03 BR:1 |SN |",,,"92",,"VV:09 14","29.73","1.00","30","350",,"3",,,,,,,,,,,,,,,,,,,,,,,,,,,,,,,,,,,,,"MET10402/02/20 15:26:01 SPECI PASO 030026Z 35003KT 1SM -SN BR VV014 M01/M02 A2976 RMK AO2 P0000 T10061017 TSNO","FM-16","7",,,,,,,,,,,,,,,,,,,,,,,,,,,,"2005-10-30"
"70362125516","2020-02-02T15:42:00","FM-16","6",,,,,,,,,,,,,,,,,,,,,,,,,,,,,,,,,,,,,,"29.75","28","31",,"-SN:03 BR:1 |SN |",,,"89",,"VV:09 15","29.72","1.00","30","VRB",,"3",,,,,,,,,,,,,,,,,,,,,,,,,,,,,,,,,,,,,"MET10402/02/20 15:42:03 SPECI PASO 030042Z VRB03KT 1SM -SN BR VV015 M01/M02 A2975 RMK AO2 P0000 T10061022 TSNO","FM-16","6",,,,,,,,,,,,,,,,,,,,,,,,,,,,"2005-10-30"
"70362125516","2020-02-02T15:49:00","FM-16","7",,,,,,,,,,,,,,,,,,,,,,,,,,,,,,,,,,,,,,"29.75","28","30","T","-SN:03 BR:1 |SN |",,,"93",,"VV:09 15","29.72","0.75","29","VRB",,"3",,,,,,,,,,,,,,,,,,,,,,,,,,,,,,,,,,,,,"MET09602/02/20 15:49:01 SPECI PASO 030049Z VRB03KT 3/4SM -SN BR VV015 M01/M02 A2975 RMK AO2 P0000 TSNO","FM-16","7",,,,,,,,,,,,,,,,,,,,,,,,,,,,"2005-10-30"
"70362125516","2020-02-02T15:53:00","FM-15","7",,,,,,,,,,,,,,,,,,,,,,,,,,,,,,,,,,,,,,"29.75","29","31","T","-SN:03 BR:1 |SN |",,,"92","29.75","VV:09 15","29.72","0.75","30","000",,"0",,,,,,,,,,,,,,,,,,,,,,,,,,,,,,,,,,,,,"MET11302/02/20 15:53:01 METAR PASO 030053Z 00000KT 3/4SM -SN BR VV015 M01/M02 A2975 RMK AO2 SLP074 P0000 T10061017 TSNO","FM-15","7",,,,,,,,,,,,,,,,,,,,,,,,,,,,"2005-10-30"
"70362125516","2020-02-02T16:01:00","FM-16","7",,,,,,,,,,,,,,,,,,,,,,,,,,,,,,,,,,,,,,"29.75","29","31","T","-SN:03 BR:1 |SN |",,,"92",,"VV:09 15","29.72","1.00","30","VRB",,"5",,,,,,,,,,,,,,,,,,,,,,,,,,,,,,,,,,,,,"MET10402/02/20 16:01:01 SPECI PASO 030101Z VRB04KT 1SM -SN BR VV015 M01/M02 A2975 RMK AO2 P0000 T10061017 TSNO","FM-16","7",,,,,,,,,,,,,,,,,,,,,,,,,,,,"2005-10-30"
"70362125516","2020-02-02T16:13:00","FM-16","7",,,,,,,,,,,,,,,,,,,,,,,,,,,,,,,,,,,,,,"29.74","29","31","T","-SN:03 BR:1 |SN |",,,"92",,"VV:09 15","29.71","0.75","30","VRB",,"3",,,,,,,,,,,,,,,,,,,,,,,,,,,,,,,,,,,,,"MET10602/02/20 16:13:01 SPECI PASO 030113Z VRB03KT 3/4SM -SN BR VV015 M01/M02 A2974 RMK AO2 P0000 T10061017 TSNO","FM-16","7",,,,,,,,,,,,,,,,,,,,,,,,,,,,"2005-10-30"
"70362125516","2020-02-02T16:27:00","FM-16","7",,,,,,,,,,,,,,,,,,,,,,,,,,,,,,,,,,,,,,"29.74","29","31","T","-SN:03 BR:1 |SN |",,,"92",,"VV:09 16","29.71","1.00","30","VRB",,"3",,,,,,,,,,,,,,,,,,,,,,,,,,,,,,,,,,,,,"MET10402/02/20 16:27:01 SPECI PASO 030127Z VRB03KT 1SM -SN BR VV016 M01/M02 A2974 RMK AO2 P0000 T10061017 TSNO","FM-16","7",,,,,,,,,,,,,,,,,,,,,,,,,,,,"2005-10-30"
"70362125516","2020-02-02T16:53:00","FM-15","7",,,,,,,,,,,,,,,,,,,,,,,,,,,,,,,,,,,,,,"29.72","28","31","T","-SN:03 BR:1 |SN |",,,"89","29.72","OVC:08 19","29.69","1.25","30","VRB",,"5",,,,,,,,,,,,,,,,,,,,,,,,,,,,,,,,,,,,,"MET11602/02/20 16:53:01 METAR PASO 030153Z VRB04KT 1 1/4SM -SN BR OVC019 M01/M02 A2972 RMK AO2 SLP065 P0000 T10061022 TSNO","FM-15","7",,,,,,,,,,,,,,,,,,,,,,,,,,,,"2005-10-30"
"70362125516","2020-02-02T17:26:00","FM-16","7",,,,,,,,,,,,,,,,,,,,,,,,,,,,,,,,,,,,,,"29.73","28","31","T","-SN:03 BR:1 |SN |",,,"89",,"OVC:08 29","29.70","3.00","30","VRB",,"5",,,,,,,,,,,,,,,,,,,,,,,,,,,,,,,,,,,,,"MET10502/02/20 17:26:01 SPECI PASO 030226Z VRB04KT 3SM -SN BR OVC029 M01/M02 A2973 RMK AO2 P0000 T10061022 TSNO","FM-16","7",,,,,,,,,,,,,,,,,,,,,,,,,,,,"2005-10-30"
"70362125516","2020-02-02T17:37:00","FM-16","7",,,,,,,,,,,,,,,,,,,,,,,,,,,,,,,,,,,,,,"29.73","28","31","T","-SN:03 BR:1 |SN |",,,"89",,"FEW:02 17 OVC:08 31","29.70","4.00","30","VRB",,"5",,,,,,,,,,,,,,,,,,,,,,,,,,,,,,,,,,,,,"MET11202/02/20 17:37:01 SPECI PASO 030237Z VRB04KT 4SM -SN BR FEW017 OVC031 M01/M02 A2973 RMK AO2 P0000 T10061022 TSNO","FM-16","7",,,,,,,,,,,,,,,,,,,,,,,,,,,,"2005-10-30"
"70362125516","2020-02-02T17:53:00","FM-15","7",,,,,,,,,,,,,,,,,,,,,,,,,,,,,,,,,,,,,,"29.73","28","30","T","-SN:03 BR:1 |SN |","+0.02","5","92","29.73","FEW:02 15 SCT:04 21 OVC:08 35","29.70","4.00","29","180",,"3",,,,,,,,,,,,,,,,,,,,,,,,,,,,,,,,,,,,,"MET13802/02/20 17:53:01 METAR PASO 030253Z 18003KT 4SM -SN BR FEW015 SCT021 OVC035 M01/M02 A2973 RMK AO2 SLP067 P0000 60000 T10111022 55006 TSNO","FM-15","7",,,,,,,,,,,,,,,,,,,,,,,,,,,,"2005-10-30"
"70362125516","2020-02-02T18:53:00","FM-15","7",,,,,,,,,,,,,,,,,,,,,,,,,,,,,,,,,,,,,,"29.71","27","32","T","-SN:03 |SN |",,,"82","29.71","BKN:07 41 OVC:08 90","29.68","5.00","30","VRB",,"5",,,,,,,,,,,,,,,,,,,,,,,,,,,,,,,,,,,,,"MET11502/02/20 18:53:01 METAR PASO 030353Z VRB04KT 5SM -SN BKN041 OVC090 00/M03 A2971 RMK AO2 SLP061 P0000 T00001028 TSNO","FM-15","7",,,,,,,,,,,,,,,,,,,,,,,,,,,,"2005-10-30"
"70362125516","2020-02-02T19:53:00","FM-15","7",,,,,,,,,,,,,,,,,,,,,,,,,,,,,,,,,,,,,,"29.70","27","30","T",,,,"88","29.70","FEW:02 42 BKN:07 55 OVC:08 110","29.67","10.00","29","010",,"3",,,,,,,,,,,,,,,,,,,,,,,,,,,,,,,,,,,,,"MET12602/02/20 19:53:02 METAR PASO 030453Z 01003KT 10SM FEW042 BKN055 OVC110 M01/M03 A2970 RMK AO2 SNE14 SLP056 P0000 T10111028 TSNO","FM-15","7",,,,,,,,,,,,,,,,,,,,,,,,,,,,"2005-10-30"
"70362125516","2020-02-02T20:53:00","FM-15","7",,,,,,,,,,,,,,,,,,,,,,,,,,,,,,,,,,,,,,"29.70","27","30","0.00",,"+0.02","5","88","29.70","FEW:02 39 BKN:07 65 OVC:08 100","29.67","10.00","29","000",,"0",,,,,,,,,,,,,,,,,,,,,,,,,,,,,,,,,,,,,"MET13802/02/20 20:53:02 METAR PASO 030553Z 00000KT 10SM FEW039 BKN065 OVC100 M01/M03 A2970 RMK AO2 SLP059 60000 T10111028 10000 21017 55008 TSNO","FM-15","7",,,,,,,,,,,,,,,,,,,,,,,,,,,,"2005-10-30"
"70362125516","2020-02-02T21:53:00","FM-15","7",,,,,,,,,,,,,,,,,,,,,,,,,,,,,,,,,,,,,,"29.69","26","29","0.00",,,,"89","29.69","FEW:02 47 BKN:07 70 OVC:08 95","29.66","10.00","28","000",,"0",,,,,,,,,,,,,,,,,,,,,,,,,,,,,,,,,,,,,"MET11402/02/20 21:53:02 METAR PASO 030653Z 00000KT 10SM FEW047 BKN070 OVC095 M02/M03 A2969 RMK AO2 SLP055 T10171033 TSNO","FM-15","7",,,,,,,,,,,,,,,,,,,,,,,,,,,,"2005-10-30"
"70362125516","2020-02-02T22:53:00","FM-15","7",,,,,,,,,,,,,,,,,,,,,,,,,,,,,,,,,,,,,,"29.65","25","28","0.00",,,,"88","29.65","FEW:02 49 BKN:07 90","29.62","10.00","27","000",,"0",,,,,,,,,,,,,,,,,,,,,,,,,,,,,,,,,,,,,"MET10702/02/20 22:53:02 METAR PASO 030753Z 00000KT 10SM FEW049 BKN090 M02/M04 A2965 RMK AO2 SLP042 T10221039 TSNO","FM-15","7",,,,,,,,,,,,,,,,,,,,,,,,,,,,"2005-10-30"
"70362125516","2020-02-02T23:53:00","FM-15","7",,,,,,,,,,,,,,,,,,,,,,,,,,,,,,,,,,,,,,"29.63","21","24","0.00","BR:1 ||","+0.07","8","88","29.63","CLR:00","29.60","5.00","23","000",,"0",,,,,,,,,,,,,,,,,,,,,,,,,,,,,,,,,,,,,"MET11502/02/20 23:53:02 METAR PASO 030853Z 00000KT 5SM BR CLR M04/M06 A2963 RMK AO2 SLP035 T10441061 400001150 58024 TSNO","FM-15","7",,,,,,,,,,,,,,,,,,,,,,,,,,,,"2005-10-30"
"70362125516","2020-02-02T23:59:00","SOD  ","6",,,,,,,,,,,,,,,,"19",,,"29.84",,"1.3","0","-7.3","46","32","5","180","16","T",,,"190","10","SN FZFG BR FG",,,,,,,,,,,,,,,,,,,,,,,,,,,,,,,,,,,,,,,,,,,,,,,,,,,,,,,,"SOD73024 HR PRECIPITATION (IN):T     24 HR MAX TEMP (F):32 24 HR MAX TEMP TIME (LST):1915 24 HR MIN TEMP (F):5  24 HR MIN TEMP TIME (LST):0033 AVERAGE STATION PRESSURE:29.840 MINIMUM SEA LEVEL PRESSURE:29.63 TIME OF OCCURRENCE:2354 PEAK WIND SPEED (MPH):16  PEAK WIND DIR (DEG):180 PEAK WIND TIME (LST):1416  FASTEST 2MIN SPEED (MPH):10 FASTEST 2MIN DIR (DEG):190 FASTEST 2MIN TIME (LST):1417 AVERAGE WIND SPEED (MPH):1.3  24 HR AVG TEMP (F):19 HEATING DEGREE DAYS:46  COOLING DEGREE DAYS:0   LATEST DAY MAX TEMP (0700-1900 LST):32  LATEST NIGHT MIN TEMP(1900-0800 LST):5  HOURLY INCREMENTAL PRECIPITATION VALUES (IN):.00 0.00 0.00 0.00 0.00 0.00 T    T    T    T    T    T    T    T    T    T    T    T    T    T    0.00 0.00 0.00 0.00","SOD  ","6",,,,,,,,,,,,,,,,,,,,,,,,,"0915","1727",,"2005-10-30"
"70362125516","2020-02-03T00:53:00","FM-15","7",,,,,,,,,,,,,,,,,,,,,,,,,,,,,,,,,,,,,,"29.65","22","24","0.00",,,,"91","29.65","FEW:02 49","29.62","10.00","23","180",,"5",,,,,,,,,,,,,,,,,,,,,,,,,,,,,,,,,,,,,"MET10002/03/20 00:53:02 METAR PASO 030953Z 18004KT 10SM FEW049 M04/M06 A2965 RMK AO2 SLP039 T10441056 TSNO","FM-15","7",,,,,,,,,,,,,,,,,,,,,,,,,,,,"2005-10-30"
"70362125516","2020-02-03T01:53:00","FM-15","7",,,,,,,,,,,,,,,,,,,,,,,,,,,,,,,,,,,,,,"29.61","20","23","0.00",,,,"88","29.61","CLR:00","29.58","10.00","22","180",,"5",,,,,,,,,,,,,,,,,,,,,,,,,,,,,,,,,,,,,"MET09702/03/20 01:53:02 METAR PASO 031053Z 18004KT 10SM CLR M05/M07 A2961 RMK AO2 SLP028 T10501067 TSNO","FM-15","7",,,,,,,,,,,,,,,,,,,,,,,,,,,,"2005-10-30"
"70362125516","2020-02-03T02:53:00","FM-15","7",,,,,,,,,,,,,,,,,,,,,,,,,,,,,,,,,,,,,,"29.62","19","22","0.00",,"+0.02","8","89","29.62","CLR:00","29.59","10.00","21","190",,"3",,,,,,,,,,,,,,,,,,,,,,,,,,,,,,,,,,,,,"MET11502/03/20 02:53:02 METAR PASO 031153Z 19003KT 10SM CLR M06/M07 A2962 RMK AO2 SLP029 T10561072 11011 21056 58006 TSNO","FM-15","7",,,,,,,,,,,,,,,,,,,,,,,,,,,,"2005-10-30"
"70362125516","2020-02-03T03:53:00","FM-15","7",,,,,,,,,,,,,,,,,,,,,,,,,,,,,,,,,,,,,,"29.61","20","22","0.00",,,,"92","29.61","FEW:02 11 SCT:04 45","29.58","10.00","21","190",,"3",,,,,,,,,,,,,,,,,,,,,,,,,,,,,,,,,,,,,"MET10702/03/20 03:53:02 METAR PASO 031253Z 19003KT 10SM FEW011 SCT045 M06/M07 A2961 RMK AO2 SLP026 T10561067 TSNO","FM-15","7",,,,,,,,,,,,,,,,,,,,,,,,,,,,"2005-10-30"
"70362125516","2020-02-03T04:53:00","FM-15","7",,,,,,,,,,,,,,,,,,,,,,,,,,,,,,,,,,,,,,"29.58","20","22","0.00",,,,"92","29.58","SCT:04 47","29.55","10.00","21","190",,"3",,,,,,,,,,,,,,,,,,,,,,,,,,,,,,,,,,,,,"MET10002/03/20 04:53:02 METAR PASO 031353Z 19003KT 10SM SCT047 M06/M07 A2958 RMK AO2 SLP016 T10561067 TSNO","FM-15","7",,,,,,,,,,,,,,,,,,,,,,,,,,,,"2005-10-30"
"70362125516","2020-02-03T05:53:00","FM-15","7",,,,,,,,,,,,,,,,,,,,,,,,,,,,,,,,,,,,,,"29.54","21","23","0.00",,"+0.08","8","92","29.54","FEW:02 47","29.51","10.00","22","180",,"3",,,,,,,,,,,,,,,,,,,,,,,,,,,,,,,,,,,,,"MET10602/03/20 05:53:02 METAR PASO 031453Z 18003KT 10SM FEW047 M05/M06 A2954 RMK AO2 SLP003 T10501061 58026 TSNO","FM-15","7",,,,,,,,,,,,,,,,,,,,,,,,,,,,"2005-10-30"
"70362125516","2020-02-03T06:53:00","FM-15","7",,,,,,,,,,,,,,,,,,,,,,,,,,,,,,,,,,,,,,"29.50","19","22","0.00",,,,"89","29.50","CLR:00","29.47","10.00","21","190",,"3",,,,,,,,,,,,,,,,,,,,,,,,,,,,,,,,,,,,,"MET09702/03/20 06:53:02 METAR PASO 031553Z 19003KT 10SM CLR M06/M07 A2950 RMK AO2 SLP991 T10561072 TSNO","FM-15","7",,,,,,,,,,,,,,,,,,,,,,,,,,,,"2005-10-30"
"70362125516","2020-02-03T07:53:00","FM-15","7",,,,,,,,,,,,,,,,,,,,,,,,,,,,,,,,,,,,,,"29.46","20","22","0.00",,,,"92","29.46","CLR:00","29.43","10.00","21","000",,"0",,,,,,,,,,,,,,,,,,,,,,,,,,,,,,,,,,,,,"MET09702/03/20 07:53:02 METAR PASO 031653Z 00000KT 10SM CLR M06/M07 A2946 RMK AO2 SLP977 T10561067 TSNO","FM-15","7",,,,,,,,,,,,,,,,,,,,,,,,,,,,"2005-10-30"
"70362125516","2020-02-03T08:53:00","FM-15","7",,,,,,,,,,,,,,,,,,,,,,,,,,,,,,,,,,,,,,"29.45","21","23","0.00",,"+0.09","6","92","29.45","CLR:00","29.42","10.00","22","000",,"0",,,,,,,,,,,,,,,,,,,,,,,,,,,,,,,,,,,,,"MET11502/03/20 08:53:02 METAR PASO 031753Z 00000KT 10SM CLR M05/M06 A2945 RMK AO2 SLP972 T10501061 11044 21061 56031 TSNO","FM-15","7",,,,,,,,,,,,,,,,,,,,,,,,,,,,"2005-10-30"
"70362125516","2020-02-03T09:53:00","FM-15","7",,,,,,,,,,,,,,,,,,,,,,,,,,,,,,,,,,,,,,"29.43","22","24","0.00",,,,"91","29.43","SCT:04 44","29.40","8.00","23","000",,"0",,,,,,,,,,,,,,,,,,,,,,,,,,,,,,,,,,,,,"MET09902/03/20 09:53:02 METAR PASO 031853Z 00000KT 8SM SCT044 M04/M06 A2943 RMK AO2 SLP967 T10441056 TSNO","FM-15","7",,,,,,,,,,,,,,,,,,,,,,,,,,,,"2005-10-30"
"70362125516","2020-02-03T10:53:00","FM-15","7",,,,,,,,,,,,,,,,,,,,,,,,,,,,,,,,,,,,,,"29.42","24","26","0.00",,,,"92","29.41","OVC:08 46","29.39","10.00","25","000",,"0",,,,,,,,,,,,,,,,,,,,,,,,,,,,,,,,,,,,,"MET10002/03/20 10:53:02 METAR PASO 031953Z 00000KT 10SM OVC046 M03/M04 A2942 RMK AO2 SLP961 T10331044 TSNO","FM-15","7",,,,,,,,,,,,,,,,,,,,,,,,,,,,"2005-10-30"
"70362125516","2020-02-03T11:53:00","FM-15","7",,,,,,,,,,,,,,,,,,,,,,,,,,,,,,,,,,,,,,"29.39","26","28","0.00",,"+0.06","8","92","29.39","BKN:07 46 OVC:08 55","29.36","10.00","27","VRB",,"3",,,,,,,,,,,,,,,,,,,,,,,,,,,,,,,,,,,,,"MET11302/03/20 11:53:02 METAR PASO 032053Z VRB03KT 10SM BKN046 OVC055 M02/M03 A2939 RMK AO2 SLP952 T10221033 58021 TSNO","FM-15","7",,,,,,,,,,,,,,,,,,,,,,,,,,,,"2005-10-30"
"70362125516","2020-02-03T12:53:00","FM-15","7",,,,,,,,,,,,,,,,,,,,,,,,,,,,,,,,,,,,,,"29.35","28","30","0.00",,,,"92","29.35","FEW:02 60 OVC:08 75","29.32","10.00","29","180",,"3",,,,,,,,,,,,,,,,,,,,,,,,,,,,,,,,,,,,,"MET11302/03/20 12:53:02 METAR PASO 032153Z 18003KT 10SM FEW060 OVC075 M01/M02 A2935 RMK AO2 SLP939 I1000 T10111022 TSNO","FM-15","7",,,,,,,,,,,,,,,,,,,,,,,,,,,,"2005-10-30"
"70362125516","2020-02-03T13:53:00","FM-15","7",,,,,,,,,,,,,,,,,,,,,,,,,,,,,,,,,,,,,,"29.33","30","31","0.00",,,,"96","29.33","FEW:02 60 OVC:08 100","29.30","9.00","31","000",,"0",,,,,,,,,,,,,,,,,,,,,,,,,,,,,,,,,,,,,"MET10602/03/20 13:53:02 METAR PASO 032253Z 00000KT 9SM FEW060 OVC100 M01/M01 A2933 RMK AO2 SLP931 T10061011 TSNO","FM-15","7",,,,,,,,,,,,,,,,,,,,,,,,,,,,"2005-10-30"
"70362125516","2020-02-03T14:53:00","FM-15","7",,,,,,,,,,,,,,,,,,,,,,,,,,,,,,,,,,,,,,"29.30","30","34","0.00",,"+0.08","6","85","29.30","FEW:02 45 SCT:04 80 OVC:08 100","29.27","10.00","32","000",,"0",,,,,,,,,,,,,,,,,,,,,,,,,,,,,,,,,,,,,"MET14302/03/20 14:53:02 METAR PASO 032353Z 00000KT 10SM FEW045 SCT080 OVC100 01/M01 A2930 RMK AO2 SLP923 I1001 I6001 T00111011 10039 21050 56028 TSNO","FM-15","7",,,,,,,,,,,,,,,,,,,,,,,,,,,,"2005-10-30"
"70362125516","2020-02-03T15:53:00","FM-15","7",,,,,,,,,,,,,,,,,,,,,,,,,,,,,,,,,,,,,,"29.28","31","34","0.00",,,,"89","29.28","OVC:08 95","29.25","10.00","33",,,,,,,,,,,,,,,,,,,,,,,,,,,,,,,,,,,,,,,,"MET09902/03/20 15:53:01 METAR PASO 040053Z      KT 10SM OVC095 01/M01 A2928 RMK AO2 SLP917 T00111006 TSNO","FM-15","7",,,,,,,,,,,,,,,,,,,,,,,,,,,,"2005-10-30"
"70362125516","2020-02-03T16:53:00","FM-15","7",,,,,,,,,,,,,,,,,,,,,,,,,,,,,,,,,,,,,,"29.28","30","34","T","UP:09 ||",,,"85","29.28","OVC:08 60","29.25","10.00","32","360",,"9",,,,,,,,,,,,,,,,,,,,,,,,,,,,,,,,,,,,,"MET11402/03/20 16:53:01 METAR PASO 040153Z 36008KT 10SM UP OVC060 01/M01 A2928 RMK AO2 UPB53 SLP915 P0000 T00111011 TSNO","FM-15","7",,,,,,,,,,,,,,,,,,,,,,,,,,,,"2005-10-30"
"70362125516","2020-02-03T17:53:00","FM-15","7",,,,,,,,,,,,,,,,,,,,,,,,,,,,,,,,,,,,,,"29.27","29","32","0.02","-SN:03 BR:1 |SN |","+0.03","6","88","29.27","OVC:08 50","29.24","4.00","31","VRB",,"3",,,,,,,,,,,,,,,,,,,,,,,,,,,,,,,,,,,,,"MET13402/03/20 17:53:01 METAR PASO 040253Z VRB03KT 4SM -SN BR OVC050 00/M02 A2927 RMK AO2 UPE04SNB40 SLP913 P0002 60002 T00001017 56010 TSNO","FM-15","7",,,,,,,,,,,,,,,,,,,,,,,,,,,,"2005-10-30"
"70362125516","2020-02-03T18:37:00","FM-16","7",,,,,,,,,,,,,,,,,,,,,,,,,,,,,,,,,,,,,,"29.28","29","32","0.01","-SN:03 BR:1 |SN |",,,"88",,"FEW:02 9 FEW:02 13 OVC:08 34","29.25","2.50","31","180",,"5",,,,,,,,,,,,,,,,,,,,,,,,,,,,,,,,,,,,,"MET12202/03/20 18:37:01 SPECI PASO 040337Z 18004KT 2 1/2SM -SN BR FEW009 FEW013 OVC034 00/M02 A2928 RMK AO2 P0001 T00001017 TSNO","FM-16","7",,,,,,,,,,,,,,,,,,,,,,,,,,,,"2005-10-30"
"70362125516","2020-02-03T18:47:00","FM-16","7",,,,,,,,,,,,,,,,,,,,,,,,,,,,,,,,,,,,,,"29.28","28","32","0.02","-SN:03 BR:1 |SN |",,,"87",,"FEW:02 8 SCT:04 13 OVC:08 26","29.25","1.75","30","180",,"3",,,,,,,,,,,,,,,,,,,,,,,,,,,,,,,,,,,,,"MET11202/03/20 18:47:01 SPECI PASO 040347Z 18003KT 1 3/4SM -SN BR FEW008 SCT013 OVC026 00/M02 A2928 RMK AO2 P0002 TSNO","FM-16","7",,,,,,,,,,,,,,,,,,,,,,,,,,,,"2005-10-30"
"70362125516","2020-02-03T18:53:00","FM-15","7",,,,,,,,,,,,,,,,,,,,,,,,,,,,,,,,,,,,,,"29.28","29","31","0.02","-SN:03 BR:1 |SN |",,,"92","29.28","SCT:04 12 OVC:08 22","29.25","1.50","30","180",,"6",,,,,,,,,,,,,,,,,,,,,,,,,,,,,,,,,,,,,"MET12302/03/20 18:53:01 METAR PASO 040353Z 18005KT 1 1/2SM -SN BR SCT012 OVC022 M01/M02 A2928 RMK AO2 SLP915 P0002 T10061017 TSNO","FM-15","7",,,,,,,,,,,,,,,,,,,,,,,,,,,,"2005-10-30"
"70362125516","2020-02-03T19:02:00","FM-16","7",,,,,,,,,,,,,,,,,,,,,,,,,,,,,,,,,,,,,,"29.28","29","31","T","-SN:03 BR:1 |SN |",,,"92",,"BKN:07 9 OVC:08 15","29.25","1.00","30","190",,"6",,,,,,,,,,,,,,,,,,,,,,,,,,,,,,,,,,,,,"MET11202/03/20 19:02:01 SPECI PASO 040402Z 19005KT 1SM -SN BR BKN009 OVC015 M01/M02 A2928 RMK AO2 P0000 T10061017 TSNO","FM-16","7",,,,,,,,,,,,,,,,,,,,,,,,,,,,"2005-10-30"
"70362125516","2020-02-03T19:17:00","FM-16","7",,,,,,,,,,,,,,,,,,,,,,,,,,,,,,,,,,,,,,"29.28","29","31","T","-SN:03 BR:1 |SN |",,,"92",,"OVC:08 11","29.25","1.00","30","210",,"5",,,,,,,,,,,,,,,,,,,,,,,,,,,,,,,,,,,,,"MET10502/03/20 19:17:01 SPECI PASO 040417Z 21004KT 1SM -SN BR OVC011 M01/M02 A2928 RMK AO2 P0000 T10061017 TSNO","FM-16","7",,,,,,,,,,,,,,,,,,,,,,,,,,,,"2005-10-30"
"70362125516","2020-02-03T19:30:00","FM-16","7",,,,,,,,,,,,,,,,,,,,,,,,,,,,,,,,,,,,,,"29.28","29","31","0.01","-SN:03 BR:1 |SN |",,,"92",,"OVC:08 9","29.25","1.25","30","000",,"0",,,,,,,,,,,,,,,,,,,,,,,,,,,,,,,,,,,,,"MET10902/03/20 19:30:02 SPECI PASO 040430Z 00000KT 1 1/4SM -SN BR OVC009 M01/M02 A2928 RMK AO2 P0001 T10061017 TSNO","FM-16","7",,,,,,,,,,,,,,,,,,,,,,,,,,,,"2005-10-30"
"70362125516","2020-02-03T19:53:00","FM-15","7",,,,,,,,,,,,,,,,,,,,,,,,,,,,,,,,,,,,,,"29.28","28","30","0.01","-SN:03 BR:1 |SN |",,,"92","29.28","BKN:07 6 OVC:08 11","29.25","1.25","29","VRB",,"3",,,,,,,,,,,,,,,,,,,,,,,,,,,,,,,,,,,,,"MET12302/03/20 19:53:02 METAR PASO 040453Z VRB03KT 1 1/4SM -SN BR BKN006 OVC011 M01/M02 A2928 RMK AO2 SLP916 P0001 T10111022 TSNO","FM-15","7",,,,,,,,,,,,,,,,,,,,,,,,,,,,"2005-10-30"
"70362125516","2020-02-03T20:01:00","FM-16","7",,,,,,,,,,,,,,,,,,,,,,,,,,,,,,,,,,,,,,"29.28","28","30","T","-SN:03 BR:1 |SN |",,,"92",,"FEW:02 6 OVC:08 11","29.25","1.25","29","010",,"3",,,,,,,,,,,,,,,,,,,,,,,,,,,,,,,,,,,,,"MET11602/03/20 20:01:02 SPECI PASO 040501Z 01003KT 1 1/4SM -SN BR FEW006 OVC011 M01/M02 A2928 RMK AO2 P0000 T10111022 TSNO","FM-16","7",,,,,,,,,,,,,,,,,,,,,,,,,,,,"2005-10-30"
"70362125516","2020-02-03T20:24:00","FM-16","7",,,,,,,,,,,,,,,,,,,,,,,,,,,,,,,,,,,,,,"29.29","28","31","0.01","-SN:03 BR:1 |SN |",,,"89",,"SCT:04 8 OVC:08 13","29.26","2.00","30","000",,"0",,,,,,,,,,,,,,,,,,,,,,,,,,,,,,,,,,,,,"MET11202/03/20 20:24:02 SPECI PASO 040524Z 00000KT 2SM -SN BR SCT008 OVC013 M01/M02 A2929 RMK AO2 P0001 T10061022 TSNO","FM-16","7",,,,,,,,,,,,,,,,,,,,,,,,,,,,"2005-10-30"
"70362125516","2020-02-03T20:34:00","FM-16","7",,,,,,,,,,,,,,,,,,,,,,,,,,,,,,,,,,,,,,"29.29","28","30","0.01","-SN:03 BR:1 |SN |",,,"92",,"BKN:07 8 OVC:08 12","29.26","1.75","29","000",,"0",,,,,,,,,,,,,,,,,,,,,,,,,,,,,,,,,,,,,"MET11602/03/20 20:34:02 SPECI PASO 040534Z 00000KT 1 3/4SM -SN BR BKN008 OVC012 M01/M02 A2929 RMK AO2 P0001 T10111022 TSNO","FM-16","7",,,,,,,,,,,,,,,,,,,,,,,,,,,,"2005-10-30"
"70362125516","2020-02-03T20:53:00","FM-15","7",,,,,,,,,,,,,,,,,,,,,,,,,,,,,,,,,,,,,,"29.29","28","31","0.01","-SN:03 BR:1 |SN |","-0.02","2","89","29.29","BKN:07 5 OVC:08 10","29.26","1.25","30","000",,"0",,,,,,,,,,,,,,,,,,,,,,,,,,,,,,,,,,,,,"MET14702/03/20 20:53:02 METAR PASO 040553Z 00000KT 1 1/4SM -SN BR BKN005 OVC010 M01/M02 A2929 RMK AO2 SLP918 P0001 60006 T10061022 10044 21011 52006 TSNO","FM-15","7",,,,,,,,,,,,,,,,,,,,,,,,,,,,"2005-10-30"
"70362125516","2020-02-03T21:10:00","FM-16","7",,,,,,,,,,,,,,,,,,,,,,,,,,,,,,,,,,,,,,"29.29","28","30","T","-SN:03 BR:1 |SN |",,,"92",,"OVC:08 5","29.26","2.00","29","000",,"0",,,,,,,,,,,,,,,,,,,,,,,,,,,,,,,,,,,,,"MET10502/03/20 21:10:02 SPECI PASO 040610Z 00000KT 2SM -SN BR OVC005 M01/M02 A2929 RMK AO2 P0000 T10111022 TSNO","FM-16","7",,,,,,,,,,,,,,,,,,,,,,,,,,,,"2005-10-30"
"70362125516","2020-02-03T21:20:00","FM-16","7",,,,,,,,,,,,,,,,,,,,,,,,,,,,,,,,,,,,,,"29.29","28","30","T","-SN:03 BR:1 |SN |",,,"92",,"OVC:08 6","29.26","1.75","29","000",,"0",,,,,,,,,,,,,,,,,,,,,,,,,,,,,,,,,,,,,"MET10902/03/20 21:20:02 SPECI PASO 040620Z 00000KT 1 3/4SM -SN BR OVC006 M01/M02 A2929 RMK AO2 P0000 T10111022 TSNO","FM-16","7",,,,,,,,,,,,,,,,,,,,,,,,,,,,"2005-10-30"
"70362125516","2020-02-03T21:43:00","FM-16","7",,,,,,,,,,,,,,,,,,,,,,,,,,,,,,,,,,,,,,"29.29","29","30","0.01","-SN:03 BR:1 |SN |",,,"96",,"OVC:08 7","29.26","2.00","30","000",,"0",,,,,,,,,,,,,,,,,,,,,,,,,,,,,,,,,,,,,"MET10502/03/20 21:43:02 SPECI PASO 040643Z 00000KT 2SM -SN BR OVC007 M01/M02 A2929 RMK AO2 P0001 T10111017 TSNO","FM-16","7",,,,,,,,,,,,,,,,,,,,,,,,,,,,"2005-10-30"
"70362125516","2020-02-03T21:50:00","FM-16","7",,,,,,,,,,,,,,,,,,,,,,,,,,,,,,,,,,,,,,"29.29","28","30","0.01","-SN:03 BR:1 |SN |",,,"93",,"OVC:08 7","29.26","1.75","29","000",,"0",,,,,,,,,,,,,,,,,,,,,,,,,,,,,,,,,,,,,"MET11102/03/20 21:50:02 SPECI PASO 040650Z 00000KT 1 3/4SM -SN BR OVC007 M01/M02 A2929 RMK AO2 CIG 005V009 P0001 TSNO","FM-16","7",,,,,,,,,,,,,,,,,,,,,,,,,,,,"2005-10-30"
"70362125516","2020-02-03T21:53:00","FM-15","7",,,,,,,,,,,,,,,,,,,,,,,,,,,,,,,,,,,,,,"29.30","28","30","0.01","-SN:03 BR:1 |SN |",,,"92","29.30","OVC:08 7","29.27","1.75","29","000",,"0",,,,,,,,,,,,,,,,,,,,,,,,,,,,,,,,,,,,,"MET12802/03/20 21:53:02 METAR PASO 040653Z 00000KT 1 3/4SM -SN BR OVC007 M01/M02 A2930 RMK AO2 CIG 005V008 SLP921 P0001 T10111022 TSNO","FM-15","7",,,,,,,,,,,,,,,,,,,,,,,,,,,,"2005-10-30"
"70362125516","2020-02-03T22:02:00","FM-16","7",,,,,,,,,,,,,,,,,,,,,,,,,,,,,,,,,,,,,,"29.30","28","30","T","BR:1 ||",,,"92",,"OVC:08 7","29.27","2.00","29","000",,"0",,,,,,,,,,,,,,,,,,,,,,,,,,,,,,,,,,,,,"MET11902/03/20 22:02:02 SPECI PASO 040702Z 00000KT 2SM BR OVC007 M01/M02 A2930 RMK AO2 SNE00 CIG 005V011 P0000 T10111022 TSNO","FM-16","7",,,,,,,,,,,,,,,,,,,,,,,,,,,,"2005-10-30"
"70362125516","2020-02-03T22:13:00","FM-16","7",,,,,,,,,,,,,,,,,,,,,,,,,,,,,,,,,,,,,,"29.30","28","30","T","BR:1 ||",,,"92",,"OVC:08 9","29.27","3.00","29","000",,"0",,,,,,,,,,,,,,,,,,,,,,,,,,,,,,,,,,,,,"MET12502/03/20 22:13:02 SPECI PASO 040713Z 00000KT 3SM BR OVC009 M01/M02 A2930 RMK AO2 SNE00 CIG 005V011 P0000 I1000 T10111022 TSNO","FM-16","7",,,,,,,,,,,,,,,,,,,,,,,,,,,,"2005-10-30"
"70362125516","2020-02-03T22:53:00","FM-15","7",,,,,,,,,,,,,,,,,,,,,,,,,,,,,,,,,,,,,,"29.32","28","30","0.01",,,,"92","29.31","BKN:07 9 OVC:08 13","29.29","7.00","29","000",,"0",,,,,,,,,,,,,,,,,,,,,,,,,,,,,,,,,,,,,"MET12402/03/20 22:53:02 METAR PASO 040753Z 00000KT 7SM BKN009 OVC013 M01/M02 A2932 RMK AO2 SNE00 SLP927 P0001 I1000 T10111022 TSNO","FM-15","7",,,,,,,,,,,,,,,,,,,,,,,,,,,,"2005-10-30"
"70362125516","2020-02-03T23:15:00","FM-16","7",,,,,,,,,,,,,,,,,,,,,,,,,,,,,,,,,,,,,,"29.33","29","30","T","-FZ:8 RA:02 BR:1 |FZRA |",,,"96",,"OVC:08 8","29.30","3.00","30","000",,"0",,,,,,,,,,,,,,,,,,,,,,,,,,,,,,,,,,,,,"MET12902/03/20 23:15:02 SPECI PASO 040815Z 00000KT 3SM -FZRA BR OVC008 M01/M02 A2933 RMK AO2 UPB08E09FZRAB09 P0000 I1000 T10111017 TSNO","FM-16","7",,,,,,,,,,,,,,,,,,,,,,,,,,,,"2005-10-30"
"70362125516","2020-02-03T23:37:00","FM-16","7",,,,,,,,,,,,,,,,,,,,,,,,,,,,,,,,,,,,,,"29.33","29","31","T","-FZ:8 RA:02 BR:1 |FZRA |",,,"92",,"OVC:08 9","29.30","2.50","30","000",,"0",,,,,,,,,,,,,,,,,,,,,,,,,,,,,,,,,,,,,"MET13302/03/20 23:37:02 SPECI PASO 040837Z 00000KT 2 1/2SM -FZRA BR OVC009 M01/M02 A2933 RMK AO2 UPB08E09FZRAB09 P0000 I1001 T10061017 TSNO","FM-16","7",,,,,,,,,,,,,,,,,,,,,,,,,,,,"2005-10-30"
"70362125516","2020-02-03T23:48:00","FM-16","7",,,,,,,,,,,,,,,,,,,,,,,,,,,,,,,,,,,,,,"29.33","28","30","T","-FZ:8 RA:02 BR:1 |FZRA |",,,"93",,"OVC:08 9","29.30","3.00","29","000",,"0",,,,,,,,,,,,,,,,,,,,,,,,,,,,,,,,,,,,,"MET11902/03/20 23:48:02 SPECI PASO 040848Z 00000KT 3SM -FZRA BR OVC009 M01/M02 A2933 RMK AO2 UPB08E09FZRAB09 P0000 I1001 TSNO","FM-16","7",,,,,,,,,,,,,,,,,,,,,,,,,,,,"2005-10-30"
"70362125516","2020-02-03T23:51:00","FM-16","6",,,,,,,,,,,,,,,,,,,,,,,,,,,,,,,,,,,,,,"29.33","28","30",,"BR:1 ||",,,"93",,"OVC:08 9","29.30","3.00","29","000",,"0",,,,,,,,,,,,,,,,,,,,,,,,,,,,,,,,,,,,,"MET12102/03/20 23:51:03 SPECI PASO 040851Z 00000KT 3SM BR OVC009 M01/M02 A2933 RMK AO2 UPB08E09FZRAB09E50 P0000 I1001 TSNO FIBI","FM-16","6",,,,,,,,,,,,,,,,,,,,,,,,,,,,"2005-10-30"
"70362125516","2020-02-03T23:53:00","FM-15","7",,,,,,,,,,,,,,,,,,,,,,,,,,,,,,,,,,,,,,"29.33","29","31","0.01","BR:1 ||","-0.04","1","92","29.33","OVC:08 9","29.30","4.00","30","000",,"0",,,,,,,,,,,,,,,,,,,,,,,,,,,,,,,,,,,,,"MET16102/03/20 23:53:02 METAR PASO 040853Z 00000KT 4SM BR OVC009 M01/M02 A2933 RMK AO2 UPB08E09FZRAB09E50 SLP932 P0000 60002 I1001 I3001 T10061017 400441061 51012 TSNO","FM-15","7",,,,,,,,,,,,,,,,,,,,,,,,,,,,"2005-10-30"
"70362125516","2020-02-03T23:59:00","SOD  ","6",,,,,,,,,,,,,,,,"31s",,,"29.38",,"2.4","0s","4.6s","34s","40s","21","020","28","0.09",,,"030","15","FZRA SN BR UP",,,,,,,,,,,,,,,,,,,,,,,,,,,,,,,,,,,,,,,,,,,,,,,,,,,,,,,,"SOD73024 HR PRECIPITATION (IN):0.09  24 HR MAX TEMP (F):40 24 HR MAX TEMP TIME (LST):1617 24 HR MIN TEMP (F):21 24 HR MIN TEMP TIME (LST):0724 AVERAGE STATION PRESSURE:29.380 MINIMUM SEA LEVEL PRESSURE:29.27 TIME OF OCCURRENCE:1835 PEAK WIND SPEED (MPH):28  PEAK WIND DIR (DEG):20  PEAK WIND TIME (LST):1504  FASTEST 2MIN SPEED (MPH):15 FASTEST 2MIN DIR (DEG):30  FASTEST 2MIN TIME (LST):1505 AVERAGE WIND SPEED (MPH):2.4  24 HR AVG TEMP (F):31 HEATING DEGREE DAYS:34  COOLING DEGREE DAYS:0   LATEST DAY MAX TEMP (0700-1900 LST):40  LATEST NIGHT MIN TEMP(1900-0800 LST):21 HOURLY INCREMENTAL PRECIPITATION VALUES (IN):.00 0.00 0.00 0.00 0.00 0.00 0.00 0.00 0.00 0.00 0.00 0.00 0.00 0.00 0.00 0.00 T    0.02 0.02 0.01 0.01 0.01 0.01 0.01","SOD  ","6",,,,,,,,,,,,,,,,,,,,,,,,,"0913","1730",,"2005-10-30"
"70362125516","2020-02-04T00:53:00","FM-15","7",,,,,,,,,,,,,,,,,,,,,,,,,,,,,,,,,,,,,,"29.36","29","31","0.00","BR:1 ||",,,"92","29.36","OVC:08 7","29.33","6.00","30","000",,"0",,,,,,,,,,,,,,,,,,,,,,,,,,,,,,,,,,,,,"MET11402/04/20 00:53:02 METAR PASO 040953Z 00000KT 6SM BR OVC007 M01/M02 A2936 RMK AO2 SLP941 P0001 I1001 T10061017 TSNO","FM-15","7",,,,,,,,,,,,,,,,,,,,,,,,,,,,"2005-10-30"
"70362125516","2020-02-04T01:50:00","FM-16","7",,,,,,,,,,,,,,,,,,,,,,,,,,,,,,,,,,,,,,"29.36","28","30","0.01",,,,"93",,"BKN:07 4 OVC:08 8","29.33","7.00","29","170",,"3",,,,,,,,,,,,,,,,,,,,,,,,,,,,,,,,,,,,,"MET13202/04/20 01:50:02 SPECI PASO 041050Z 17003KT 7SM BKN004 OVC008 M01/M02 A2936 RMK AO2 UPB09E14FZRAB14E18 CIG 003V007 P0001 I1000 TSNO","FM-16","7",,,,,,,,,,,,,,,,,,,,,,,,,,,,"2005-10-30"
"70362125516","2020-02-04T01:53:00","FM-15","7",,,,,,,,,,,,,,,,,,,,,,,,,,,,,,,,,,,,,,"29.36","28","30","0.01",,,,"92","29.36","OVC:08 4","29.33","7.00","29","180",,"3",,,,,,,,,,,,,,,,,,,,,,,,,,,,,,,,,,,,,"MET14202/04/20 01:53:02 METAR PASO 041053Z 18003KT 7SM OVC004 M01/M02 A2936 RMK AO2 UPB09E14FZRAB14E18 CIG 003V008 SLP943 P0001 I1000 T10111022 TSNO","FM-15","7",,,,,,,,,,,,,,,,,,,,,,,,,,,,"2005-10-30"
"70362125516","2020-02-04T02:08:00","FM-16","7",,,,,,,,,,,,,,,,,,,,,,,,,,,,,,,,,,,,,,"29.37","28","30",,,,,"92",,"OVC:08 5","29.34","10.00","29","190",,"3",,,,,,,,,,,,,,,,,,,,,,,,,,,,,,,,,,,,,"MET09302/04/20 02:08:02 SPECI PASO 041108Z 19003KT 10SM OVC005 M01/M02 A2937 RMK AO2 T10111022 TSNO","FM-16","7",,,,,,,,,,,,,,,,,,,,,,,,,,,,"2005-10-30"
"70362125516","2020-02-04T02:30:00","FM-16","7",,,,,,,,,,,,,,,,,,,,,,,,,,,,,,,,,,,,,,"29.37","29","31",,,,,"92",,"SCT:04 5 BKN:07 16 OVC:08 34","29.34","7.00","30","000",,"0",,,,,,,,,,,,,,,,,,,,,,,,,,,,,,,,,,,,,"MET10602/04/20 02:30:02 SPECI PASO 041130Z 00000KT 7SM SCT005 BKN016 OVC034 M01/M02 A2937 RMK AO2 T10061017 TSNO","FM-16","7",,,,,,,,,,,,,,,,,,,,,,,,,,,,"2005-10-30"
"70362125516","2020-02-04T02:39:00","FM-16","7",,,,,,,,,,,,,,,,,,,,,,,,,,,,,,,,,,,,,,"29.37","28","30",,,,,"92",,"BKN:07 5 OVC:08 34","29.34","8.00","29","000",,"0",,,,,,,,,,,,,,,,,,,,,,,,,,,,,,,,,,,,,"MET09902/04/20 02:39:02 SPECI PASO 041139Z 00000KT 8SM BKN005 OVC034 M01/M02 A2937 RMK AO2 T10111022 TSNO","FM-16","7",,,,,,,,,,,,,,,,,,,,,,,,,,,,"2005-10-30"
"70362125516","2020-02-04T02:53:00","FM-15","7",,,,,,,,,,,,,,,,,,,,,,,,,,,,,,,,,,,,,,"29.37","28","30","0.00",,"-0.01","2","92","29.37","OVC:08 5","29.34","7.00","29","000",,"0",,,,,,,,,,,,,,,,,,,,,,,,,,,,,,,,,,,,,"MET13502/04/20 02:53:02 METAR PASO 041153Z 00000KT 7SM OVC005 M01/M02 A2937 RMK AO2 SLP945 60004 70010 I6002 T10111022 11006 21011 52004 TSNO","FM-15","7",,,,,,,,,,,,,,,,,,,,,,,,,,,,"2005-10-30"
"70362125516","2020-02-04T03:29:00","FM-16","7",,,,,,,,,,,,,,,,,,,,,,,,,,,,,,,,,,,,,,"29.37","27","29",,,,,"92",,"SCT:04 6 BKN:07 24 OVC:08 29","29.34","10.00","28","000",,"0",,,,,,,,,,,,,,,,,,,,,,,,,,,,,,,,,,,,,"MET10702/04/20 03:29:02 SPECI PASO 041229Z 00000KT 10SM SCT006 BKN024 OVC029 M02/M03 A2937 RMK AO2 T10171028 TSNO","FM-16","7",,,,,,,,,,,,,,,,,,,,,,,,,,,,"2005-10-30"
"70362125516","2020-02-04T03:53:00","FM-15","7",,,,,,,,,,,,,,,,,,,,,,,,,,,,,,,,,,,,,,"29.37","28","30","0.00",,,,"92","29.37","FEW:02 14 BKN:07 28 OVC:08 34","29.34","10.00","29","000",,"0",,,,,,,,,,,,,,,,,,,,,,,,,,,,,,,,,,,,,"MET11402/04/20 03:53:02 METAR PASO 041253Z 00000KT 10SM FEW014 BKN028 OVC034 M01/M02 A2937 RMK AO2 SLP946 T10111022 TSNO","FM-15","7",,,,,,,,,,,,,,,,,,,,,,,,,,,,"2005-10-30"
"70362125516","2020-02-04T04:53:00","FM-15","7",,,,,,,,,,,,,,,,,,,,,,,,,,,,,,,,,,,,,,"29.37","27","29","0.00",,,,"92","29.37","OVC:08 19","29.34","10.00","28","000",,"0",,,,,,,,,,,,,,,,,,,,,,,,,,,,,,,,,,,,,"MET10002/04/20 04:53:02 METAR PASO 041353Z 00000KT 10SM OVC019 M02/M03 A2937 RMK AO2 SLP947 T10171028 TSNO","FM-15","7",,,,,,,,,,,,,,,,,,,,,,,,,,,,"2005-10-30"
"70362125516","2020-02-04T05:53:00","FM-15","7",,,,,,,,,,,,,,,,,,,,,,,,,,,,,,,,,,,,,,"29.37","26","28","0.00",,"-0.01","0","92","29.37","BKN:07 21 OVC:08 26","29.34","10.00","27","000",,"0",,,,,,,,,,,,,,,,,,,,,,,,,,,,,,,,,,,,,"MET11302/04/20 05:53:02 METAR PASO 041453Z 00000KT 10SM BKN021 OVC026 M02/M03 A2937 RMK AO2 SLP947 T10221033 50002 TSNO","FM-15","7",,,,,,,,,,,,,,,,,,,,,,,,,,,,"2005-10-30"
"70362125516","2020-02-04T06:46:00","FM-16","7",,,,,,,,,,,,,,,,,,,,,,,,,,,,,,,,,,,,,,"29.37","25","28",,,,,"88",,"BKN:07 13 OVC:08 19","29.34","10.00","27","000",,"0",,,,,,,,,,,,,,,,,,,,,,,,,,,,,,,,,,,,,"MET10002/04/20 06:46:02 SPECI PASO 041546Z 00000KT 10SM BKN013 OVC019 M02/M04 A2937 RMK AO2 T10221039 TSNO","FM-16","7",,,,,,,,,,,,,,,,,,,,,,,,,,,,"2005-10-30"
"70362125516","2020-02-04T06:53:00","FM-15","7",,,,,,,,,,,,,,,,,,,,,,,,,,,,,,,,,,,,,,"29.38","25","28","0.00",,,,"88","29.37","BKN:07 13 OVC:08 19","29.35","10.00","27","190",,"3",,,,,,,,,,,,,,,,,,,,,,,,,,,,,,,,,,,,,"MET10702/04/20 06:53:02 METAR PASO 041553Z 19003KT 10SM BKN013 OVC019 M02/M04 A2938 RMK AO2 SLP947 T10221039 TSNO","FM-15","7",,,,,,,,,,,,,,,,,,,,,,,,,,,,"2005-10-30"
"70362125516","2020-02-04T07:51:00","FM-16","6",,,,,,,,,,,,,,,,,,,,,,,,,,,,,,,,,,,,,,"29.36","25","27",,,,,"93",,"SCT:04 10","29.33","10.00","26","000",,"0",,,,,,,,,,,,,,,,,,,,,,,,,,,,,,,,,,,,,"MET08802/04/20 07:51:02 SPECI PASO 041651Z 00000KT 10SM SCT010 M03/M04 A2936 RMK AO2 TSNO FIBI","FM-16","6",,,,,,,,,,,,,,,,,,,,,,,,,,,,"2005-10-30"
"70362125516","2020-02-04T07:53:00","FM-15","7",,,,,,,,,,,,,,,,,,,,,,,,,,,,,,,,,,,,,,"29.36","24","27","0.00",,,,"89","29.36","SCT:04 10","29.33","10.00","26","000",,"0",,,,,,,,,,,,,,,,,,,,,,,,,,,,,,,,,,,,,"MET10002/04/20 07:53:02 METAR PASO 041653Z 00000KT 10SM SCT010 M03/M04 A2936 RMK AO2 SLP941 T10281044 TSNO","FM-15","7",,,,,,,,,,,,,,,,,,,,,,,,,,,,"2005-10-30"
"70362125516","2020-02-04T08:53:00","FM-15","7",,,,,,,,,,,,,,,,,,,,,,,,,,,,,,,,,,,,,,"29.36","23","25","0.00",,"+0.02","5","92","29.36","CLR:00","29.33","10.00","24","000",,"0",,,,,,,,,,,,,,,,,,,,,,,,,,,,,,,,,,,,,"MET12702/04/20 08:53:02 METAR PASO 041753Z 00000KT 10SM CLR M04/M05 A2936 RMK AO2 SLP942 I1000 I6000 T10391050 11011 21039 55006 TSNO","FM-15","7",,,,,,,,,,,,,,,,,,,,,,,,,,,,"2005-10-30"
"70362125516","2020-02-04T09:53:00","FM-15","7",,,,,,,,,,,,,,,,,,,,,,,,,,,,,,,,,,,,,,"29.36","23","25","0.00",,,,"92","29.36","FEW:02 33 SCT:04 120","29.33","10.00","24","000",,"0",,,,,,,,,,,,,,,,,,,,,,,,,,,,,,,,,,,,,"MET11302/04/20 09:53:02 METAR PASO 041853Z 00000KT 10SM FEW033 SCT120 M04/M05 A2936 RMK AO2 SLP941 I1000 T10391050 TSNO","FM-15","7",,,,,,,,,,,,,,,,,,,,,,,,,,,,"2005-10-30"
"70362125516","2020-02-04T10:53:00","FM-15","7",,,,,,,,,,,,,,,,,,,,,,,,,,,,,,,,,,,,,,"29.36","24","26","0.00",,,,"92","29.36","BKN:07 110","29.33","10.00","25","000",,"0",,,,,,,,,,,,,,,,,,,,,,,,,,,,,,,,,,,,,"MET10002/04/20 10:53:02 METAR PASO 041953Z 00000KT 10SM BKN110 M03/M04 A2936 RMK AO2 SLP942 T10331044 TSNO","FM-15","7",,,,,,,,,,,,,,,,,,,,,,,,,,,,"2005-10-30"
"70362125516","2020-02-04T11:53:00","FM-15","6",,,,,,,,,,,,,,,,,,,,,,,,,,,,,,,,,,,,,,"29.35","27","28","0.00",,"+0.01","8","96","29.35","OVC:08 100","29.32","10.00","28","000",,"0",,,,,,,,,,,,,,,,,,,,,,,,,,,,,,,,,,,,,"MET11202/04/20 11:53:02 METAR PASO 042053Z 00000KT 10SM OVC100 M02/M03 A2935 RMK AO2 SLP939 I3000 T10221028 58003 TSNO","FM-15","6",,,,,,,,,,,,,,,,,,,,,,,,,,,,"2005-10-30"
"70362125516","2020-02-04T12:53:00","FM-15","7",,,,,,,,,,,,,,,,,,,,,,,,,,,,,,,,,,,,,,"29.33","28","30","0.00",,,,"92","29.34","OVC:08 100","29.30","8.00","29","000",,"0",,,,,,,,,,,,,,,,,,,,,,,,,,,,,,,,,,,,,"MET09902/04/20 12:53:02 METAR PASO 042153Z 00000KT 8SM OVC100 M01/M02 A2933 RMK AO2 SLP934 T10111022 TSNO","FM-15","7",,,,,,,,,,,,,,,,,,,,,,,,,,,,"2005-10-30"
"70362125516","2020-02-04T13:53:00","FM-15","7",,,,,,,,,,,,,,,,,,,,,,,,,,,,,,,,,,,,,,"29.33","28","30","0.00",,,,"92","29.33","BKN:07 75 OVC:08 90","29.30","9.00","29","000",,"0",,,,,,,,,,,,,,,,,,,,,,,,,,,,,,,,,,,,,"MET10602/04/20 13:53:02 METAR PASO 042253Z 00000KT 9SM BKN075 OVC090 M01/M02 A2933 RMK AO2 SLP933 T10111022 TSNO","FM-15","7",,,,,,,,,,,,,,,,,,,,,,,,,,,,"2005-10-30"
"70362125516","2020-02-04T14:53:00","FM-15","7",,,,,,,,,,,,,,,,,,,,,,,,,,,,,,,,,,,,,,"29.32","29","31","0.00",,"+0.03","7","92","29.32","SCT:04 50 OVC:08 70","29.29","8.00","30","000",,"0",,,,,,,,,,,,,,,,,,,,,,,,,,,,,,,,,,,,,"MET13002/04/20 14:53:02 METAR PASO 042353Z 00000KT 8SM SCT050 OVC070 M01/M02 A2932 RMK AO2 SLP928 I6000 T10061017 10000 21039 57011 TSNO","FM-15","7",,,,,,,,,,,,,,,,,,,,,,,,,,,,"2005-10-30"
"70362125516","2020-02-04T15:53:00","FM-15","7",,,,,,,,,,,,,,,,,,,,,,,,,,,,,,,,,,,,,,"29.30","30","32","T","BR:1 ||",,,"92","29.30","OVC:08 41","29.27","5.00","31","000",,"0",,,,,,,,,,,,,,,,,,,,,,,,,,,,,,,,,,,,,"MET11602/04/20 15:53:01 METAR PASO 050053Z 00000KT 5SM BR OVC041 00/M01 A2930 RMK AO2 UPB23E39 SLP921 P0000 T00001011 TSNO","FM-15","7",,,,,,,,,,,,,,,,,,,,,,,,,,,,"2005-10-30"
"70362125516","2020-02-04T16:23:00","FM-16","7",,,,,,,,,,,,,,,,,,,,,,,,,,,,,,,,,,,,,,"29.29","30","32","0.01","-SN:03 BR:1 |SN |",,,"92",,"OVC:08 37","29.26","2.50","31","000",,"0",,,,,,,,,,,,,,,,,,,,,,,,,,,,,,,,,,,,,"MET11602/04/20 16:23:01 SPECI PASO 050123Z 00000KT 2 1/2SM -SN BR OVC037 00/M01 A2929 RMK AO2 SNB0056 P0001 T00001011 TSNO","FM-16","7",,,,,,,,,,,,,,,,,,,,,,,,,,,,"2005-10-30"
"70362125516","2020-02-04T16:45:00","FM-16","7",,,,,,,,,,,,,,,,,,,,,,,,,,,,,,,,,,,,,,"29.28","30","31","0.01","-SN:03 BR:1 |SN |",,,"96",,"FEW:02 6 BKN:07 38","29.25","3.00","31","000",,"0",,,,,,,,,,,,,,,,,,,,,,,,,,,,,,,,,,,,,"MET12002/04/20 16:45:01 SPECI PASO 050145Z 00000KT 3SM -SN BR FEW006 BKN038 M01/M01 A2928 RMK AO2 SNB0056 P0001 T10061011 TSNO","FM-16","7",,,,,,,,,,,,,,,,,,,,,,,,,,,,"2005-10-30"
"70362125516","2020-02-04T16:53:00","FM-15","7",,,,,,,,,,,,,,,,,,,,,,,,,,,,,,,,,,,,,,"29.28","30","32","0.01","-SN:03 BR:1 |SN |",,,"92","29.28","FEW:02 7 BKN:07 44 OVC:08 65","29.25","4.00","31","000",,"0",,,,,,,,,,,,,,,,,,,,,,,,,,,,,,,,,,,,,"MET13302/04/20 16:53:01 METAR PASO 050153Z 00000KT 4SM -SN BR FEW007 BKN044 OVC065 00/M01 A2928 RMK AO2 SNB0056 SLP916 P0001 T00001011 TSNO","FM-15","7",,,,,,,,,,,,,,,,,,,,,,,,,,,,"2005-10-30"
"70362125516","2020-02-04T17:40:00","FM-16","7",,,,,,,,,,,,,,,,,,,,,,,,,,,,,,,,,,,,,,"29.28","30","31","0.01","-SN:03 BR:1 |SN |",,,"96",,"FEW:02 5 SCT:04 10 OVC:08 33","29.25","2.50","31","000",,"0",,,,,,,,,,,,,,,,,,,,,,,,,,,,,,,,,,,,,"MET12302/04/20 17:40:01 SPECI PASO 050240Z 00000KT 2 1/2SM -SN BR FEW005 SCT010 OVC033 M01/M01 A2928 RMK AO2 P0001 T10061011 TSNO","FM-16","7",,,,,,,,,,,,,,,,,,,,,,,,,,,,"2005-10-30"
"70362125516","2020-02-04T17:47:00","FM-16","7",,,,,,,,,,,,,,,,,,,,,,,,,,,,,,,,,,,,,,"29.28","30","30","0.01","-SN:03 BR:1 |SN |",,,"100",,"FEW:02 5 SCT:04 10 OVC:08 29","29.25","1.75","30","000",,"0",,,,,,,,,,,,,,,,,,,,,,,,,,,,,,,,,,,,,"MET11302/04/20 17:47:01 SPECI PASO 050247Z 00000KT 1 3/4SM -SN BR FEW005 SCT010 OVC029 M01/M01 A2928 RMK AO2 P0001 TSNO","FM-16","7",,,,,,,,,,,,,,,,,,,,,,,,,,,,"2005-10-30"
"70362125516","2020-02-04T17:53:00","FM-15","7",,,,,,,,,,,,,,,,,,,,,,,,,,,,,,,,,,,,,,"29.28","30","31","0.01","-SN:03 BR:1 |SN |","+0.04","5","96","29.28","SCT:04 5 OVC:08 26","29.25","1.75","31","210",,"3",,,,,,,,,,,,,,,,,,,,,,,,,,,,,,,,,,,,,"MET13502/04/20 17:53:01 METAR PASO 050253Z 21003KT 1 3/4SM -SN BR SCT005 OVC026 M01/M01 A2928 RMK AO2 SLP916 P0001 60002 T10061011 55012 TSNO","FM-15","7",,,,,,,,,,,,,,,,,,,,,,,,,,,,"2005-10-30"
"70362125516","2020-02-04T18:16:00","FM-16","7",,,,,,,,,,,,,,,,,,,,,,,,,,,,,,,,,,,,,,"29.28","30","32","T","-SN:03 BR:1 |SN |",,,"92",,"SCT:04 8 OVC:08 14","29.25","1.00","31","000",,"0",,,,,,,,,,,,,,,,,,,,,,,,,,,,,,,,,,,,,"MET11102/04/20 18:16:01 SPECI PASO 050316Z 00000KT 1SM -SN BR SCT008 OVC014 00/M01 A2928 RMK AO2 P0000 T00001011 TSNO","FM-16","7",,,,,,,,,,,,,,,,,,,,,,,,,,,,"2005-10-30"
"70362125516","2020-02-04T18:34:00","FM-16","7",,,,,,,,,,,,,,,,,,,,,,,,,,,,,,,,,,,,,,"29.28","30","31","0.01","-SN:03 BR:1 |SN |",,,"96",,"BKN:07 3 BKN:07 9 OVC:08 13","29.25","1.75","31","000",,"0",,,,,,,,,,,,,,,,,,,,,,,,,,,,,,,,,,,,,"MET12302/04/20 18:34:01 SPECI PASO 050334Z 00000KT 1 3/4SM -SN BR BKN003 BKN009 OVC013 M01/M01 A2928 RMK AO2 P0001 T10061011 TSNO","FM-16","7",,,,,,,,,,,,,,,,,,,,,,,,,,,,"2005-10-30"
"70362125516","2020-02-04T18:44:00","FM-16","7",,,,,,,,,,,,,,,,,,,,,,,,,,,,,,,,,,,,,,"29.28","30","31","0.01","-SN:03 BR:1 |SN |",,,"96",,"BKN:07 4 OVC:08 9","29.25","2.00","31","000",,"0",,,,,,,,,,,,,,,,,,,,,,,,,,,,,,,,,,,,,"MET11202/04/20 18:44:01 SPECI PASO 050344Z 00000KT 2SM -SN BR BKN004 OVC009 M01/M01 A2928 RMK AO2 P0001 T10061011 TSNO","FM-16","7",,,,,,,,,,,,,,,,,,,,,,,,,,,,"2005-10-30"
"70362125516","2020-02-04T18:51:00","FM-16","6",,,,,,,,,,,,,,,,,,,,,,,,,,,,,,,,,,,,,,"29.28","30","30",,"-SN:03 BR:1 |SN |",,,"100",,"BKN:07 3 BKN:07 8 OVC:08 22","29.25","3.00","30","000",,"0",,,,,,,,,,,,,,,,,,,,,,,,,,,,,,,,,,,,,"MET11402/04/20 18:51:03 SPECI PASO 050351Z 00000KT 3SM -SN BR BKN003 BKN008 OVC022 M01/M01 A2928 RMK AO2 P0001 TSNO FIBI","FM-16","6",,,,,,,,,,,,,,,,,,,,,,,,,,,,"2005-10-30"
"70362125516","2020-02-04T18:53:00","FM-15","7",,,,,,,,,,,,,,,,,,,,,,,,,,,,,,,,,,,,,,"29.28","30","31","0.01","-SN:03 BR:1 |SN |",,,"96","29.28","BKN:07 3 BKN:07 13 OVC:08 22","29.25","4.00","31","000",,"0",,,,,,,,,,,,,,,,,,,,,,,,,,,,,,,,,,,,,"MET12602/04/20 18:53:01 METAR PASO 050353Z 00000KT 4SM -SN BR BKN003 BKN013 OVC022 M01/M01 A2928 RMK AO2 SLP915 P0001 T10061011 TSNO","FM-15","7",,,,,,,,,,,,,,,,,,,,,,,,,,,,"2005-10-30"
"70362125516","2020-02-04T19:04:00","FM-16","7",,,,,,,,,,,,,,,,,,,,,,,,,,,,,,,,,,,,,,"29.28","30","31","T","-SN:03 BR:1 |SN |",,,"96",,"SCT:04 3 BKN:07 13 OVC:08 21","29.25","4.00","31","000",,"0",,,,,,,,,,,,,,,,,,,,,,,,,,,,,,,,,,,,,"MET11902/04/20 19:04:01 SPECI PASO 050404Z 00000KT 4SM -SN BR SCT003 BKN013 OVC021 M01/M01 A2928 RMK AO2 P0000 T10061011 TSNO","FM-16","7",,,,,,,,,,,,,,,,,,,,,,,,,,,,"2005-10-30"
"70362125516","2020-02-04T19:21:00","FM-16","7",,,,,,,,,,,,,,,,,,,,,,,,,,,,,,,,,,,,,,"29.28","30","32","T","-SN:03 BR:1 |SN |",,,"92",,"BKN:07 3 OVC:08 13","29.25","5.00","31","000",,"0",,,,,,,,,,,,,,,,,,,,,,,,,,,,,,,,,,,,,"MET11102/04/20 19:21:01 SPECI PASO 050421Z 00000KT 5SM -SN BR BKN003 OVC013 00/M01 A2928 RMK AO2 P0000 T00001011 TSNO","FM-16","7",,,,,,,,,,,,,,,,,,,,,,,,,,,,"2005-10-30"
"70362125516","2020-02-04T19:53:00","FM-15","7",,,,,,,,,,,,,,,,,,,,,,,,,,,,,,,,,,,,,,"29.28","30","31","0.01","-SN:03 BR:1 |SN |",,,"96","29.28","BKN:07 5 OVC:08 10","29.25","5.00","31","000",,"0",,,,,,,,,,,,,,,,,,,,,,,,,,,,,,,,,,,,,"MET11902/04/20 19:53:02 METAR PASO 050453Z 00000KT 5SM -SN BR BKN005 OVC010 M01/M01 A2928 RMK AO2 SLP914 P0001 T10061011 TSNO","FM-15","7",,,,,,,,,,,,,,,,,,,,,,,,,,,,"2005-10-30"
"70362125516","2020-02-04T20:13:00","FM-16","7",,,,,,,,,,,,,,,,,,,,,,,,,,,,,,,,,,,,,,"29.28","30","31","0.01",,,,"96",,"BKN:07 4 OVC:08 10","29.25","8.00","31","000",,"0",,,,,,,,,,,,,,,,,,,,,,,,,,,,,,,,,,,,,"MET11302/04/20 20:13:02 SPECI PASO 050513Z 00000KT 8SM BKN004 OVC010 M01/M01 A2928 RMK AO2 SNE0457 P0001 T10061011 TSNO","FM-16","7",,,,,,,,,,,,,,,,,,,,,,,,,,,,"2005-10-30"
"70362125516","2020-02-04T20:42:00","FM-16","7",,,,,,,,,,,,,,,,,,,,,,,,,,,,,,,,,,,,,,"29.28","30","32","0.01",,,,"92",,"BKN:07 5 OVC:08 17","29.25","7.00","31","000",,"0",,,,,,,,,,,,,,,,,,,,,,,,,,,,,,,,,,,,,"MET12402/04/20 20:42:02 SPECI PASO 050542Z 00000KT 7SM BKN005 OVC017 00/M01 A2928 RMK AO2 SNE0457 CIG 003V008 P0001 T00001011 TSNO","FM-16","7",,,,,,,,,,,,,,,,,,,,,,,,,,,,"2005-10-30"
"70362125516","2020-02-04T20:51:00","FM-16","6",,,,,,,,,,,,,,,,,,,,,,,,,,,,,,,,,,,,,,"29.28","30","30",,,,,"100",,"BKN:07 4 BKN:07 12 OVC:08 17","29.25","7.00","30","000",,"0",,,,,,,,,,,,,,,,,,,,,,,,,,,,,,,,,,,,,"MET12702/04/20 20:51:03 SPECI PASO 050551Z 00000KT 7SM BKN004 BKN012 OVC017 M01/M01 A2928 RMK AO2 SNE0457 CIG 003V008 P0001 TSNO FIBI","FM-16","6",,,,,,,,,,,,,,,,,,,,,,,,,,,,"2005-10-30"
"70362125516","2020-02-04T20:53:00","FM-15","7",,,,,,,,,,,,,,,,,,,,,,,,,,,,,,,,,,,,,,"29.28","30","31","0.02",,"+0.00","5","96","29.28","BKN:07 4 OVC:08 12","29.25","7.00","31","000",,"0",,,,,,,,,,,,,,,,,,,,,,,,,,,,,,,,,,,,,"MET15602/04/20 20:53:02 METAR PASO 050553Z 00000KT 7SM BKN004 OVC012 M01/M01 A2928 RMK AO2 SNE0457 CIG 004V008 SLP916 P0002 60006 T10061011 10000 21006 55000 TSNO","FM-15","7",,,,,,,,,,,,,,,,,,,,,,,,,,,,"2005-10-30"
"70362125516","2020-02-04T21:03:00","FM-16","7",,,,,,,,,,,,,,,,,,,,,,,,,,,,,,,,,,,,,,"29.28","30","32","T","-SN:03 BR:1 |SN |",,,"92",,"SCT:04 6 OVC:08 12","29.25","5.00","31","000",,"0",,,,,,,,,,,,,,,,,,,,,,,,,,,,,,,,,,,,,"MET11702/04/20 21:03:02 SPECI PASO 050603Z 00000KT 5SM -SN BR SCT006 OVC012 00/M01 A2928 RMK AO2 SNB01 P0000 T00001011 TSNO","FM-16","7",,,,,,,,,,,,,,,,,,,,,,,,,,,,"2005-10-30"
"70362125516","2020-02-04T21:27:00","FM-16","7",,,,,,,,,,,,,,,,,,,,,,,,,,,,,,,,,,,,,,"29.28","30","31","T",,,,"96",,"BKN:07 7 OVC:08 13","29.25","7.00","31","000",,"0",,,,,,,,,,,,,,,,,,,,,,,,,,,,,,,,,,,,,"MET11402/04/20 21:27:02 SPECI PASO 050627Z 00000KT 7SM BKN007 OVC013 M01/M01 A2928 RMK AO2 SNB01E16 P0000 T10061011 TSNO","FM-16","7",,,,,,,,,,,,,,,,,,,,,,,,,,,,"2005-10-30"
"70362125516","2020-02-04T21:53:00","FM-15","7",,,,,,,,,,,,,,,,,,,,,,,,,,,,,,,,,,,,,,"29.28","30","32","0.01","-SN:03 BR:1 |SN |",,,"92","29.28","BKN:07 7 BKN:07 15 OVC:08 20","29.25","5.00","31","000",,"0",,,,,,,,,,,,,,,,,,,,,,,,,,,,,,,,,,,,,"MET13702/04/20 21:53:02 METAR PASO 050653Z 00000KT 5SM -SN BR BKN007 BKN015 OVC020 00/M01 A2928 RMK AO2 SNB01E16B38 SLP915 P0001 T00001011 TSNO","FM-15","7",,,,,,,,,,,,,,,,,,,,,,,,,,,,"2005-10-30"
"70362125516","2020-02-04T22:00:00","FM-16","7",,,,,,,,,,,,,,,,,,,,,,,,,,,,,,,,,,,,,,"29.28","30","31","T","-SN:03 BR:1 |SN |",,,"96",,"FEW:02 7 BKN:07 18 OVC:08 46","29.25","5.00","31","000",,"0",,,,,,,,,,,,,,,,,,,,,,,,,,,,,,,,,,,,,"MET11902/04/20 22:00:02 SPECI PASO 050700Z 00000KT 5SM -SN BR FEW007 BKN018 OVC046 M01/M01 A2928 RMK AO2 P0000 T10061011 TSNO","FM-16","7",,,,,,,,,,,,,,,,,,,,,,,,,,,,"2005-10-30"
"70362125516","2020-02-04T22:30:00","FM-16","7",,,,,,,,,,,,,,,,,,,,,,,,,,,,,,,,,,,,,,"29.29","30","31","0.01","BR:1 ||",,,"96",,"BKN:07 5 OVC:08 19","29.26","6.00","31","000",,"0",,,,,,,,,,,,,,,,,,,,,,,,,,,,,,,,,,,,,"MET11402/04/20 22:30:02 SPECI PASO 050730Z 00000KT 6SM BR BKN005 OVC019 M01/M01 A2929 RMK AO2 SNE01 P0001 T10061011 TSNO","FM-16","7",,,,,,,,,,,,,,,,,,,,,,,,,,,,"2005-10-30"
"70362125516","2020-02-04T22:53:00","FM-15","7",,,,,,,,,,,,,,,,,,,,,,,,,,,,,,,,,,,,,,"29.29","30","31","0.01","-SN:03 BR:1 |SN |",,,"96","29.29","OVC:08 5","29.26","4.00","31","000",,"0",,,,,,,,,,,,,,,,,,,,,,,,,,,,,,,,,,,,,"MET12102/04/20 22:53:02 METAR PASO 050753Z 00000KT 4SM -SN BR OVC005 M01/M01 A2929 RMK AO2 SNE01B32 SLP919 P0001 T10061011 TSNO","FM-15","7",,,,,,,,,,,,,,,,,,,,,,,,,,,,"2005-10-30"
"70362125516","2020-02-04T23:38:00","FM-16","6",,,,,,,,,,,,,,,,,,,,,,,,,,,,,,,,,,,,,,"29.30","30","32",,"-SN:03 BR:1 |SN |",,,"92",,"OVC:08 4","29.27","3.00","31","VRB",,"3",,,,,,,,,,,,,,,,,,,,,,,,,,,,,,,,,,,,,"MET10402/04/20 23:38:03 SPECI PASO 050838Z VRB03KT 3SM -SN BR OVC004 00/M01 A2930 RMK AO2 P0001 T00001011 TSNO","FM-16","6",,,,,,,,,,,,,,,,,,,,,,,,,,,,"2005-10-30"
"70362125516","2020-02-04T23:50:00","FM-16","7",,,,,,,,,,,,,,,,,,,,,,,,,,,,,,,,,,,,,,"29.30","30","32","0.01","-SN:03 BR:1 |SN |",,,"93",,"OVC:08 5","29.27","3.00","31","350",,"3",,,,,,,,,,,,,,,,,,,,,,,,,,,,,,,,,,,,,"MET09402/04/20 23:50:02 SPECI PASO 050850Z 35003KT 3SM -SN BR OVC005 00/M01 A2930 RMK AO2 P0001 TSNO","FM-16","7",,,,,,,,,,,,,,,,,,,,,,,,,,,,"2005-10-30"
"70362125516","2020-02-04T23:53:00","FM-15","7",,,,,,,,,,,,,,,,,,,,,,,,,,,,,,,,,,,,,,"29.30","30","32","0.02","-SN:03 BR:1 |SN |","-0.02","1","92","29.30","OVC:08 5","29.27","2.50","31","010",,"3",,,,,,,,,,,,,,,,,,,,,,,,,,,,,,,,,,,,,"MET13702/04/20 23:53:02 METAR PASO 050853Z 01003KT 2 1/2SM -SN BR OVC005 00/M01 A2930 RMK AO2 SLP923 P0002 60004 T00001011 400001039 51008 TSNO","FM-15","7",,,,,,,,,,,,,,,,,,,,,,,,,,,,"2005-10-30"
"70362125516","2020-02-04T23:59:00","SOD  ","6",,,,,,,,,,,,,,,,"29",,,"29.29",,"0.6","0","2.6","36","32","25","330","7","0.11",,,"340","5","SN BR",,,,,,,,,,,,,,,,,,,,,,,,,,,,,,,,,,,,,,,,,,,,,,,,,,,,,,,,"SOD73024 HR PRECIPITATION (IN):0.11  24 HR MAX TEMP (F):32 24 HR MAX TEMP TIME (LST):2359 24 HR MIN TEMP (F):25 24 HR MIN TEMP TIME (LST):1029 AVERAGE STATION PRESSURE:29.295 MINIMUM SEA LEVEL PRESSURE:29.27 TIME OF OCCURRENCE:2004 PEAK WIND SPEED (MPH):7   PEAK WIND DIR (DEG):330 PEAK WIND TIME (LST):2325  FASTEST 2MIN SPEED (MPH):5  FASTEST 2MIN DIR (DEG):340 FASTEST 2MIN TIME (LST):2326 AVERAGE WIND SPEED (MPH):0.6  24 HR AVG TEMP (F):29 HEATING DEGREE DAYS:36  COOLING DEGREE DAYS:0   LATEST DAY MAX TEMP (0700-1900 LST):32  LATEST NIGHT MIN TEMP(1900-0800 LST):26 HOURLY INCREMENTAL PRECIPITATION VALUES (IN):.00 0.01 0.00 0.00 0.00 0.00 0.00 0.00 0.00 0.00 0.00 0.00 0.00 0.00 0.00 T    0.01 0.01 0.01 0.01 0.02 0.01 0.01 0.02","SOD  ","6",,,,,,,,,,,,,,,,,,,,,,,,,"0911","1732",,"2005-10-30"
"70362125516","2020-02-05T00:15:00","FM-16","7",,,,,,,,,,,,,,,,,,,,,,,,,,,,,,,,,,,,,,"29.31","31","32","T","-SN:03 BR:1 |SN |",,,"96",,"OVC:08 5","29.28","3.00","32","000",,"0",,,,,,,,,,,,,,,,,,,,,,,,,,,,,,,,,,,,,"MET10402/05/20 00:15:02 SPECI PASO 050915Z 00000KT 3SM -SN BR OVC005 00/M01 A2931 RMK AO2 P0000 T00001006 TSNO","FM-16","7",,,,,,,,,,,,,,,,,,,,,,,,,,,,"2005-10-30"
"70362125516","2020-02-05T00:26:00","FM-16","7",,,,,,,,,,,,,,,,,,,,,,,,,,,,,,,,,,,,,,"29.31","29","32","T","-SN:03 BR:1 |SN |",,,"88",,"OVC:08 5","29.28","2.50","31","000",,"0",,,,,,,,,,,,,,,,,,,,,,,,,,,,,,,,,,,,,"MET10802/05/20 00:26:02 SPECI PASO 050926Z 00000KT 2 1/2SM -SN BR OVC005 00/M02 A2931 RMK AO2 P0000 T00001017 TSNO","FM-16","7",,,,,,,,,,,,,,,,,,,,,,,,,,,,"2005-10-30"
"70362125516","2020-02-05T00:42:00","FM-16","7",,,,,,,,,,,,,,,,,,,,,,,,,,,,,,,,,,,,,,"29.31","30","32","0.01","-SN:03 BR:1 |SN |",,,"92",,"OVC:08 7","29.28","3.00","31","000",,"0",,,,,,,,,,,,,,,,,,,,,,,,,,,,,,,,,,,,,"MET10402/05/20 00:42:02 SPECI PASO 050942Z 00000KT 3SM -SN BR OVC007 00/M01 A2931 RMK AO2 P0001 T00001011 TSNO","FM-16","7",,,,,,,,,,,,,,,,,,,,,,,,,,,,"2005-10-30"
"70362125516","2020-02-05T00:53:00","FM-15","7",,,,,,,,,,,,,,,,,,,,,,,,,,,,,,,,,,,,,,"29.31","30","31","0.01","-SN:03 BR:1 |SN |",,,"96","29.31","OVC:08 8","29.28","3.00","31","000",,"0",,,,,,,,,,,,,,,,,,,,,,,,,,,,,,,,,,,,,"MET11202/05/20 00:53:02 METAR PASO 050953Z 00000KT 3SM -SN BR OVC008 M01/M01 A2931 RMK AO2 SLP924 P0001 T10061011 TSNO","FM-15","7",,,,,,,,,,,,,,,,,,,,,,,,,,,,"2005-10-30"
"70362125516","2020-02-05T01:01:00","FM-16","7",,,,,,,,,,,,,,,,,,,,,,,,,,,,,,,,,,,,,,"29.31","29","31","T","-SN:03 BR:1 |SN |",,,"92",,"BKN:07 8 OVC:08 32","29.28","2.50","30","000",,"0",,,,,,,,,,,,,,,,,,,,,,,,,,,,,,,,,,,,,"MET11602/05/20 01:01:02 SPECI PASO 051001Z 00000KT 2 1/2SM -SN BR BKN008 OVC032 M01/M02 A2931 RMK AO2 P0000 T10061017 TSNO","FM-16","7",,,,,,,,,,,,,,,,,,,,,,,,,,,,"2005-10-30"
"70362125516","2020-02-05T01:08:00","FM-16","7",,,,,,,,,,,,,,,,,,,,,,,,,,,,,,,,,,,,,,"29.31","29","31","T","-SN:03 BR:1 |SN |",,,"92",,"SCT:04 9 BKN:07 40 OVC:08 60","29.28","3.00","30","000",,"0",,,,,,,,,,,,,,,,,,,,,,,,,,,,,,,,,,,,,"MET11902/05/20 01:08:02 SPECI PASO 051008Z 00000KT 3SM -SN BR SCT009 BKN040 OVC060 M01/M02 A2931 RMK AO2 P0000 T10061017 TSNO","FM-16","7",,,,,,,,,,,,,,,,,,,,,,,,,,,,"2005-10-30"
"70362125516","2020-02-05T01:51:00","FM-16","6",,,,,,,,,,,,,,,,,,,,,,,,,,,,,,,,,,,,,,"29.31","28","30",,,,,"93",,"BKN:07 5 OVC:08 60","29.28","10.00","29","000",,"0",,,,,,,,,,,,,,,,,,,,,,,,,,,,,,,,,,,,,"MET10702/05/20 01:51:02 SPECI PASO 051051Z 00000KT 10SM BKN005 OVC060 M01/M02 A2931 RMK AO2 SNE24 P0001 TSNO FIBI","FM-16","6",,,,,,,,,,,,,,,,,,,,,,,,,,,,"2005-10-30"
"70362125516","2020-02-05T01:53:00","FM-15","7",,,,,,,,,,,,,,,,,,,,,,,,,,,,,,,,,,,,,,"29.31","29","31","0.01",,,,"92","29.31","BKN:07 5 OVC:08 60","29.28","10.00","30","000",,"0",,,,,,,,,,,,,,,,,,,,,,,,,,,,,,,,,,,,,"MET11902/05/20 01:53:02 METAR PASO 051053Z 00000KT 10SM BKN005 OVC060 M01/M02 A2931 RMK AO2 SNE24 SLP925 P0001 T10061017 TSNO","FM-15","7",,,,,,,,,,,,,,,,,,,,,,,,,,,,"2005-10-30"
"70362125516","2020-02-05T02:53:00","FM-15","7",,,,,,,,,,,,,,,,,,,,,,,,,,,,,,,,,,,,,,"29.31","29","31","0.01",,"-0.01","1","92","29.31","OVC:08 6","29.28","9.00","30","000",,"0",,,,,,,,,,,,,,,,,,,,,,,,,,,,,,,,,,,,,"MET14402/05/20 02:53:02 METAR PASO 051153Z 00000KT 9SM OVC006 M01/M02 A2931 RMK AO2 SNB37E47 SLP926 P0001 60007 70013 T10061017 10000 21011 51004 TSNO","FM-15","7",,,,,,,,,,,,,,,,,,,,,,,,,,,,"2005-10-30"
"70362125516","2020-02-05T03:28:00","FM-16","7",,,,,,,,,,,,,,,,,,,,,,,,,,,,,,,,,,,,,,"29.31","29","31","T","-SN:03 |SN |",,,"92",,"SCT:04 6 BKN:07 47 OVC:08 60","29.28","8.00","30","000",,"0",,,,,,,,,,,,,,,,,,,,,,,,,,,,,,,,,,,,,"MET12202/05/20 03:28:02 SPECI PASO 051228Z 00000KT 8SM -SN SCT006 BKN047 OVC060 M01/M02 A2931 RMK AO2 SNB19 P0000 T10061017 TSNO","FM-16","7",,,,,,,,,,,,,,,,,,,,,,,,,,,,"2005-10-30"
"70362125516","2020-02-05T03:53:00","FM-15","7",,,,,,,,,,,,,,,,,,,,,,,,,,,,,,,,,,,,,,"29.31","28","30","0.01",,,,"92","29.31","OVC:08 60","29.28","10.00","29","000",,"0",,,,,,,,,,,,,,,,,,,,,,,,,,,,,,,,,,,,,"MET11502/05/20 03:53:02 METAR PASO 051253Z 00000KT 10SM OVC060 M01/M02 A2931 RMK AO2 SNB19E33 SLP926 P0001 T10111022 TSNO","FM-15","7",,,,,,,,,,,,,,,,,,,,,,,,,,,,"2005-10-30"
"70362125516","2020-02-05T04:53:00","FM-15","7",,,,,,,,,,,,,,,,,,,,,,,,,,,,,,,,,,,,,,"29.31","28","30","0.01",,,,"92","29.31","FEW:02 41 BKN:07 60 OVC:08 70","29.28","10.00","29","000",,"0",,,,,,,,,,,,,,,,,,,,,,,,,,,,,,,,,,,,,"MET12902/05/20 04:53:02 METAR PASO 051353Z 00000KT 10SM FEW041 BKN060 OVC070 M01/M02 A2931 RMK AO2 SNB13E41 SLP925 P0000 T10111022 TSNO","FM-15","7",,,,,,,,,,,,,,,,,,,,,,,,,,,,"2005-10-30"
"70362125516","2020-02-05T05:53:00","FM-15","7",,,,,,,,,,,,,,,,,,,,,,,,,,,,,,,,,,,,,,"29.31","28","30","0.00",,"+0.00","5","92","29.31","BKN:07 39 BKN:07 48 OVC:08 110","29.28","10.00","29","000",,"0",,,,,,,,,,,,,,,,,,,,,,,,,,,,,,,,,,,,,"MET13202/05/20 05:53:02 METAR PASO 051453Z 00000KT 10SM BKN039 BKN048 OVC110 M01/M02 A2931 RMK AO2 SLP925 P0001 60002 T10111022 55001 TSNO","FM-15","7",,,,,,,,,,,,,,,,,,,,,,,,,,,,"2005-10-30"
"70362125516","2020-02-05T06:53:00","FM-15","7",,,,,,,,,,,,,,,,,,,,,,,,,,,,,,,,,,,,,,"29.31","28","30","0.00",,,,"92","29.31","BKN:07 32 OVC:08 100","29.28","10.00","29","000",,"0",,,,,,,,,,,,,,,,,,,,,,,,,,,,,,,,,,,,,"MET10702/05/20 06:53:02 METAR PASO 051553Z 00000KT 10SM BKN032 OVC100 M01/M02 A2931 RMK AO2 SLP926 T10111022 TSNO","FM-15","7",,,,,,,,,,,,,,,,,,,,,,,,,,,,"2005-10-30"
"70362125516","2020-02-05T07:34:00","FM-16","7",,,,,,,,,,,,,,,,,,,,,,,,,,,,,,,,,,,,,,"29.32","28","30",,,,,"92",,"BKN:07 28 OVC:08 65","29.29","10.00","29","000",,"0",,,,,,,,,,,,,,,,,,,,,,,,,,,,,,,,,,,,,"MET10002/05/20 07:34:02 SPECI PASO 051634Z 00000KT 10SM BKN028 OVC065 M01/M02 A2932 RMK AO2 T10111022 TSNO","FM-16","7",,,,,,,,,,,,,,,,,,,,,,,,,,,,"2005-10-30"
"70362125516","2020-02-05T07:51:00","FM-16","6",,,,,,,,,,,,,,,,,,,,,,,,,,,,,,,,,,,,,,"29.32","27","28",,,,,"93",,"SCT:04 28 OVC:08 100","29.29","10.00","28","000",,"0",,,,,,,,,,,,,,,,,,,,,,,,,,,,,,,,,,,,,"MET09502/05/20 07:51:02 SPECI PASO 051651Z 00000KT 10SM SCT028 OVC100 M02/M03 A2932 RMK AO2 TSNO FIBI","FM-16","6",,,,,,,,,,,,,,,,,,,,,,,,,,,,"2005-10-30"
"70362125516","2020-02-05T07:53:00","FM-15","7",,,,,,,,,,,,,,,,,,,,,,,,,,,,,,,,,,,,,,"29.32","27","29","0.00",,,,"92","29.32","SCT:04 28 OVC:08 100","29.29","10.00","28","000",,"0",,,,,,,,,,,,,,,,,,,,,,,,,,,,,,,,,,,,,"MET10702/05/20 07:53:02 METAR PASO 051653Z 00000KT 10SM SCT028 OVC100 M02/M03 A2932 RMK AO2 SLP928 T10171028 TSNO","FM-15","7",,,,,,,,,,,,,,,,,,,,,,,,,,,,"2005-10-30"
"70362125516","2020-02-05T08:53:00","FM-15","7",,,,,,,,,,,,,,,,,,,,,,,,,,,,,,,,,,,,,,"29.33","28","29","T",,"-0.02","3","96","29.33","SCT:04 30 OVC:08 48","29.30","10.00","29","000",,"0",,,,,,,,,,,,,,,,,,,,,,,,,,,,,,,,,,,,,"MET14602/05/20 08:53:02 METAR PASO 051753Z 00000KT 10SM SCT030 OVC048 M02/M02 A2933 RMK AO2 UPB31E45 SLP933 P0000 60002 T10171022 11006 21017 53008 TSNO","FM-15","7",,,,,,,,,,,,,,,,,,,,,,,,,,,,"2005-10-30"
"70362125516","2020-02-05T09:16:00","FM-16","7",,,,,,,,,,,,,,,,,,,,,,,,,,,,,,,,,,,,,,"29.34","28","30",,,,,"92",,"BKN:07 29 OVC:08 35","29.31","10.00","29","000",,"0",,,,,,,,,,,,,,,,,,,,,,,,,,,,,,,,,,,,,"MET10002/05/20 09:16:02 SPECI PASO 051816Z 00000KT 10SM BKN029 OVC035 M01/M02 A2934 RMK AO2 T10111022 TSNO","FM-16","7",,,,,,,,,,,,,,,,,,,,,,,,,,,,"2005-10-30"
"70362125516","2020-02-05T09:28:00","FM-16","7",,,,,,,,,,,,,,,,,,,,,,,,,,,,,,,,,,,,,,"29.34","28","30",,,,,"92",,"SCT:04 29 OVC:08 35","29.31","10.00","29","000",,"0",,,,,,,,,,,,,,,,,,,,,,,,,,,,,,,,,,,,,"MET10002/05/20 09:28:02 SPECI PASO 051828Z 00000KT 10SM SCT029 OVC035 M01/M02 A2934 RMK AO2 T10111022 TSNO","FM-16","7",,,,,,,,,,,,,,,,,,,,,,,,,,,,"2005-10-30"
"70362125516","2020-02-05T09:53:00","FM-15","7",,,,,,,,,,,,,,,,,,,,,,,,,,,,,,,,,,,,,,"29.34","29","30","0.00",,,,"96","29.34","FEW:02 31 OVC:08 38","29.31","10.00","30","000",,"0",,,,,,,,,,,,,,,,,,,,,,,,,,,,,,,,,,,,,"MET10702/05/20 09:53:02 METAR PASO 051853Z 00000KT 10SM FEW031 OVC038 M01/M02 A2934 RMK AO2 SLP935 T10111017 TSNO","FM-15","7",,,,,,,,,,,,,,,,,,,,,,,,,,,,"2005-10-30"
"70362125516","2020-02-05T10:53:00","FM-15","7",,,,,,,,,,,,,,,,,,,,,,,,,,,,,,,,,,,,,,"29.35","30","32","0.00",,,,"92","29.35","OVC:08 46","29.32","10.00","31","000",,"0",,,,,,,,,,,,,,,,,,,,,,,,,,,,,,,,,,,,,"MET09902/05/20 10:53:02 METAR PASO 051953Z 00000KT 10SM OVC046 00/M01 A2935 RMK AO2 SLP939 T00001011 TSNO","FM-15","7",,,,,,,,,,,,,,,,,,,,,,,,,,,,"2005-10-30"
"70362125516","2020-02-05T11:53:00","FM-15","7",,,,,,,,,,,,,,,,,,,,,,,,,,,,,,,,,,,,,,"29.36","31","32","0.02",,"-0.03","3","96","29.36","BKN:07 38 OVC:08 49","29.33","7.00","32","000",,"0",,,,,,,,,,,,,,,,,,,,,,,,,,,,,,,,,,,,,"MET13202/05/20 11:53:02 METAR PASO 052053Z 00000KT 7SM BKN038 OVC049 00/M01 A2936 RMK AO2 UPB10E51 SLP943 P0002 60002 T00001006 53009 TSNO","FM-15","7",,,,,,,,,,,,,,,,,,,,,,,,,,,,"2005-10-30"
"70362125516","2020-02-05T12:53:00","FM-15","7",,,,,,,,,,,,,,,,,,,,,,,,,,,,,,,,,,,,,,"29.38","32","33","0.03",,,,"96","29.38","SCT:04 28 BKN:07 34 OVC:08 47","29.35","7.00","33","000",,"0",,,,,,,,,,,,,,,,,,,,,,,,,,,,,,,,,,,,,"MET12602/05/20 12:53:02 METAR PASO 052153Z 00000KT 7SM SCT028 BKN034 OVC047 01/00 A2938 RMK AO2 RAB38E47 SLP948 P0003 T00060000 TSNO","FM-15","7",,,,,,,,,,,,,,,,,,,,,,,,,,,,"2005-10-30"
"70362125516","2020-02-05T13:51:00","FM-16","6",,,,,,,,,,,,,,,,,,,,,,,,,,,,,,,,,,,,,,"29.38","32","34",,,,,"93",,"OVC:08 28","29.35","8.00","33","000",,"0",,,,,,,,,,,,,,,,,,,,,,,,,,,,,,,,,,,,,"MET10202/05/20 13:51:02 SPECI PASO 052251Z 00000KT 8SM OVC028 01/00 A2938 RMK AO2 RAB2154E29 P0003 TSNO FIBI","FM-16","6",,,,,,,,,,,,,,,,,,,,,,,,,,,,"2005-10-30"
"70362125516","2020-02-05T13:53:00","FM-15","7",,,,,,,,,,,,,,,,,,,,,,,,,,,,,,,,,,,,,,"29.38","32","33","0.04",,,,"96","29.38","OVC:08 28","29.35","8.00","33","000",,"0",,,,,,,,,,,,,,,,,,,,,,,,,,,,,,,,,,,,,"MET11402/05/20 13:53:02 METAR PASO 052253Z 00000KT 8SM OVC028 01/00 A2938 RMK AO2 RAB2154E29 SLP949 P0003 T00060000 TSNO","FM-15","7",,,,,,,,,,,,,,,,,,,,,,,,,,,,"2005-10-30"
"70362125516","2020-02-05T14:49:00","FM-16","7",,,,,,,,,,,,,,,,,,,,,,,,,,,,,,,,,,,,,,"29.39","32","34","0.02",,,,"93",,"FEW:02 3 BKN:07 22 BKN:07 95","29.36","8.00","33","000",,"0",,,,,,,,,,,,,,,,,,,,,,,,,,,,,,,,,,,,,"MET10002/05/20 14:49:02 SPECI PASO 052349Z 00000KT 8SM FEW003 BKN022 BKN095 01/00 A2939 RMK AO2 P0002 TSNO","FM-16","7",,,,,,,,,,,,,,,,,,,,,,,,,,,,"2005-10-30"
"70362125516","2020-02-05T14:53:00","FM-15","7",,,,,,,,,,,,,,,,,,,,,,,,,,,,,,,,,,,,,,"29.39","32","34","0.01",,"-0.01","1","92","29.39","FEW:02 3 BKN:07 22 BKN:07 100","29.36","9.00","33","000",,"0",,,,,,,,,,,,,,,,,,,,,,,,,,,,,,,,,,,,,"MET14102/05/20 14:53:02 METAR PASO 052353Z 00000KT 9SM FEW003 BKN022 BKN100 01/00 A2939 RMK AO2 SLP953 P0002 60010 T00110000 10011 21017 51005 TSNO","FM-15","7",,,,,,,,,,,,,,,,,,,,,,,,,,,,"2005-10-30"
"70362125516","2020-02-05T15:01:00","FM-16","7",,,,,,,,,,,,,,,,,,,,,,,,,,,,,,,,,,,,,,"29.39","32","34",,,,,"92",,"FEW:02 4 SCT:04 22 BKN:07 100","29.36","8.00","33","000",,"0",,,,,,,,,,,,,,,,,,,,,,,,,,,,,,,,,,,,,"MET10402/05/20 15:01:01 SPECI PASO 060001Z 00000KT 8SM FEW004 SCT022 BKN100 01/00 A2939 RMK AO2 T00110000 TSNO","FM-16","7",,,,,,,,,,,,,,,,,,,,,,,,,,,,"2005-10-30"
"70362125516","2020-02-05T15:29:00","FM-16","6",,,,,,,,,,,,,,,,,,,,,,,,,,,,,,,,,,,,,,"29.41","32","34",,,,,"92",,"FEW:02 3 BKN:07 7 BKN:07 28","29.38","10.00","33","100",,"3",,,,,,,,,,,,,,,,,,,,,,,,,,,,,,,,,,,,,"MET10502/05/20 15:29:03 SPECI PASO 060029Z 10003KT 10SM FEW003 BKN007 BKN028 01/00 A2941 RMK AO2 T00110000 TSNO","FM-16","6",,,,,,,,,,,,,,,,,,,,,,,,,,,,"2005-10-30"
"70362125516","2020-02-05T15:43:00","FM-16","7",,,,,,,,,,,,,,,,,,,,,,,,,,,,,,,,,,,,,,"29.41","33","34","T","-RA:02 |RA |RA",,,"97",,"FEW:02 3 SCT:04 8 BKN:07 25","29.38","10.00","34","000",,"0",,,,,,,,,,,,,,,,,,,,,,,,,,,,,,,,,,,,,"MET12102/05/20 15:43:01 SPECI PASO 060043Z 00000KT 10SM -RA FEW003 SCT008 BKN025 01/01 A2941 RMK AO2 RAB40 P0000 T00110006 TSNO","FM-16","7",,,,,,,,,,,,,,,,,,,,,,,,,,,,"2005-10-30"
"70362125516","2020-02-05T15:53:00","FM-15","7",,,,,,,,,,,,,,,,,,,,,,,,,,,,,,,,,,,,,,"29.40","32","34","0.01",,,,"92","29.40","FEW:02 8 BKN:07 22 BKN:07 27","29.37","10.00","33","000",,"0",,,,,,,,,,,,,,,,,,,,,,,,,,,,,,,,,,,,,"MET12702/05/20 15:53:01 METAR PASO 060053Z 00000KT 10SM FEW008 BKN022 BKN027 01/00 A2940 RMK AO2 RAB40E50 SLP957 P0001 T00110000 TSNO","FM-15","7",,,,,,,,,,,,,,,,,,,,,,,,,,,,"2005-10-30"
"70362125516","2020-02-05T16:04:00","FM-16","7",,,,,,,,,,,,,,,,,,,,,,,,,,,,,,,,,,,,,,"29.41","32","33","0.01","BR:1 ||",,,"96",,"FEW:02 3 SCT:04 21 BKN:07 55","29.38","6.00","33","000",,"0",,,,,,,,,,,,,,,,,,,,,,,,,,,,,,,,,,,,,"MET11302/05/20 16:04:01 SPECI PASO 060104Z 00000KT 6SM BR FEW003 SCT021 BKN055 01/00 A2941 RMK AO2 P0001 T00060000 TSNO","FM-16","7",,,,,,,,,,,,,,,,,,,,,,,,,,,,"2005-10-30"
"70362125516","2020-02-05T16:24:00","FM-16","7",,,,,,,,,,,,,,,,,,,,,,,,,,,,,,,,,,,,,,"29.41","32","33","0.01","BR:1 ||",,,"96",,"SCT:04 3 SCT:04 55 BKN:07 120","29.38","0.75","33","000",,"0",,,,,,,,,,,,,,,,,,,,,,,,,,,,,,,,,,,,,"MET11502/05/20 16:24:01 SPECI PASO 060124Z 00000KT 3/4SM BR SCT003 SCT055 BKN120 01/00 A2941 RMK AO2 P0001 T00060000 TSNO","FM-16","7",,,,,,,,,,,,,,,,,,,,,,,,,,,,"2005-10-30"
"70362125516","2020-02-05T16:31:00","FM-16","7",,,,,,,,,,,,,,,,,,,,,,,,,,,,,,,,,,,,,,"29.41","32","33","0.02","BR:1 ||",,,"96",,"BKN:07 4 BKN:07 120","29.38","1.00","33","000",,"0",,,,,,,,,,,,,,,,,,,,,,,,,,,,,,,,,,,,,"MET10602/05/20 16:31:01 SPECI PASO 060131Z 00000KT 1SM BR BKN004 BKN120 01/00 A2941 RMK AO2 P0002 T00060000 TSNO","FM-16","7",,,,,,,,,,,,,,,,,,,,,,,,,,,,"2005-10-30"
"70362125516","2020-02-05T16:36:00","FM-16","7",,,,,,,,,,,,,,,,,,,,,,,,,,,,,,,,,,,,,,"29.41","32","33","0.02","BR:1 ||",,,"96",,"BKN:07 4 OVC:08 120","29.38","4.00","33","000",,"0",,,,,,,,,,,,,,,,,,,,,,,,,,,,,,,,,,,,,"MET10602/05/20 16:36:01 SPECI PASO 060136Z 00000KT 4SM BR BKN004 OVC120 01/00 A2941 RMK AO2 P0002 T00060000 TSNO","FM-16","7",,,,,,,,,,,,,,,,,,,,,,,,,,,,"2005-10-30"
"70362125516","2020-02-05T16:51:00","FM-16","6",,,,,,,,,,,,,,,,,,,,,,,,,,,,,,,,,,,,,,"29.42","30","34",,"BR:1 ||",,,"87",,"OVC:08 4","29.39","2.00V","32","000",,"0",,,,,,,,,,,,,,,,,,,,,,,,,,,,,,,,,,,,,"MET10702/05/20 16:51:03 SPECI PASO 060151Z 00000KT 2SM BR OVC004 01/M01 A2942 RMK AO2 VIS 1 1/2V5 P0003 TSNO FIBI","FM-16","6",,,,,,,,,,,,,,,,,,,,,,,,,,,,"2005-10-30"
"70362125516","2020-02-05T16:53:00","FM-15","7",,,,,,,,,,,,,,,,,,,,,,,,,,,,,,,,,,,,,,"29.42","31","33","0.03","BR:1 ||",,,"92","29.42","OVC:08 4","29.39","2.00","32","000",,"0",,,,,,,,,,,,,,,,,,,,,,,,,,,,,,,,,,,,,"MET10702/05/20 16:53:01 METAR PASO 060153Z 00000KT 2SM BR OVC004 01/M01 A2942 RMK AO2 SLP962 P0003 T00061006 TSNO","FM-15","7",,,,,,,,,,,,,,,,,,,,,,,,,,,,"2005-10-30"
"70362125516","2020-02-05T17:02:00","FM-16","7",,,,,,,,,,,,,,,,,,,,,,,,,,,,,,,,,,,,,,"29.42","31","33",,"BR:1 ||",,,"92",,"OVC:08 4","29.39","3.00","32","000",,"0",,,,,,,,,,,,,,,,,,,,,,,,,,,,,,,,,,,,,"MET09402/05/20 17:02:01 SPECI PASO 060202Z 00000KT 3SM BR OVC004 01/M01 A2942 RMK AO2 T00061006 TSNO","FM-16","7",,,,,,,,,,,,,,,,,,,,,,,,,,,,"2005-10-30"
"70362125516","2020-02-05T17:09:00","FM-16","7",,,,,,,,,,,,,,,,,,,,,,,,,,,,,,,,,,,,,,"29.43","31","33",,"BR:1 ||",,,"92",,"OVC:08 4","29.40","1.75V","32","000",,"0",,,,,,,,,,,,,,,,,,,,,,,,,,,,,,,,,,,,,"MET10802/05/20 17:09:01 SPECI PASO 060209Z 00000KT 1 3/4SM BR OVC004 01/M01 A2943 RMK AO2 VIS 1/2V5 T00061006 TSNO","FM-16","7",,,,,,,,,,,,,,,,,,,,,,,,,,,,"2005-10-30"
"70362125516","2020-02-05T17:25:00","FM-16","7",,,,,,,,,,,,,,,,,,,,,,,,,,,,,,,,,,,,,,"29.43","31","33",,"BR:1 ||",,,"92",,"OVC:08 4","29.40","3.00","32","000",,"0",,,,,,,,,,,,,,,,,,,,,,,,,,,,,,,,,,,,,"MET09402/05/20 17:25:01 SPECI PASO 060225Z 00000KT 3SM BR OVC004 01/M01 A2943 RMK AO2 T00061006 TSNO","FM-16","7",,,,,,,,,,,,,,,,,,,,,,,,,,,,"2005-10-30"
"70362125516","2020-02-05T17:53:00","FM-15","7",,,,,,,,,,,,,,,,,,,,,,,,,,,,,,,,,,,,,,"29.45","31","33","0.01","-RA:02 |RA |RA","-0.06","3","92","29.45","BKN:07 4 OVC:08 11","29.42","9.00","32","000",,"0",,,,,,,,,,,,,,,,,,,,,,,,,,,,,,,,,,,,,"MET14102/05/20 17:53:01 METAR PASO 060253Z 00000KT 9SM -RA BKN004 OVC011 01/M01 A2945 RMK AO2 UPB39E43RAB43 SLP973 P0001 60005 T00061006 53020 TSNO","FM-15","7",,,,,,,,,,,,,,,,,,,,,,,,,,,,"2005-10-30"
"70362125516","2020-02-05T18:02:00","FM-16","7",,,,,,,,,,,,,,,,,,,,,,,,,,,,,,,,,,,,,,"29.45","32","33","T","-RA:02 |RA |RA",,,"96",,"SCT:04 5 BKN:07 13 OVC:08 43","29.42","8.00","33","000",,"0",,,,,,,,,,,,,,,,,,,,,,,,,,,,,,,,,,,,,"MET11402/05/20 18:02:01 SPECI PASO 060302Z 00000KT 8SM -RA SCT005 BKN013 OVC043 01/00 A2945 RMK AO2 P0000 T00060000 TSNO","FM-16","7",,,,,,,,,,,,,,,,,,,,,,,,,,,,"2005-10-30"
"70362125516","2020-02-05T18:18:00","FM-16","7",,,,,,,,,,,,,,,,,,,,,,,,,,,,,,,,,,,,,,"29.46","32","33","0.01",,,,"96",,"BKN:07 7 BKN:07 15 OVC:08 44","29.43","9.00","33","000",,"0",,,,,,,,,,,,,,,,,,,,,,,,,,,,,,,,,,,,,"MET11602/05/20 18:18:01 SPECI PASO 060318Z 00000KT 9SM BKN007 BKN015 OVC044 01/00 A2946 RMK AO2 RAE07 P0001 T00060000 TSNO","FM-16","7",,,,,,,,,,,,,,,,,,,,,,,,,,,,"2005-10-30"
"70362125516","2020-02-05T18:51:00","FM-16","6",,,,,,,,,,,,,,,,,,,,,,,,,,,,,,,,,,,,,,"29.47","32","34",,"-RA:02 |RA |RA",,,"93",,"SCT:04 7 BKN:07 18 OVC:08 24","29.44","8.00","33","000",,"0",,,,,,,,,,,,,,,,,,,,,,,,,,,,,,,,,,,,,"MET11802/05/20 18:51:03 SPECI PASO 060351Z 00000KT 8SM -RA SCT007 BKN018 OVC024 01/00 A2947 RMK AO2 RAE07B20 P0002 TSNO FIBI","FM-16","6",,,,,,,,,,,,,,,,,,,,,,,,,,,,"2005-10-30"
"70362125516","2020-02-05T18:53:00","FM-15","7",,,,,,,,,,,,,,,,,,,,,,,,,,,,,,,,,,,,,,"29.47","32","33","0.03","-RA:02 |RA |RA",,,"96","29.47","SCT:04 7 SCT:04 18 OVC:08 24","29.44","8.00","33","000",,"0",,,,,,,,,,,,,,,,,,,,,,,,,,,,,,,,,,,,,"MET13002/05/20 18:53:01 METAR PASO 060353Z 00000KT 8SM -RA SCT007 SCT018 OVC024 01/00 A2947 RMK AO2 RAE07B20 SLP980 P0002 T00060000 TSNO","FM-15","7",,,,,,,,,,,,,,,,,,,,,,,,,,,,"2005-10-30"
"70362125516","2020-02-05T19:13:00","FM-16","7",,,,,,,,,,,,,,,,,,,,,,,,,,,,,,,,,,,,,,"29.47","32","34","0.01","-RA:02 |RA |RA",,,"92",,"FEW:02 26 OVC:08 36","29.44","9.00","33","000",,"0",,,,,,,,,,,,,,,,,,,,,,,,,,,,,,,,,,,,,"MET10702/05/20 19:13:01 SPECI PASO 060413Z 00000KT 9SM -RA FEW026 OVC036 01/00 A2947 RMK AO2 P0001 T00110000 TSNO","FM-16","7",,,,,,,,,,,,,,,,,,,,,,,,,,,,"2005-10-30"
"70362125516","2020-02-05T19:45:00","FM-16","7",,,,,,,,,,,,,,,,,,,,,,,,,,,,,,,,,,,,,,"29.49","32","33","0.02",,,,"96",,"SCT:04 21 BKN:07 29 OVC:08 55","29.46","9.00","33","VRB",,"6",,,,,,,,,,,,,,,,,,,,,,,,,,,,,,,,,,,,,"MET11602/05/20 19:45:02 SPECI PASO 060445Z VRB05KT 9SM SCT021 BKN029 OVC055 01/00 A2949 RMK AO2 RAE16 P0002 T00060000 TSNO","FM-16","7",,,,,,,,,,,,,,,,,,,,,,,,,,,,"2005-10-30"
"70362125516","2020-02-05T19:53:00","FM-15","7",,,,,,,,,,,,,,,,,,,,,,,,,,,,,,,,,,,,,,"29.50","32","33","0.02",,,,"96","29.50","BKN:07 21 BKN:07 28 OVC:08 50","29.47","10.00","33","000",,"0",,,,,,,,,,,,,,,,,,,,,,,,,,,,,,,,,,,,,"MET13302/05/20 19:53:02 METAR PASO 060453Z 00000KT 10SM BKN021 BKN028 OVC050 01/00 A2950 RMK RAE16 SLP989 P0003 T00060000 TSNO VIA AUTODIAL","FM-15","7",,,,,,,,,,,,,,,,,,,,,,,,,,,,"2005-10-30"
"70362125516","2020-02-05T20:15:00","FM-16","7",,,,,,,,,,,,,,,,,,,,,,,,,,,,,,,,,,,,,,"29.50","32","33",,,,,"96",,"FEW:02 23 SCT:04 33 BKN:07 70","29.47","10.00","33","000",,"0",,,,,,,,,,,,,,,,,,,,,,,,,,,,,,,,,,,,,"MET10502/05/20 20:15:02 SPECI PASO 060515Z 00000KT 10SM FEW023 SCT033 BKN070 01/00 A2950 RMK AO2 T00060000 TSNO","FM-16","7",,,,,,,,,,,,,,,,,,,,,,,,,,,,"2005-10-30"
"70362125516","2020-02-05T20:43:00","FM-16","7",,,,,,,,,,,,,,,,,,,,,,,,,,,,,,,,,,,,,,"29.52","31","33",,,,,"92",,"SCT:04 21 BKN:07 26 BKN:07 32","29.49","10.00","32","000",,"0",,,,,,,,,,,,,,,,,,,,,,,,,,,,,,,,,,,,,"MET10602/05/20 20:43:02 SPECI PASO 060543Z 00000KT 10SM SCT021 BKN026 BKN032 01/M01 A2952 RMK AO2 T00061006 TSNO","FM-16","7",,,,,,,,,,,,,,,,,,,,,,,,,,,,"2005-10-30"
"70362125516","2020-02-05T20:51:00","FM-16","6",,,,,,,,,,,,,,,,,,,,,,,,,,,,,,,,,,,,,,"29.52","30","32",,,,,"93",,"SCT:04 19 SCT:04 26","29.49","8.00","31","210",,"3",,,,,,,,,,,,,,,,,,,,,,,,,,,,,,,,,,,,,"MET09302/05/20 20:51:03 SPECI PASO 060551Z 21003KT 8SM SCT019 SCT026 00/M01 A2952 RMK AO2 TSNO FIBI","FM-16","6",,,,,,,,,,,,,,,,,,,,,,,,,,,,"2005-10-30"
"70362125516","2020-02-05T20:53:00","FM-15","7",,,,,,,,,,,,,,,,,,,,,,,,,,,,,,,,,,,,,,"29.52","31","32","0.00",,"-0.07","3","96","29.52","SCT:04 19 SCT:04 26","29.49","7.00","32","160",,"3",,,,,,,,,,,,,,,,,,,,,,,,,,,,,,,,,,,,,"MET12902/05/20 20:53:02 METAR PASO 060553Z 16003KT 7SM SCT019 SCT026 00/M01 A2952 RMK AO2 SLP996 60010 T00001006 10011 20000 53024 TSNO","FM-15","7",,,,,,,,,,,,,,,,,,,,,,,,,,,,"2005-10-30"
"70362125516","2020-02-05T21:05:00","FM-16","7",,,,,,,,,,,,,,,,,,,,,,,,,,,,,,,,,,,,,,"29.53","30","32",,"BR:1 ||",,,"92",,"FEW:02 2 SCT:04 26 BKN:07 46","29.50","4.00","31","000",,"0",,,,,,,,,,,,,,,,,,,,,,,,,,,,,,,,,,,,,"MET11402/05/20 21:05:02 SPECI PASO 060605Z 00000KT 4SM BR FEW002 SCT026 BKN046 00/M01 A2953 RMK AO2 I1000 T00001011 TSNO","FM-16","7",,,,,,,,,,,,,,,,,,,,,,,,,,,,"2005-10-30"
"70362125516","2020-02-05T21:53:00","FM-15","7",,,,,,,,,,,,,,,,,,,,,,,,,,,,,,,,,,,,,,"29.54","30","32","0.00","BR:1 ||",,,"92","29.54","FEW:02 2 SCT:04 90","29.51","3.00","31","000",,"0",,,,,,,,,,,,,,,,,,,,,,,,,,,,,,,,,,,,,"MET11402/05/20 21:53:02 METAR PASO 060653Z 00000KT 3SM BR FEW002 SCT090 00/M01 A2954 RMK AO2 SLP003 I1001 T00001011 TSNO","FM-15","7",,,,,,,,,,,,,,,,,,,,,,,,,,,,"2005-10-30"
"70362125516","2020-02-05T22:53:00","FM-15","7",,,,,,,,,,,,,,,,,,,,,,,,,,,,,,,,,,,,,,"29.57","29","31","0.00",,,,"92","29.57","FEW:02 70","29.54","8.00","30","000",,"0",,,,,,,,,,,,,,,,,,,,,,,,,,,,,,,,,,,,,"MET09902/05/20 22:53:02 METAR PASO 060753Z 00000KT 8SM FEW070 M01/M02 A2957 RMK AO2 SLP012 T10061017 TSNO","FM-15","7",,,,,,,,,,,,,,,,,,,,,,,,,,,,"2005-10-30"
"70362125516","2020-02-05T23:53:00","FM-15","7",,,,,,,,,,,,,,,,,,,,,,,,,,,,,,,,,,,,,,"29.59","30","32","0.00",,"-0.07","3","92","29.59","CLR:00","29.56","10.00","31","000",,"0",,,,,,,,,,,,,,,,,,,,,,,,,,,,,,,,,,,,,"MET12402/05/20 23:53:02 METAR PASO 060853Z 00000KT 10SM CLR 00/M01 A2959 RMK AO2 SLP021 I1000 I3001 T00001011 400111017 53025 TSNO","FM-15","7",,,,,,,,,,,,,,,,,,,,,,,,,,,,"2005-10-30"
"70362125516","2020-02-05T23:59:00","SOD  ","6",,,,,,,,,,,,,,,,"32",,,"29.36",,"0.1","0","5.5","33","34","29","130","7","0.25",,,"160","6","RA SN BR",,,,,,,,,,,,,,,,,,,,,,,,,,,,,,,,,,,,,,,,,,,,,,,,,,,,,,,,"SOD73024 HR PRECIPITATION (IN):0.25  24 HR MAX TEMP (F):34 24 HR MAX TEMP TIME (LST):2013 24 HR MIN TEMP (F):29 24 HR MIN TEMP TIME (LST):0900 AVERAGE STATION PRESSURE:29.355 MINIMUM SEA LEVEL PRESSURE:29.30 TIME OF OCCURRENCE:0541 PEAK WIND SPEED (MPH):7   PEAK WIND DIR (DEG):130 PEAK WIND TIME (LST):1945  FASTEST 2MIN SPEED (MPH):6  FASTEST 2MIN DIR (DEG):160 FASTEST 2MIN TIME (LST):1945 AVERAGE WIND SPEED (MPH):0.1  24 HR AVG TEMP (F):32 HEATING DEGREE DAYS:33  COOLING DEGREE DAYS:0   LATEST DAY MAX TEMP (0700-1900 LST):34  LATEST NIGHT MIN TEMP(1900-0800 LST):29 HOURLY INCREMENTAL PRECIPITATION VALUES (IN):.01 0.01 0.01 0.01 0.01 0.00 0.00 0.00 T    0.00 0.00 0.02 0.03 0.04 0.01 0.01 0.03 0.01 0.03 0.02 0.00 0.00 0.00 0.00","SOD  ","6",,,,,,,,,,,,,,,,,,,,,,,,,"0908","1735",,"2005-10-30"
"70362125516","2020-02-06T00:53:00","FM-15","7",,,,,,,,,,,,,,,,,,,,,,,,,,,,,,,,,,,,,,"29.63","31","32","0.00",,,,"96","29.63","FEW:02 29 FEW:02 46 SCT:04 120","29.60","10.00","32","000",,"0",,,,,,,,,,,,,,,,,,,,,,,,,,,,,,,,,,,,,"MET11302/06/20 00:53:02 METAR PASO 060953Z 00000KT 10SM FEW029 FEW046 SCT120 00/M01 A2963 RMK AO2 SLP033 T00001006 TSNO","FM-15","7",,,,,,,,,,,,,,,,,,,,,,,,,,,,"2005-10-30"
"70362125516","2020-02-06T01:53:00","FM-15","7",,,,,,,,,,,,,,,,,,,,,,,,,,,,,,,,,,,,,,"29.65","30","33","0.00",,,,"89","29.65","FEW:02 43 BKN:07 120","29.62","10.00","32","000",,"0",,,,,,,,,,,,,,,,,,,,,,,,,,,,,,,,,,,,,"MET10602/06/20 01:53:02 METAR PASO 061053Z 00000KT 10SM FEW043 BKN120 01/M01 A2965 RMK AO2 SLP041 T00061011 TSNO","FM-15","7",,,,,,,,,,,,,,,,,,,,,,,,,,,,"2005-10-30"
"70362125516","2020-02-06T02:53:00","FM-15","7",,,,,,,,,,,,,,,,,,,,,,,,,,,,,,,,,,,,,,"29.67","27","35","0.00",,"-0.08","1","72","29.67","OVC:08 110","29.64","10.00","32","VRB",,"3",,,,,,,,,,,,,,,,,,,,,,,,,,,,,,,,,,,,,"MET12902/06/20 02:53:02 METAR PASO 061153Z VRB03KT 10SM OVC110 02/M03 A2967 RMK AO2 SLP049 70022 I6001 T00171028 10017 21006 51027 TSNO","FM-15","7",,,,,,,,,,,,,,,,,,,,,,,,,,,,"2005-10-30"
"70362125516","2020-02-06T03:53:00","FM-15","7",,,,,,,,,,,,,,,,,,,,,,,,,,,,,,,,,,,,,,"29.69","27","33","0.00",,,,"78","29.69","BKN:07 47 OVC:08 110","29.66","10.00","31","000",,"0",,,,,,,,,,,,,,,,,,,,,,,,,,,,,,,,,,,,,"MET10602/06/20 03:53:02 METAR PASO 061253Z 00000KT 10SM BKN047 OVC110 01/M03 A2969 RMK AO2 SLP054 T00061028 TSNO","FM-15","7",,,,,,,,,,,,,,,,,,,,,,,,,,,,"2005-10-30"
"70362125516","2020-02-06T04:53:00","FM-15","7",,,,,,,,,,,,,,,,,,,,,,,,,,,,,,,,,,,,,,"29.70","28","31","0.00",,,,"89","29.70","OVC:08 46","29.67","10.00","30","200",,"3",,,,,,,,,,,,,,,,,,,,,,,,,,,,,,,,,,,,,"MET10002/06/20 04:53:02 METAR PASO 061353Z 20003KT 10SM OVC046 M01/M02 A2970 RMK AO2 SLP056 T10061022 TSNO","FM-15","7",,,,,,,,,,,,,,,,,,,,,,,,,,,,"2005-10-30"
"70362125516","2020-02-06T05:53:00","FM-15","7",,,,,,,,,,,,,,,,,,,,,,,,,,,,,,,,,,,,,,"29.71","26","29","0.00",,"-0.04","1","89","29.71","BKN:07 49","29.68","10.00","28","170",,"3",,,,,,,,,,,,,,,,,,,,,,,,,,,,,,,,,,,,,"MET10602/06/20 05:53:02 METAR PASO 061453Z 17003KT 10SM BKN049 M02/M03 A2971 RMK AO2 SLP061 T10171033 51012 TSNO","FM-15","7",,,,,,,,,,,,,,,,,,,,,,,,,,,,"2005-10-30"
"70362125516","2020-02-06T06:53:00","FM-15","7",,,,,,,,,,,,,,,,,,,,,,,,,,,,,,,,,,,,,,"29.72","25","28","0.00",,,,"88","29.72","CLR:00","29.69","10.00","27","000",,"0",,,,,,,,,,,,,,,,,,,,,,,,,,,,,,,,,,,,,"MET10302/06/20 06:53:02 METAR PASO 061553Z 00000KT 10SM CLR M02/M04 A2972 RMK AO2 SLP065 I1000 T10221039 TSNO","FM-15","7",,,,,,,,,,,,,,,,,,,,,,,,,,,,"2005-10-30"
"70362125516","2020-02-06T07:53:00","FM-15","7",,,,,,,,,,,,,,,,,,,,,,,,,,,,,,,,,,,,,,"29.73","24","27","0.00",,,,"89","29.72","FEW:02 43","29.70","10.00","26","200",,"5",,,,,,,,,,,,,,,,,,,,,,,,,,,,,,,,,,,,,"MET10602/06/20 07:53:02 METAR PASO 061653Z 20004KT 10SM FEW043 M03/M04 A2973 RMK AO2 SLP066 I1001 T10281044 TSNO","FM-15","7",,,,,,,,,,,,,,,,,,,,,,,,,,,,"2005-10-30"
"70362125516","2020-02-06T08:53:00","FM-15","7",,,,,,,,,,,,,,,,,,,,,,,,,,,,,,,,,,,,,,"29.74","26","29","0.00",,"-0.02","1","89","29.73","OVC:08 43","29.71","10.00","28","200",,"3",,,,,,,,,,,,,,,,,,,,,,,,,,,,,,,,,,,,,"MET12402/06/20 08:53:02 METAR PASO 061753Z 20003KT 10SM OVC043 M02/M03 A2974 RMK AO2 SLP069 I6001 T10171033 10017 21033 51008 TSNO","FM-15","7",,,,,,,,,,,,,,,,,,,,,,,,,,,,"2005-10-30"
"70362125516","2020-02-06T09:53:00","FM-15","7",,,,,,,,,,,,,,,,,,,,,,,,,,,,,,,,,,,,,,"29.75","27","29","0.00",,,,"92","29.75","OVC:08 38","29.72","10.00","28","000",,"0",,,,,,,,,,,,,,,,,,,,,,,,,,,,,,,,,,,,,"MET10002/06/20 09:53:02 METAR PASO 061853Z 00000KT 10SM OVC038 M02/M03 A2975 RMK AO2 SLP074 T10171028 TSNO","FM-15","7",,,,,,,,,,,,,,,,,,,,,,,,,,,,"2005-10-30"
"70362125516","2020-02-06T10:53:00","FM-15","7",,,,,,,,,,,,,,,,,,,,,,,,,,,,,,,,,,,,,,"29.75","28","29","0.00",,,,"96","29.75","CLR:00","29.72","10.00","29","000",,"0",,,,,,,,,,,,,,,,,,,,,,,,,,,,,,,,,,,,,"MET09702/06/20 10:53:02 METAR PASO 061953Z 00000KT 10SM CLR M02/M02 A2975 RMK AO2 SLP074 T10171022 TSNO","FM-15","7",,,,,,,,,,,,,,,,,,,,,,,,,,,,"2005-10-30"
"70362125516","2020-02-06T11:53:00","FM-15","7",,,,,,,,,,,,,,,,,,,,,,,,,,,,,,,,,,,,,,"29.75","28","32","0.00",,"-0.01","0","85","29.75","SCT:04 41","29.72","10.00","31","000",,"0",,,,,,,,,,,,,,,,,,,,,,,,,,,,,,,,,,,,,"MET10502/06/20 11:53:02 METAR PASO 062053Z 00000KT 10SM SCT041 00/M02 A2975 RMK AO2 SLP073 T00001022 50004 TSNO","FM-15","7",,,,,,,,,,,,,,,,,,,,,,,,,,,,"2005-10-30"
"70362125516","2020-02-06T12:53:00","FM-15","7",,,,,,,,,,,,,,,,,,,,,,,,,,,,,,,,,,,,,,"29.75","28","35","0.00",,,,"76","29.75","BKN:07 37","29.72","10.00","32","180",,"7",,,,,,,,,,,,,,,,,,,,,,,,,,,,,,,,,,,,,"MET09902/06/20 12:53:02 METAR PASO 062153Z 18006KT 10SM BKN037 02/M02 A2975 RMK AO2 SLP074 T00171022 TSNO","FM-15","7",,,,,,,,,,,,,,,,,,,,,,,,,,,,"2005-10-30"
"70362125516","2020-02-06T13:53:00","FM-15","7",,,,,,,,,,,,,,,,,,,,,,,,,,,,,,,,,,,,,,"29.75","28","35","0.00",,,,"76","29.75","OVC:08 110","29.72","10.00","32","VRB",,"5",,,,,,,,,,,,,,,,,,,,,,,,,,,,,,,,,,,,,"MET09902/06/20 13:53:02 METAR PASO 062253Z VRB04KT 10SM OVC110 02/M02 A2975 RMK AO2 SLP074 T00171022 TSNO","FM-15","7",,,,,,,,,,,,,,,,,,,,,,,,,,,,"2005-10-30"
"70362125516","2020-02-06T14:53:00","FM-15","7",,,,,,,,,,,,,,,,,,,,,,,,,,,,,,,,,,,,,,"29.74","28","35","0.00",,"+0.01","8","76","29.74","OVC:08 100","29.71","10.00","32","180",,"8",,,,,,,,,,,,,,,,,,,,,,,,,,,,,,,,,,,,,"MET11702/06/20 14:53:02 METAR PASO 062353Z 18007KT 10SM OVC100 02/M02 A2974 RMK AO2 SLP070 T00171022 10017 21022 58004 TSNO","FM-15","7",,,,,,,,,,,,,,,,,,,,,,,,,,,,"2005-10-30"
"70362125516","2020-02-06T15:53:00","FM-15","7",,,,,,,,,,,,,,,,,,,,,,,,,,,,,,,,,,,,,,"29.72","27","35","0.00",,,,"72","29.72","SCT:04 120","29.69","10.00","32","VRB",,"7",,,,,,,,,,,,,,,,,,,,,,,,,,,,,,,,,,,,,"MET09902/06/20 15:53:01 METAR PASO 070053Z VRB06KT 10SM SCT120 02/M03 A2972 RMK AO2 SLP065 T00171028 TSNO","FM-15","7",,,,,,,,,,,,,,,,,,,,,,,,,,,,"2005-10-30"
"70362125516","2020-02-06T16:53:00","FM-15","7",,,,,,,,,,,,,,,,,,,,,,,,,,,,,,,,,,,,,,"29.72","30","34","T","BR:1 ||",,,"85","29.72","OVC:08 34","29.69","6.00","32","VRB",,"6",,,,,,,,,,,,,,,,,,,,,,,,,,,,,,,,,,,,,"MET10102/06/20 16:53:01 METAR PASO 070153Z VRB05KT 6SM BR OVC034 01/M01 A2972 RMK AO2 SLP063 T00111011 TSNO","FM-15","7",,,,,,,,,,,,,,,,,,,,,,,,,,,,"2005-10-30"
"70362125516","2020-02-06T17:33:00","FM-16","7",,,,,,,,,,,,,,,,,,,,,,,,,,,,,,,,,,,,,,"29.71","31","33","0.01","-SN:03 BR:1 |SN |",,,"92",,"OVC:08 28","29.68","4.00","32","000",,"0",,,,,,,,,,,,,,,,,,,,,,,,,,,,,,,,,,,,,"MET11202/06/20 17:33:01 SPECI PASO 070233Z 00000KT 4SM -SN BR OVC028 01/M01 A2971 RMK AO2 SNB0154 P0001 T00061006 TSNO","FM-16","7",,,,,,,,,,,,,,,,,,,,,,,,,,,,"2005-10-30"
"70362125516","2020-02-06T17:43:00","FM-16","7",,,,,,,,,,,,,,,,,,,,,,,,,,,,,,,,,,,,,,"29.71","31","33","0.01","-SN:03 BR:1 |SN |",,,"92",,"OVC:08 20","29.68","1.75","32","000",,"0",,,,,,,,,,,,,,,,,,,,,,,,,,,,,,,,,,,,,"MET11602/06/20 17:43:01 SPECI PASO 070243Z 00000KT 1 3/4SM -SN BR OVC020 01/M01 A2971 RMK AO2 SNB0154 P0001 T00061006 TSNO","FM-16","7",,,,,,,,,,,,,,,,,,,,,,,,,,,,"2005-10-30"
"70362125516","2020-02-06T17:53:00","FM-15","7",,,,,,,,,,,,,,,,,,,,,,,,,,,,,,,,,,,,,,"29.70","31","33","0.02s","-SN:03 BR:1 |SN |","+0.04","7","92","29.70","OVC:08 16","29.67","1.25","32","360",,"5",,,,,,,,,,,,,,,,,,,,,,,,,,,,,,,,,,,,,"MET13502/06/20 17:53:01 METAR PASO 070253Z 36004KT 1 1/4SM -SN BR OVC016 01/M01 A2970 RMK AO2 SNB0154 SLP058 P0001 60001 T00061006 57012 TSNO","FM-15","7",,,,,,,,,,,,,,,,,,,,,,,,,,,,"2005-10-30"
"70362125516","2020-02-06T18:04:00","FM-16","7",,,,,,,,,,,,,,,,,,,,,,,,,,,,,,,,,,,,,,"29.71","32","33","0.01","-SN:03 BR:1 |SN |",,,"96",,"OVC:08 14","29.68","1.75","33","360",,"3",,,,,,,,,,,,,,,,,,,,,,,,,,,,,,,,,,,,,"MET10702/06/20 18:04:01 SPECI PASO 070304Z 36003KT 1 3/4SM -SN BR OVC014 01/00 A2971 RMK AO2 P0001 T00060000 TSNO","FM-16","7",,,,,,,,,,,,,,,,,,,,,,,,,,,,"2005-10-30"
"70362125516","2020-02-06T18:12:00","FM-16","6",,,,,,,,,,,,,,,,,,,,,,,,,,,,,,,,,,,,,,"29.70","31","32",,"-SN:03 BR:1 |SN |",,,"96",,"OVC:08 14","29.67","2.00","32","020",,"5",,,,,,,,,,,,,,,,,,,,,,,,,,,,,,,,,,,,,"MET10402/06/20 18:12:03 SPECI PASO 070312Z 02004KT 2SM -SN BR OVC014 00/M01 A2970 RMK AO2 P0001 T00001006 TSNO","FM-16","6",,,,,,,,,,,,,,,,,,,,,,,,,,,,"2005-10-30"
"70362125516","2020-02-06T18:19:00","FM-16","7",,,,,,,,,,,,,,,,,,,,,,,,,,,,,,,,,,,,,,"29.70","31","33","0.01","-SN:03 BR:1 |SN |",,,"92",,"OVC:08 18","29.67","2.50","32","000",,"0",,,,,,,,,,,,,,,,,,,,,,,,,,,,,,,,,,,,,"MET10802/06/20 18:19:01 SPECI PASO 070319Z 00000KT 2 1/2SM -SN BR OVC018 01/M01 A2970 RMK AO2 P0001 T00061006 TSNO","FM-16","7",,,,,,,,,,,,,,,,,,,,,,,,,,,,"2005-10-30"
"70362125516","2020-02-06T18:44:00","FM-16","7",,,,,,,,,,,,,,,,,,,,,,,,,,,,,,,,,,,,,,"29.70","31","33","0.02","-SN:03 BR:1 |SN |",,,"92",,"OVC:08 15","29.67","1.75","32","360",,"5",,,,,,,,,,,,,,,,,,,,,,,,,,,,,,,,,,,,,"MET11702/06/20 18:44:01 SPECI PASO 070344Z 36004KT 1 3/4SM -SN BR OVC015 01/M01 A2970 RMK AO2 RAB33E35 P0002 T00061006 TSNO","FM-16","7",,,,,,,,,,,,,,,,,,,,,,,,,,,,"2005-10-30"
"70362125516","2020-02-06T18:51:00","FM-16","7",,,,,,,,,,,,,,,,,,,,,,,,,,,,,,,,,,,,,,"29.71","30","34","0.02","-SN:03 BR:1 |SN |",,,"87",,"OVC:08 17","29.68","2.00","32","330",,"3",,,,,,,,,,,,,,,,,,,,,,,,,,,,,,,,,,,,,"MET11202/06/20 18:51:01 SPECI PASO 070351Z 33003KT 2SM -SN BR OVC017 01/M01 A2971 RMK RAB33E35 P0002 TSNO VIA AUTODIAL","FM-16","7",,,,,,,,,,,,,,,,,,,,,,,,,,,,"2005-10-30"
"70362125516","2020-02-06T18:53:00","FM-15","7",,,,,,,,,,,,,,,,,,,,,,,,,,,,,,,,,,,,,,"29.71","32","33","0.01","-SN:03 BR:1 |SN |",,,"96","29.71","OVC:08 17","29.68","2.50","33","000",,"0",,,,,,,,,,,,,,,,,,,,,,,,,,,,,,,,,,,,,"MET13202/06/20 18:53:01 METAR PASO 070353Z 00000KT 2 1/2SM -SN BR OVC017 01/00 A2971 RMK RAB33E35 SLP060 P0002 T00060000 TSNO VIA AUTODIAL","FM-15","7",,,,,,,,,,,,,,,,,,,,,,,,,,,,"2005-10-30"
"70362125516","2020-02-06T19:16:00","FM-16","7",,,,,,,,,,,,,,,,,,,,,,,,,,,,,,,,,,,,,,"29.70","32","33","0.01","-SN:03 BR:1 |SN |",,,"96",,"BKN:07 17 OVC:08 26","29.67","3.00","33","340",,"3",,,,,,,,,,,,,,,,,,,,,,,,,,,,,,,,,,,,,"MET11002/06/20 19:16:01 SPECI PASO 070416Z 34003KT 3SM -SN BR BKN017 OVC026 01/00 A2970 RMK AO2 P0001 T00060000 TSNO","FM-16","7",,,,,,,,,,,,,,,,,,,,,,,,,,,,"2005-10-30"
"70362125516","2020-02-06T19:23:00","FM-16","7",,,,,,,,,,,,,,,,,,,,,,,,,,,,,,,,,,,,,,"29.70","32","33","0.01","-SN:03 BR:1 |SN |",,,"96",,"OVC:08 18","29.67","1.75","33","000",,"0",,,,,,,,,,,,,,,,,,,,,,,,,,,,,,,,,,,,,"MET10702/06/20 19:23:02 SPECI PASO 070423Z 00000KT 1 3/4SM -SN BR OVC018 01/00 A2970 RMK AO2 P0001 T00060000 TSNO","FM-16","7",,,,,,,,,,,,,,,,,,,,,,,,,,,,"2005-10-30"
"70362125516","2020-02-06T19:43:00","FM-16","7",,,,,,,,,,,,,,,,,,,,,,,,,,,,,,,,,,,,,,"29.69","31","33","0.02","-SN:03 BR:1 |SN |",,,"92",,"SCT:04 15 BKN:07 20 OVC:08 39","29.66","3.00","32","010",,"6",,,,,,,,,,,,,,,,,,,,,,,,,,,,,,,,,,,,,"MET11802/06/20 19:43:02 SPECI PASO 070443Z 01005KT 3SM -SN BR SCT015 BKN020 OVC039 01/M01 A2969 RMK AO2 P0002 T00061006 TSNO","FM-16","7",,,,,,,,,,,,,,,,,,,,,,,,,,,,"2005-10-30"
"70362125516","2020-02-06T19:53:00","FM-15","7",,,,,,,,,,,,,,,,,,,,,,,,,,,,,,,,,,,,,,"29.69","32","33","0.02",,,,"96","29.69","FEW:02 16 BKN:07 22 OVC:08 34","29.66","9.00","33","000",,"0",,,,,,,,,,,,,,,,,,,,,,,,,,,,,,,,,,,,,"MET12302/06/20 19:53:02 METAR PASO 070453Z 00000KT 9SM FEW016 BKN022 OVC034 01/00 A2969 RMK AO2 SNE50 SLP054 P0002 T00060000 TSNO","FM-15","7",,,,,,,,,,,,,,,,,,,,,,,,,,,,"2005-10-30"
"70362125516","2020-02-06T20:00:00","FM-16","7",,,,,,,,,,,,,,,,,,,,,,,,,,,,,,,,,,,,,,"29.69","32","33",,,,,"96",,"FEW:02 5 SCT:04 16 OVC:08 36","29.66","10.00","33","200",,"3",,,,,,,,,,,,,,,,,,,,,,,,,,,,,,,,,,,,,"MET10502/06/20 20:00:02 SPECI PASO 070500Z 20003KT 10SM FEW005 SCT016 OVC036 01/00 A2969 RMK AO2 T00060000 TSNO","FM-16","7",,,,,,,,,,,,,,,,,,,,,,,,,,,,"2005-10-30"
"70362125516","2020-02-06T20:42:00","FM-16","7",,,,,,,,,,,,,,,,,,,,,,,,,,,,,,,,,,,,,,"29.69","32","33","0.01","-SN:03 BR:1 |SN |",,,"96",,"FEW:02 20 OVC:08 26","29.66","5.00","33","000",,"0",,,,,,,,,,,,,,,,,,,,,,,,,,,,,,,,,,,,,"MET12402/06/20 20:42:02 SPECI PASO 070542Z 00000KT 5SM -SN BR FEW020 OVC026 01/00 A2969 RMK AO2 UPB09E11SNB11 P0001 T00060000 TSNO","FM-16","7",,,,,,,,,,,,,,,,,,,,,,,,,,,,"2005-10-30"
"70362125516","2020-02-06T20:53:00","FM-15","7",,,,,,,,,,,,,,,,,,,,,,,,,,,,,,,,,,,,,,"29.69","32","33","0.02","-SN:03 BR:1 |SN |","+0.01","5","96","29.69","SCT:04 16 OVC:08 23","29.66","3.00","33","000",,"0",,,,,,,,,,,,,,,,,,,,,,,,,,,,,,,,,,,,,"MET15502/06/20 20:53:02 METAR PASO 070553Z 00000KT 3SM -SN BR SCT016 OVC023 01/00 A2969 RMK AO2 UPB09E11SNB11 SLP055 P0002 60007 T00060000 10022 20000 55003 TSNO","FM-15","7",,,,,,,,,,,,,,,,,,,,,,,,,,,,"2005-10-30"
"70362125516","2020-02-06T21:21:00","FM-16","7",,,,,,,,,,,,,,,,,,,,,,,,,,,,,,,,,,,,,,"29.68","31","33","0.01","UP:09 ||",,,"92",,"FEW:02 12 OVC:08 32","29.65","9.00","32","020",,"3",,,,,,,,,,,,,,,,,,,,,,,,,,,,,,,,,,,,,"MET12402/06/20 21:21:02 SPECI PASO 070621Z 02003KT 9SM UP FEW012 OVC032 01/M01 A2968 RMK AO2 UPB10SNE10B14E15 P0001 T00061006 TSNO","FM-16","7",,,,,,,,,,,,,,,,,,,,,,,,,,,,"2005-10-30"
"70362125516","2020-02-06T21:50:00","FM-16","7",,,,,,,,,,,,,,,,,,,,,,,,,,,,,,,,,,,,,,"29.68","32","34","0.02","-SN:03 BR:1 |SN |",,,"93",,"BKN:07 26 OVC:08 34","29.65","3.00","33","000",,"0",,,,,,,,,,,,,,,,,,,,,,,,,,,,,,,,,,,,,"MET12302/06/20 21:50:02 SPECI PASO 070650Z 00000KT 3SM -SN BR BKN026 OVC034 01/00 A2968 RMK AO2 UPB10E42SNE10B14E15B42 P0002 TSNO","FM-16","7",,,,,,,,,,,,,,,,,,,,,,,,,,,,"2005-10-30"
"70362125516","2020-02-06T21:53:00","FM-15","7",,,,,,,,,,,,,,,,,,,,,,,,,,,,,,,,,,,,,,"29.68","32","33","0.02","-SN:03 BR:1 |SN |",,,"96","29.68","BKN:07 26 OVC:08 36","29.65","4.00","33","000",,"0",,,,,,,,,,,,,,,,,,,,,,,,,,,,,,,,,,,,,"MET14002/06/20 21:53:02 METAR PASO 070653Z 00000KT 4SM -SN BR BKN026 OVC036 01/00 A2968 RMK AO2 UPB10E42SNE10B14E15B42 SLP050 P0002 T00060000 TSNO","FM-15","7",,,,,,,,,,,,,,,,,,,,,,,,,,,,"2005-10-30"
"70362125516","2020-02-06T22:20:00","FM-16","7",,,,,,,,,,,,,,,,,,,,,,,,,,,,,,,,,,,,,,"29.67","31","33","0.01","UP:09 ||",,,"92",,"BKN:07 35 OVC:08 100","29.64","10.00","32","000",,"0",,,,,,,,,,,,,,,,,,,,,,,,,,,,,,,,,,,,,"MET11902/06/20 22:20:02 SPECI PASO 070720Z 00000KT 10SM UP BKN035 OVC100 01/M01 A2967 RMK AO2 UPB02SNE02 P0001 T00061006 TSNO","FM-16","7",,,,,,,,,,,,,,,,,,,,,,,,,,,,"2005-10-30"
"70362125516","2020-02-06T22:53:00","FM-15","7",,,,,,,,,,,,,,,,,,,,,,,,,,,,,,,,,,,,,,"29.66","31","33","0.02","UP:09 ||",,,"92","29.66","OVC:08 33","29.63","10.00","32","000",,"0",,,,,,,,,,,,,,,,,,,,,,,,,,,,,,,,,,,,,"MET11902/06/20 22:53:02 METAR PASO 070753Z 00000KT 10SM UP OVC033 01/M01 A2966 RMK AO2 UPB02SNE02 SLP045 P0002 T00061006 TSNO","FM-15","7",,,,,,,,,,,,,,,,,,,,,,,,,,,,"2005-10-30"
"70362125516","2020-02-06T23:18:00","FM-16","7",,,,,,,,,,,,,,,,,,,,,,,,,,,,,,,,,,,,,,"29.67","31","33","0.01","-SN:03 |SN |",,,"92",,"BKN:07 29 OVC:08 36","29.64","9.00","32","000",,"0",,,,,,,,,,,,,,,,,,,,,,,,,,,,,,,,,,,,,"MET12702/06/20 23:18:02 SPECI PASO 070818Z 00000KT 9SM -SN BKN029 OVC036 01/M01 A2967 RMK AO2 UPE14RAB14E16SNB16 P0001 T00061006 TSNO","FM-16","7",,,,,,,,,,,,,,,,,,,,,,,,,,,,"2005-10-30"
"70362125516","2020-02-06T23:53:00","FM-15","7",,,,,,,,,,,,,,,,,,,,,,,,,,,,,,,,,,,,,,"29.66","31","33","0.02","-RA:02 BR:1 |RA |RA","+0.02","8","92","29.66","SCT:04 14 OVC:08 21","29.63","6.00","32","200",,"3",,,,,,,,,,,,,,,,,,,,,,,,,,,,,,,,,,,,,"MET17702/06/20 23:53:02 METAR PASO 070853Z 20003KT 6SM -RA BR SCT014 OVC021 01/M01 A2966 RMK AO2 UPE14B25E27RAB14E16B27SNB16E25B36E51 SLP044 P0002 60006 T00061006 400221033 58007 TSNO","FM-15","7",,,,,,,,,,,,,,,,,,,,,,,,,,,,"2005-10-30"
"70362125516","2020-02-06T23:59:00","SOD  ","6",,,,,,,,,,,,,,,,"31",,,"29.67",,"2.4","0","4.4","34","36","26","180","15","0.13",,,"180","10","RA SN BR UP",,,,,,,,,,,,,,,,,,,,,,,,,,,,,,,,,,,,,,,,,,,,,,,,,,,,,,,,"SOD73024 HR PRECIPITATION (IN):0.13  24 HR MAX TEMP (F):36 24 HR MAX TEMP TIME (LST):1549 24 HR MIN TEMP (F):26 24 HR MIN TEMP TIME (LST):0751 AVERAGE STATION PRESSURE:29.675 MINIMUM SEA LEVEL PRESSURE:29.60 TIME OF OCCURRENCE:0010 PEAK WIND SPEED (MPH):15  PEAK WIND DIR (DEG):180 PEAK WIND TIME (LST):1500  FASTEST 2MIN SPEED (MPH):10 FASTEST 2MIN DIR (DEG):180 FASTEST 2MIN TIME (LST):1600 AVERAGE WIND SPEED (MPH):2.4  24 HR AVG TEMP (F):31 HEATING DEGREE DAYS:34  COOLING DEGREE DAYS:0   LATEST DAY MAX TEMP (0700-1900 LST):36  LATEST NIGHT MIN TEMP(1900-0800 LST):26 HOURLY INCREMENTAL PRECIPITATION VALUES (IN):.00 0.00 0.00 0.00 0.00 0.00 0.00 0.00 0.00 0.00 0.00 0.00 0.00 0.00 0.00 0.00 T    0.02 0.01 0.02 0.02 0.02 0.02 0.02","SOD  ","6",,,,,,,,,,,,,,,,,,,,,,,,,"0906","1737",,"2005-10-30"
"70362125516","2020-02-07T00:53:00","FM-15","7",,,,,,,,,,,,,,,,,,,,,,,,,,,,,,,,,,,,,,"29.65","32","33","0.04","-SN:03 BR:1 |SN |",,,"96","29.65","OVC:08 17","29.62","3.00","33","000",,"0",,,,,,,,,,,,,,,,,,,,,,,,,,,,,,,,,,,,,"MET12502/07/20 00:53:02 METAR PASO 070953Z 00000KT 3SM -SN BR OVC017 01/00 A2965 RMK AO2 RAE0854SNB0854 SLP040 P0004 T00060000 TSNO","FM-15","7",,,,,,,,,,,,,,,,,,,,,,,,,,,,"2005-10-30"
"70362125516","2020-02-07T01:53:00","FM-15","7",,,,,,,,,,,,,,,,,,,,,,,,,,,,,,,,,,,,,,"29.64","32","33","0.06","-SN:03 BR:1 |SN |",,,"96","29.65","OVC:08 17","29.61","4.00","33","000",,"0",,,,,,,,,,,,,,,,,,,,,,,,,,,,,,,,,,,,,"MET11002/07/20 01:53:02 METAR PASO 071053Z 00000KT 4SM -SN BR OVC017 01/00 A2964 RMK AO2 SLP039 P0005 T00060000 TSNO","FM-15","7",,,,,,,,,,,,,,,,,,,,,,,,,,,,"2005-10-30"
"70362125516","2020-02-07T02:53:00","FM-15","7",,,,,,,,,,,,,,,,,,,,,,,,,,,,,,,,,,,,,,"29.64","32","34","0.08","RA:02 BR:1 |RA |RA","+0.02","6","92","29.64","OVC:08 16","29.61","4.00","33","000",,"0",,,,,,,,,,,,,,,,,,,,,,,,,,,,,,,,,,,,,"MET15002/07/20 02:53:02 METAR PASO 071153Z 00000KT 4SM RA BR OVC016 01/00 A2964 RMK AO2 RAB08SNE40 SLP036 P0008 60023 70030 T00110000 10011 20006 56007 TSNO","FM-15","7",,,,,,,,,,,,,,,,,,,,,,,,,,,,"2005-10-30"
"70362125516","2020-02-07T03:53:00","FM-15","7",,,,,,,,,,,,,,,,,,,,,,,,,,,,,,,,,,,,,,"29.65","32","33","0.09","-SN:03 BR:1 |SN |",,,"96","29.65","OVC:08 18","29.62","4.00","33","040",,"6",,,,,,,,,,,,,,,,,,,,,,,,,,,,,,,,,,,,,"MET12102/07/20 03:53:02 METAR PASO 071253Z 04005KT 4SM -SN BR OVC018 01/00 A2965 RMK AO2 RAE16SNB16 SLP039 P0009 T00060000 TSNO","FM-15","7",,,,,,,,,,,,,,,,,,,,,,,,,,,,"2005-10-30"
"70362125516","2020-02-07T04:53:00","FM-15","7",,,,,,,,,,,,,,,,,,,,,,,,,,,,,,,,,,,,,,"29.66","32","33","0.07","-RA:02 |RA |RA",,,"96","29.66","FEW:02 10 OVC:08 24","29.63","8.00","33","020",,"3",,,,,,,,,,,,,,,,,,,,,,,,,,,,,,,,,,,,,"MET12502/07/20 04:53:02 METAR PASO 071353Z 02003KT 8SM -RA FEW010 OVC024 01/00 A2966 RMK AO2 RAB03SNE03 SLP044 P0007 T00060000 TSNO","FM-15","7",,,,,,,,,,,,,,,,,,,,,,,,,,,,"2005-10-30"
"70362125516","2020-02-07T05:21:00","FM-16","7",,,,,,,,,,,,,,,,,,,,,,,,,,,,,,,,,,,,,,"29.66","32","33","0.03","-SN:03 BR:1 |SN |",,,"96",,"OVC:08 14","29.63","4.00","33","000",,"0",,,,,,,,,,,,,,,,,,,,,,,,,,,,,,,,,,,,,"MET11802/07/20 05:21:02 SPECI PASO 071421Z 00000KT 4SM -SN BR OVC014 01/00 A2966 RMK AO2 RAE1359SNB1359 P0003 T00060000 TSNO","FM-16","7",,,,,,,,,,,,,,,,,,,,,,,,,,,,"2005-10-30"
"70362125516","2020-02-07T05:35:00","FM-16","7",,,,,,,,,,,,,,,,,,,,,,,,,,,,,,,,,,,,,,"29.67","32","33","0.04","-SN:03 BR:1 |SN |",,,"96",,"OVC:08 16","29.64","4.00","33","000",,"0",,,,,,,,,,,,,,,,,,,,,,,,,,,,,,,,,,,,,"MET11802/07/20 05:35:02 SPECI PASO 071435Z 00000KT 4SM -SN BR OVC016 01/00 A2967 RMK AO2 RAE1359SNB1359 P0004 T00060000 TSNO","FM-16","7",,,,,,,,,,,,,,,,,,,,,,,,,,,,"2005-10-30"
"70362125516","2020-02-07T05:51:00","FM-16","6",,,,,,,,,,,,,,,,,,,,,,,,,,,,,,,,,,,,,,"29.67","32","34",,"-RA:02 |RA |RA",,,"93",,"OVC:08 32","29.64","7.00","33","000",,"0",,,,,,,,,,,,,,,,,,,,,,,,,,,,,,,,,,,,,"MET11602/07/20 05:51:02 SPECI PASO 071451Z 00000KT 7SM -RA OVC032 01/00 A2967 RMK AO2 RAE1359B48SNB1359E48 P0006 TSNO FIBI","FM-16","6",,,,,,,,,,,,,,,,,,,,,,,,,,,,"2005-10-30"
"70362125516","2020-02-07T05:53:00","FM-15","7",,,,,,,,,,,,,,,,,,,,,,,,,,,,,,,,,,,,,,"29.67","32","33","0.05","-RA:02 |RA |RA","-0.03","3","96","29.67","OVC:08 32","29.64","7.00","33","000",,"0",,,,,,,,,,,,,,,,,,,,,,,,,,,,,,,,,,,,,"MET14002/07/20 05:53:02 METAR PASO 071453Z 00000KT 7SM -RA OVC032 01/00 A2967 RMK AO2 RAE1359B48SNB1359E48 SLP047 P0006 60022 T00060000 53011 TSNO","FM-15","7",,,,,,,,,,,,,,,,,,,,,,,,,,,,"2005-10-30"
"70362125516","2020-02-07T06:48:00","FM-16","7",,,,,,,,,,,,,,,,,,,,,,,,,,,,,,,,,,,,,,"29.68","32","34","0.03",,,,"93",,"FEW:02 4 BKN:07 32 OVC:08 70","29.65","10.00","33","000",,"0",,,,,,,,,,,,,,,,,,,,,,,,,,,,,,,,,,,,,"MET11502/07/20 06:48:02 SPECI PASO 071548Z 00000KT 10SM FEW004 BKN032 OVC070 01/00 A2968 RMK AO2 RAE32UPB08E20 P0003 TSNO","FM-16","7",,,,,,,,,,,,,,,,,,,,,,,,,,,,"2005-10-30"
"70362125516","2020-02-07T06:53:00","FM-15","7",,,,,,,,,,,,,,,,,,,,,,,,,,,,,,,,,,,,,,"29.68","32","33","0.03",,,,"96","29.68","FEW:02 23 BKN:07 30 OVC:08 70","29.65","10.00","33","000",,"0",,,,,,,,,,,,,,,,,,,,,,,,,,,,,,,,,,,,,"MET13202/07/20 06:53:02 METAR PASO 071553Z 00000KT 10SM FEW023 BKN030 OVC070 01/00 A2968 RMK AO2 RAE32UPB08E20 SLP052 P0003 T00060000 TSNO","FM-15","7",,,,,,,,,,,,,,,,,,,,,,,,,,,,"2005-10-30"
"70362125516","2020-02-07T07:53:00","FM-15","7",,,,,,,,,,,,,,,,,,,,,,,,,,,,,,,,,,,,,,"29.70","32","33","0.01",,,,"96","29.70","BKN:07 34 OVC:08 42","29.67","10.00","33","000",,"0",,,,,,,,,,,,,,,,,,,,,,,,,,,,,,,,,,,,,"MET11102/07/20 07:53:02 METAR PASO 071653Z 00000KT 10SM BKN034 OVC042 01/00 A2970 RMK AO2 SLP057 P0001 T00060000 TSNO","FM-15","7",,,,,,,,,,,,,,,,,,,,,,,,,,,,"2005-10-30"
"70362125516","2020-02-07T08:09:00","FM-16","7",,,,,,,,,,,,,,,,,,,,,,,,,,,,,,,,,,,,,,"29.71","32","33","T","-RA:02 |RA |RA",,,"96",,"BKN:07 28 OVC:08 34","29.68","10.00","33","000",,"0",,,,,,,,,,,,,,,,,,,,,,,,,,,,,,,,,,,,,"MET11402/07/20 08:09:02 SPECI PASO 071709Z 00000KT 10SM -RA BKN028 OVC034 01/00 A2971 RMK AO2 RAB08 P0000 T00060000 TSNO","FM-16","7",,,,,,,,,,,,,,,,,,,,,,,,,,,,"2005-10-30"
"70362125516","2020-02-07T08:24:00","FM-16","7",,,,,,,,,,,,,,,,,,,,,,,,,,,,,,,,,,,,,,"29.71","32","33","0.01","-RA:02 |RA |RA",,,"96",,"FEW:02 28 OVC:08 35","29.68","10.00","33","000",,"0",,,,,,,,,,,,,,,,,,,,,,,,,,,,,,,,,,,,,"MET11402/07/20 08:24:02 SPECI PASO 071724Z 00000KT 10SM -RA FEW028 OVC035 01/00 A2971 RMK AO2 RAB08 P0001 T00060000 TSNO","FM-16","7",,,,,,,,,,,,,,,,,,,,,,,,,,,,"2005-10-30"
"70362125516","2020-02-07T08:53:00","FM-15","7",,,,,,,,,,,,,,,,,,,,,,,,,,,,,,,,,,,,,,"29.72","32","33","0.03",,"-0.03","3","96","29.72","OVC:08 37","29.69","10.00","33","000",,"0",,,,,,,,,,,,,,,,,,,,,,,,,,,,,,,,,,,,,"MET13702/07/20 08:53:02 METAR PASO 071753Z 00000KT 10SM OVC037 01/00 A2972 RMK AO2 RAB08E39 SLP063 P0002 60028 T00060000 10011 20006 53011 TSNO","FM-15","7",,,,,,,,,,,,,,,,,,,,,,,,,,,,"2005-10-30"
"70362125516","2020-02-07T09:44:00","FM-16","7",,,,,,,,,,,,,,,,,,,,,,,,,,,,,,,,,,,,,,"29.73","31","33","0.02","BR:1 ||",,,"92",,"FEW:02 22 OVC:08 37","29.70","2.00","32","000",,"0",,,,,,,,,,,,,,,,,,,,,,,,,,,,,,,,,,,,,"MET10702/07/20 09:44:02 SPECI PASO 071844Z 00000KT 2SM BR FEW022 OVC037 01/M01 A2973 RMK AO2 P0002 T00061006 TSNO","FM-16","7",,,,,,,,,,,,,,,,,,,,,,,,,,,,"2005-10-30"
"70362125516","2020-02-07T09:51:00","FM-16","6",,,,,,,,,,,,,,,,,,,,,,,,,,,,,,,,,,,,,,"29.73","30","34",,"BR:1 ||",,,"87",,"FEW:02 22 OVC:08 37","29.70","4.00","32","000",,"0",,,,,,,,,,,,,,,,,,,,,,,,,,,,,,,,,,,,,"MET10202/07/20 09:51:02 SPECI PASO 071851Z 00000KT 4SM BR FEW022 OVC037 01/M01 A2973 RMK AO2 P0002 TSNO FIBI","FM-16","6",,,,,,,,,,,,,,,,,,,,,,,,,,,,"2005-10-30"
"70362125516","2020-02-07T09:53:00","FM-15","7",,,,,,,,,,,,,,,,,,,,,,,,,,,,,,,,,,,,,,"29.73","32","33","0.01","BR:1 ||",,,"96","29.73","FEW:02 20 OVC:08 36","29.70","4.00","33","000",,"0",,,,,,,,,,,,,,,,,,,,,,,,,,,,,,,,,,,,,"MET11302/07/20 09:53:02 METAR PASO 071853Z 00000KT 4SM BR FEW020 OVC036 01/00 A2973 RMK AO2 SLP067 P0002 T00060000 TSNO","FM-15","7",,,,,,,,,,,,,,,,,,,,,,,,,,,,"2005-10-30"
"70362125516","2020-02-07T10:03:00","FM-16","7",,,,,,,,,,,,,,,,,,,,,,,,,,,,,,,,,,,,,,"29.73","32","33",,"BR:1 ||",,,"96",,"OVC:08 35","29.70","2.00","33","000",,"0",,,,,,,,,,,,,,,,,,,,,,,,,,,,,,,,,,,,,"MET09302/07/20 10:03:02 SPECI PASO 071903Z 00000KT 2SM BR OVC035 01/00 A2973 RMK AO2 T00060000 TSNO","FM-16","7",,,,,,,,,,,,,,,,,,,,,,,,,,,,"2005-10-30"
"70362125516","2020-02-07T10:15:00","FM-16","7",,,,,,,,,,,,,,,,,,,,,,,,,,,,,,,,,,,,,,"29.74","32","33",,"BR:1 ||",,,"96",,"OVC:08 37","29.71","4.00","33","000",,"0",,,,,,,,,,,,,,,,,,,,,,,,,,,,,,,,,,,,,"MET09302/07/20 10:15:02 SPECI PASO 071915Z 00000KT 4SM BR OVC037 01/00 A2974 RMK AO2 T00060000 TSNO","FM-16","7",,,,,,,,,,,,,,,,,,,,,,,,,,,,"2005-10-30"
"70362125516","2020-02-07T10:40:00","FM-16","7",,,,,,,,,,,,,,,,,,,,,,,,,,,,,,,,,,,,,,"29.75","31","33",,"BR:1 ||",,,"92",,"FEW:02 2 BKN:07 38","29.72","3.00","32","000",,"0",,,,,,,,,,,,,,,,,,,,,,,,,,,,,,,,,,,,,"MET10102/07/20 10:40:02 SPECI PASO 071940Z 00000KT 3SM BR FEW002 BKN038 01/M01 A2975 RMK AO2 T00061006 TSNO","FM-16","7",,,,,,,,,,,,,,,,,,,,,,,,,,,,"2005-10-30"
"70362125516","2020-02-07T10:48:00","FM-16","7",,,,,,,,,,,,,,,,,,,,,,,,,,,,,,,,,,,,,,"29.75","30","34",,"BR:1 ||",,,"87",,"FEW:02 2 BKN:07 39","29.72","2.00V","32","000",,"0",,,,,,,,,,,,,,,,,,,,,,,,,,,,,,,,,,,,,"MET10302/07/20 10:48:02 SPECI PASO 071948Z 00000KT 2SM BR FEW002 BKN039 01/M01 A2975 RMK AO2 VIS 1 1/4V4 TSNO","FM-16","7",,,,,,,,,,,,,,,,,,,,,,,,,,,,"2005-10-30"
"70362125516","2020-02-07T10:51:00","FM-16","6",,,,,,,,,,,,,,,,,,,,,,,,,,,,,,,,,,,,,,"29.75","32","34",,"BR:1 ||",,,"93",,"FEW:02 1 BKN:07 39","29.72","3.00","33","000",,"0",,,,,,,,,,,,,,,,,,,,,,,,,,,,,,,,,,,,,"MET09502/07/20 10:51:02 SPECI PASO 071951Z 00000KT 3SM BR FEW001 BKN039 01/00 A2975 RMK AO2 TSNO FIBI","FM-16","6",,,,,,,,,,,,,,,,,,,,,,,,,,,,"2005-10-30"
"70362125516","2020-02-07T10:53:00","FM-15","7",,,,,,,,,,,,,,,,,,,,,,,,,,,,,,,,,,,,,,"29.75","32","33","0.00","BR:1 ||",,,"96","29.75","FEW:02 1 BKN:07 38","29.72","3.00","33","000",,"0",,,,,,,,,,,,,,,,,,,,,,,,,,,,,,,,,,,,,"MET10702/07/20 10:53:02 METAR PASO 071953Z 00000KT 3SM BR FEW001 BKN038 01/00 A2975 RMK AO2 SLP074 T00060000 TSNO","FM-15","7",,,,,,,,,,,,,,,,,,,,,,,,,,,,"2005-10-30"
"70362125516","2020-02-07T11:39:00","FM-16","7",,,,,,,,,,,,,,,,,,,,,,,,,,,,,,,,,,,,,,"29.76","33","34",,"BR:1 ||",,,"97",,"BKN:07 40","29.73","2.50","34","000",,"0",,,,,,,,,,,,,,,,,,,,,,,,,,,,,,,,,,,,,"MET09702/07/20 11:39:02 SPECI PASO 072039Z 00000KT 2 1/2SM BR BKN040 01/01 A2976 RMK AO2 T00110006 TSNO","FM-16","7",,,,,,,,,,,,,,,,,,,,,,,,,,,,"2005-10-30"
"70362125516","2020-02-07T11:48:00","FM-16","7",,,,,,,,,,,,,,,,,,,,,,,,,,,,,,,,,,,,,,"29.76","34","34",,"BR:1 ||",,,"100",,"BKN:07 40","29.73","6.00","34","000",,"0",,,,,,,,,,,,,,,,,,,,,,,,,,,,,,,,,,,,,"MET08302/07/20 11:48:02 SPECI PASO 072048Z 00000KT 6SM BR BKN040 01/01 A2976 RMK AO2 TSNO","FM-16","7",,,,,,,,,,,,,,,,,,,,,,,,,,,,"2005-10-30"
"70362125516","2020-02-07T11:53:00","FM-15","7",,,,,,,,,,,,,,,,,,,,,,,,,,,,,,,,,,,,,,"29.76","33","34","0.00","BR:1 ||","-0.02","2","97","29.76","BKN:07 40","29.73","6.00","34","000",,"0",,,,,,,,,,,,,,,,,,,,,,,,,,,,,,,,,,,,,"MET11202/07/20 11:53:02 METAR PASO 072053Z 00000KT 6SM BR BKN040 01/01 A2976 RMK AO2 SLP079 60002 T00110006 52006 TSNO","FM-15","7",,,,,,,,,,,,,,,,,,,,,,,,,,,,"2005-10-30"
"70362125516","2020-02-07T12:53:00","FM-15","7",,,,,,,,,,,,,,,,,,,,,,,,,,,,,,,,,,,,,,"29.78","35","37","0.00",,,,"93","29.78","OVC:08 42","29.75","10.00","36","000",,"0",,,,,,,,,,,,,,,,,,,,,,,,,,,,,,,,,,,,,"MET09802/07/20 12:53:02 METAR PASO 072153Z 00000KT 10SM OVC042 03/02 A2978 RMK AO2 SLP086 T00280017 TSNO","FM-15","7",,,,,,,,,,,,,,,,,,,,,,,,,,,,"2005-10-30"
"70362125516","2020-02-07T13:53:00","FM-15","7",,,,,,,,,,,,,,,,,,,,,,,,,,,,,,,,,,,,,,"29.79","34","36","0.00",,,,"93","29.79","OVC:08 42","29.76","10.00","35","190",,"3",,,,,,,,,,,,,,,,,,,,,,,,,,,,,,,,,,,,,"MET09802/07/20 13:53:02 METAR PASO 072253Z 19003KT 10SM OVC042 02/01 A2979 RMK AO2 SLP088 T00220011 TSNO","FM-15","7",,,,,,,,,,,,,,,,,,,,,,,,,,,,"2005-10-30"
"70362125516","2020-02-07T14:53:00","FM-15","7",,,,,,,,,,,,,,,,,,,,,,,,,,,,,,,,,,,,,,"29.79","34","36","0.00",,"-0.03","1","93","29.79","BKN:07 40","29.76","10.00","35","210",,"3",,,,,,,,,,,,,,,,,,,,,,,,,,,,,,,,,,,,,"MET12202/07/20 14:53:02 METAR PASO 072353Z 21003KT 10SM BKN040 02/01 A2979 RMK AO2 SLP089 60002 T00220011 10028 20006 51010 TSNO","FM-15","7",,,,,,,,,,,,,,,,,,,,,,,,,,,,"2005-10-30"
"70362125516","2020-02-07T15:53:00","FM-15","7",,,,,,,,,,,,,,,,,,,,,,,,,,,,,,,,,,,,,,"29.79","33","36","0.00",,,,"89","29.79","FEW:02 35 BKN:07 48","29.76","10.00","35","190",,"6",,,,,,,,,,,,,,,,,,,,,,,,,,,,,,,,,,,,,"MET10502/07/20 15:53:01 METAR PASO 080053Z 19005KT 10SM FEW035 BKN048 02/01 A2979 RMK AO2 SLP089 T00220006 TSNO","FM-15","7",,,,,,,,,,,,,,,,,,,,,,,,,,,,"2005-10-30"
"70362125516","2020-02-07T16:53:00","FM-15","7",,,,,,,,,,,,,,,,,,,,,,,,,,,,,,,,,,,,,,"29.79","32","34","0.00",,,,"92","29.79","FEW:02 27","29.76","10.00","33","000",,"0",,,,,,,,,,,,,,,,,,,,,,,,,,,,,,,,,,,,,"MET09802/07/20 16:53:01 METAR PASO 080153Z 00000KT 10SM FEW027 01/00 A2979 RMK AO2 SLP089 T00110000 TSNO","FM-15","7",,,,,,,,,,,,,,,,,,,,,,,,,,,,"2005-10-30"
"70362125516","2020-02-07T17:10:00","FM-16","7",,,,,,,,,,,,,,,,,,,,,,,,,,,,,,,,,,,,,,"29.80","32","34",,,,,"92",,"BKN:07 27","29.77","10.00","33","000",,"0",,,,,,,,,,,,,,,,,,,,,,,,,,,,,,,,,,,,,"MET09102/07/20 17:10:01 SPECI PASO 080210Z 00000KT 10SM BKN027 01/00 A2980 RMK AO2 T00110000 TSNO","FM-16","7",,,,,,,,,,,,,,,,,,,,,,,,,,,,"2005-10-30"
"70362125516","2020-02-07T17:53:00","FM-15","7",,,,,,,,,,,,,,,,,,,,,,,,,,,,,,,,,,,,,,"29.80","30","32","0.00","BR:1 ||","-0.01","3","92","29.80","SCT:04 16 BKN:07 24","29.77","4.00","31","000",,"0",,,,,,,,,,,,,,,,,,,,,,,,,,,,,,,,,,,,,"MET11402/07/20 17:53:01 METAR PASO 080253Z 00000KT 4SM BR SCT016 BKN024 00/M01 A2980 RMK AO2 SLP091 T00001011 53002 TSNO","FM-15","7",,,,,,,,,,,,,,,,,,,,,,,,,,,,"2005-10-30"
"70362125516","2020-02-07T17:56:00","FM-16","7",,,,,,,,,,,,,,,,,,,,,,,,,,,,,,,,,,,,,,"29.80","29","32",,"BR:1 ||",,,"88",,"SCT:04 14 BKN:07 25","29.77","1.75","31","000",,"0",,,,,,,,,,,,,,,,,,,,,,,,,,,,,,,,,,,,,"MET10502/07/20 17:56:01 SPECI PASO 080256Z 00000KT 1 3/4SM BR SCT014 BKN025 00/M02 A2980 RMK AO2 T00001017 TSNO","FM-16","7",,,,,,,,,,,,,,,,,,,,,,,,,,,,"2005-10-30"
"70362125516","2020-02-07T18:02:00","FM-16","7",,,,,,,,,,,,,,,,,,,,,,,,,,,,,,,,,,,,,,"29.79","29","31",,"FZ:8 FG:2 |FG |",,,"92",,"BKN:07 12 BKN:07 25","29.76","0.50","30","000",,"0",,,,,,,,,,,,,,,,,,,,,,,,,,,,,,,,,,,,,"MET10602/07/20 18:02:01 SPECI PASO 080302Z 00000KT 1/2SM FZFG BKN012 BKN025 M01/M02 A2979 RMK AO2 T10061017 TSNO","FM-16","7",,,,,,,,,,,,,,,,,,,,,,,,,,,,"2005-10-30"
"70362125516","2020-02-07T18:06:00","FM-16","7",,,,,,,,,,,,,,,,,,,,,,,,,,,,,,,,,,,,,,"29.79","28","31",,"FZ:8 FG:2 |FG |",,,"89",,"BKN:07 8 BKN:07 25","29.76","0.25","30","000",,"0",,,,,,,,,,,,,,,,,,,,,,,,,,,,,,,,,,,,,"MET10602/07/20 18:06:01 SPECI PASO 080306Z 00000KT 1/4SM FZFG BKN008 BKN025 M01/M02 A2979 RMK AO2 T10061022 TSNO","FM-16","7",,,,,,,,,,,,,,,,,,,,,,,,,,,,"2005-10-30"
"70362125516","2020-02-07T18:16:00","FM-16","7",,,,,,,,,,,,,,,,,,,,,,,,,,,,,,,,,,,,,,"29.79","29","31",,"BR:1 ||",,,"92",,"VV:09 4","29.76","0.75","30","000",,"0",,,,,,,,,,,,,,,,,,,,,,,,,,,,,,,,,,,,,"MET10202/07/20 18:16:01 SPECI PASO 080316Z 00000KT 3/4SM BR VV004 M01/M02 A2979 RMK AO2 I1000 T10061017 TSNO","FM-16","7",,,,,,,,,,,,,,,,,,,,,,,,,,,,"2005-10-30"
"70362125516","2020-02-07T18:20:00","FM-16","7",,,,,,,,,,,,,,,,,,,,,,,,,,,,,,,,,,,,,,"29.79","29","31",,"BR:1 ||",,,"92",,"SCT:04 4","29.76","1.25","30","000",,"0",,,,,,,,,,,,,,,,,,,,,,,,,,,,,,,,,,,,,"MET10502/07/20 18:20:01 SPECI PASO 080320Z 00000KT 1 1/4SM BR SCT004 M01/M02 A2979 RMK AO2 I1000 T10061017 TSNO","FM-16","7",,,,,,,,,,,,,,,,,,,,,,,,,,,,"2005-10-30"
"70362125516","2020-02-07T18:26:00","FM-16","7",,,,,,,,,,,,,,,,,,,,,,,,,,,,,,,,,,,,,,"29.79","30","32",,"BR:1 ||",,,"92",,"SCT:04 4","29.76","3.00","31","000",,"0",,,,,,,,,,,,,,,,,,,,,,,,,,,,,,,,,,,,,"MET10002/07/20 18:26:01 SPECI PASO 080326Z 00000KT 3SM BR SCT004 00/M01 A2979 RMK AO2 I1000 T00001011 TSNO","FM-16","7",,,,,,,,,,,,,,,,,,,,,,,,,,,,"2005-10-30"
"70362125516","2020-02-07T18:53:00","FM-15","7",,,,,,,,,,,,,,,,,,,,,,,,,,,,,,,,,,,,,,"29.79","30","33","0.00",,,,"89","29.79","CLR:00","29.76","10.00","32","000",,"0",,,,,,,,,,,,,,,,,,,,,,,,,,,,,,,,,,,,,"MET10202/07/20 18:53:01 METAR PASO 080353Z 00000KT 10SM CLR 01/M01 A2979 RMK AO2 SLP089 I1001 T00061011 TSNO","FM-15","7",,,,,,,,,,,,,,,,,,,,,,,,,,,,"2005-10-30"
"70362125516","2020-02-07T19:53:00","FM-15","7",,,,,,,,,,,,,,,,,,,,,,,,,,,,,,,,,,,,,,"29.79","30","32","0.00",,,,"92","29.78","CLR:00","29.76","10.00","31","010",,"3",,,,,,,,,,,,,,,,,,,,,,,,,,,,,,,,,,,,,"MET09602/07/20 19:53:02 METAR PASO 080453Z 01003KT 10SM CLR 00/M01 A2979 RMK AO2 SLP086 T00001011 TSNO","FM-15","7",,,,,,,,,,,,,,,,,,,,,,,,,,,,"2005-10-30"
"70362125516","2020-02-07T20:53:00","FM-15","7",,,,,,,,,,,,,,,,,,,,,,,,,,,,,,,,,,,,,,"29.76","30","32","0.00",,"+0.04","8","92","29.76","FEW:02 30 BKN:07 35","29.73","10.00","31","000",,"0",,,,,,,,,,,,,,,,,,,,,,,,,,,,,,,,,,,,,"MET13602/07/20 20:53:02 METAR PASO 080553Z 00000KT 10SM FEW030 BKN035 00/M01 A2976 RMK AO2 SLP078 I1000 I6001 T00001011 10028 21006 58013 TSNO","FM-15","7",,,,,,,,,,,,,,,,,,,,,,,,,,,,"2005-10-30"
"70362125516","2020-02-07T21:53:00","FM-15","7",,,,,,,,,,,,,,,,,,,,,,,,,,,,,,,,,,,,,,"29.76","31","33","0.00",,,,"92","29.76","BKN:07 35","29.73","10.00","32","VRB",,"3",,,,,,,,,,,,,,,,,,,,,,,,,,,,,,,,,,,,,"MET09902/07/20 21:53:02 METAR PASO 080653Z VRB03KT 10SM BKN035 01/M01 A2976 RMK AO2 SLP078 T00061006 TSNO","FM-15","7",,,,,,,,,,,,,,,,,,,,,,,,,,,,"2005-10-30"
"70362125516","2020-02-07T22:51:00","FM-16","6",,,,,,,,,,,,,,,,,,,,,,,,,,,,,,,,,,,,,,"29.75","32","36",,"-RA:02 |RA |RA",,,"87",,"BKN:07 27 BKN:07 35 OVC:08 100","29.72","10.00","34","VRB",,"8",,,,,,,,,,,,,,,,,,,,,,,,,,,,,,,,,,,,,"MET11602/07/20 22:51:03 SPECI PASO 080751Z 18007KT 10SM -RA BKN027 BKN035 OVC100 02/00 A2975 RMK AO2 RAB10 P0000 TSNO FIBI","FM-16","6",,,,,,,,,,,,,,,,,,,,,,,,,,,,"2005-10-30"
"70362125516","2020-02-07T22:53:00","FM-15","7",,,,,,,,,,,,,,,,,,,,,,,,,,,,,,,,,,,,,,"29.75","32","35","T","-RA:02 |RA |RA",,,"89","29.75","BKN:07 25 BKN:07 34 OVC:08 110","29.72","10.00","34","170",,"7",,,,,,,,,,,,,,,,,,,,,,,,,,,,,,,,,,,,,"MET12802/07/20 22:53:02 METAR PASO 080753Z 17006KT 10SM -RA BKN025 BKN034 OVC110 02/00 A2975 RMK AO2 RAB10 SLP075 P0000 T00170000 TSNO","FM-15","7",,,,,,,,,,,,,,,,,,,,,,,,,,,,"2005-10-30"
"70362125516","2020-02-07T23:05:00","FM-16","7",,,,,,,,,,,,,,,,,,,,,,,,,,,,,,,,,,,,,,"29.75","32","36","T","UP:09 ||",,,"86",,"SCT:04 28 OVC:08 95","29.72","10.00","34","190","18","8",,,,,,,,,,,,,,,,,,,,,,,,,,,,,,,,,,,,,"MET12102/07/20 23:05:02 SPECI PASO 080805Z 19007G16KT 10SM UP SCT028 OVC095 02/00 A2975 RMK AO2 RAE05UPB05 P0000 T00220000 TSNO","FM-16","7",,,,,,,,,,,,,,,,,,,,,,,,,,,,"2005-10-30"
"70362125516","2020-02-07T23:53:00","FM-15","7",,,,,,,,,,,,,,,,,,,,,,,,,,,,,,,,,,,,,,"29.74","33","35","0.01","-RA:02 |RA |RA","+0.02","8","93","29.74","OVC:08 33","29.71","10.00","34","VRB",,"3",,,,,,,,,,,,,,,,,,,,,,,,,,,,,,,,,,,,,"MET14702/07/20 23:53:02 METAR PASO 080853Z VRB03KT 10SM -RA OVC033 02/01 A2974 RMK AO2 RAE05B07UPB05E25 SLP071 P0001 60001 T00170006 400281006 58007 TSNO","FM-15","7",,,,,,,,,,,,,,,,,,,,,,,,,,,,"2005-10-30"
"70362125516","2020-02-07T23:59:00","SOD  ","6",,,,,,,,,,,,,,,,"34",,,"29.69",,"1.6","0","7.3","31","37","31","170","18","0.48",,,"190","10","RA SN FZFG BR UP FG",,,,,,,,,,,,,,,,,,,,,,,,,,,,,,,,,,,,,,,,,,,,,,,,,,,,,,,,"SOD73024 HR PRECIPITATION (IN):0.48  24 HR MAX TEMP (F):37 24 HR MAX TEMP TIME (LST):1533 24 HR MIN TEMP (F):31 24 HR MIN TEMP TIME (LST):2024 AVERAGE STATION PRESSURE:29.690 MINIMUM SEA LEVEL PRESSURE:29.63 TIME OF OCCURRENCE:0302 PEAK WIND SPEED (MPH):18  PEAK WIND DIR (DEG):170 PEAK WIND TIME (LST):2256  FASTEST 2MIN SPEED (MPH):10 FASTEST 2MIN DIR (DEG):190 FASTEST 2MIN TIME (LST):2310 AVERAGE WIND SPEED (MPH):1.6  24 HR AVG TEMP (F):34 HEATING DEGREE DAYS:31  COOLING DEGREE DAYS:0   LATEST DAY MAX TEMP (0700-1900 LST):37  LATEST NIGHT MIN TEMP(1900-0800 LST):33 HOURLY INCREMENTAL PRECIPITATION VALUES (IN):.04 0.06 0.08 0.09 0.07 0.05 0.03 0.01 0.03 0.01 0.00 0.00 0.00 0.00 0.00 0.00 0.00 0.00 0.00 0.00 0.00 0.00 T    0.01","SOD  ","6",,,,,,,,,,,,,,,,,,,,,,,,,"0904","1740",,"2005-10-30"
"70362125516","2020-02-08T00:20:00","FM-16","7",,,,,,,,,,,,,,,,,,,,,,,,,,,,,,,,,,,,,,"29.71","33","34","0.01","-RA:02 |RA |RA",,,"97",,"BKN:07 28 OVC:08 34","29.68","7.00","34","000",,"0",,,,,,,,,,,,,,,,,,,,,,,,,,,,,,,,,,,,,"MET10702/08/20 00:20:02 SPECI PASO 080920Z 00000KT 7SM -RA BKN028 OVC034 01/01 A2971 RMK AO2 P0001 T00110006 TSNO","FM-16","7",,,,,,,,,,,,,,,,,,,,,,,,,,,,"2005-10-30"
"70362125516","2020-02-08T00:53:00","FM-15","7",,,,,,,,,,,,,,,,,,,,,,,,,,,,,,,,,,,,,,"29.70","32","33","0.04","-RA:02 BR:1 |RA |RA",,,"96","29.70","OVC:08 20","29.67","5.00","33","000",,"0",,,,,,,,,,,,,,,,,,,,,,,,,,,,,,,,,,,,,"MET11902/08/20 00:53:02 METAR PASO 080953Z 00000KT 5SM -RA BR OVC020 01/00 A2970 RMK AO2 SNB40E50 SLP059 P0003 T00060000 TSNO","FM-15","7",,,,,,,,,,,,,,,,,,,,,,,,,,,,"2005-10-30"
"70362125516","2020-02-08T01:53:00","FM-15","7",,,,,,,,,,,,,,,,,,,,,,,,,,,,,,,,,,,,,,"29.67","32","33","0.05","-SN:03 BR:1 |SN |",,,"96","29.67","OVC:08 18","29.64","4.00","33","000",,"0",,,,,,,,,,,,,,,,,,,,,,,,,,,,,,,,,,,,,"MET13002/08/20 01:53:02 METAR PASO 081053Z 00000KT 4SM -SN BR OVC018 01/00 A2967 RMK AO2 RAE22SNB0959 PRESFR SLP046 P0006 T00060000 TSNO","FM-15","7",,,,,,,,,,,,,,,,,,,,,,,,,,,,"2005-10-30"
"70362125516","2020-02-08T02:35:00","FM-16","7",,,,,,,,,,,,,,,,,,,,,,,,,,,,,,,,,,,,,,"29.63","33","35","0.04","-RA:02 |RA |RA",,,"93",,"BKN:07 30 OVC:08 41","29.60","8.00","34","VRB",,"3",,,,,,,,,,,,,,,,,,,,,,,,,,,,,,,,,,,,,"MET12002/08/20 02:35:02 SPECI PASO 081135Z VRB03KT 8SM -RA BKN030 OVC041 02/01 A2963 RMK AO2 RAB1057SNE03 P0004 T00170006 TSNO","FM-16","7",,,,,,,,,,,,,,,,,,,,,,,,,,,,"2005-10-30"
"70362125516","2020-02-08T02:51:00","FM-16","7",,,,,,,,,,,,,,,,,,,,,,,,,,,,,,,,,,,,,,"29.61","32","34","0.05","-RA:02 |RA |RA",,,"93",,"BKN:07 26 OVC:08 35","29.58","7.00","33","300",,"3",,,,,,,,,,,,,,,,,,,,,,,,,,,,,,,,,,,,,"MET11002/08/20 02:51:02 SPECI PASO 081151Z 30003KT 7SM -RA BKN026 OVC035 01/00 A2961 RMK AO2 RAB1057SNE03 P0005 TSNO","FM-16","7",,,,,,,,,,,,,,,,,,,,,,,,,,,,"2005-10-30"
"70362125516","2020-02-08T02:53:00","FM-15","6",,,,,,,,,,,,,,,,,,,,,,,,,,,,,,,,,,,,,,"29.62","32","35","0.06","-RA:02 |RA |RA","+0.09","5","89","29.62","BKN:07 26 OVC:08 35","29.59","7.00","34","VRB",,"3",,,,,,,,,,,,,,,,,,,,,,,,,,,,,,,,,,,,,"MET15702/08/20 02:53:02 METAR PASO 081153Z VRB03KT 7SM -RA BKN026 OVC035 02/00 A2962 RMK AO2 RAB1057SNE03 SLP029 P0005 60015 70045 T00170000 10022 20000 55030 TSNO","FM-15","6",,,,,,,,,,,,,,,,,,,,,,,,,,,,"2005-10-30"
"70362125516","2020-02-08T03:23:00","FM-16","7",,,,,,,,,,,,,,,,,,,,,,,,,,,,,,,,,,,,,,"29.61","32","35","0.03",,,,"89",,"BKN:07 35 BKN:07 46 OVC:08 80","29.58","10.00","34","000",,"0",,,,,,,,,,,,,,,,,,,,,,,,,,,,,,,,,,,,,"MET12502/08/20 03:23:02 SPECI PASO 081223Z 00000KT 10SM BKN035 BKN046 OVC080 02/00 A2961 RMK AO2 RAE21UPB17E20 P0003 T00170000 TSNO","FM-16","7",,,,,,,,,,,,,,,,,,,,,,,,,,,,"2005-10-30"
"70362125516","2020-02-08T03:53:00","FM-15","7",,,,,,,,,,,,,,,,,,,,,,,,,,,,,,,,,,,,,,"29.58","32","36","0.05","-RA:02 BR:1 |RA |RA",,,"86","29.58","OVC:08 33","29.55","6.00","34","190","20","8",,,,,,,,,,,,,,,,,,,,,,,,,,,,,,,,,,,,,"MET13602/08/20 03:53:02 METAR PASO 081253Z 19007G17KT 6SM -RA BR OVC033 02/00 A2958 RMK AO2 RAE21B37UPB17E20B29E37 SLP017 P0005 T00220000 TSNO","FM-15","7",,,,,,,,,,,,,,,,,,,,,,,,,,,,"2005-10-30"
"70362125516","2020-02-08T04:14:00","FM-16","7",,,,,,,,,,,,,,,,,,,,,,,,,,,,,,,,,,,,,,"29.57","32","36","0.03","-RA:02 BR:1 |RA |RA",,,"86",,"OVC:08 27","29.54","5.00","34","VRB","22","10",,,,,,,,,,,,,,,,,,,,,,,,,,,,,,,,,,,,,"MET10602/08/20 04:14:02 SPECI PASO 081314Z 19009G19KT 5SM -RA BR OVC027 02/00 A2957 RMK AO2 P0003 T00220000 TSNO","FM-16","7",,,,,,,,,,,,,,,,,,,,,,,,,,,,"2005-10-30"
"70362125516","2020-02-08T04:51:00","FM-16","6",,,,,,,,,,,,,,,,,,,,,,,,,,,,,,,,,,,,,,"29.54","32","36",,"-RA:02 |RA |RA",,,"87",,"OVC:08 31","29.51","8.00","34","170","22","11",,,,,,,,,,,,,,,,,,,,,,,,,,,,,,,,,,,,,"MET10702/08/20 04:51:02 SPECI PASO 081351Z 17010G19KT 8SM -RA OVC031 02/00 A2954 RMK AO2 UPB42E48 P0007 TSNO FIBI","FM-16","6",,,,,,,,,,,,,,,,,,,,,,,,,,,,"2005-10-30"
"70362125516","2020-02-08T04:53:00","FM-15","7",,,,,,,,,,,,,,,,,,,,,,,,,,,,,,,,,,,,,,"29.54","33","36","0.07","-RA:02 |RA |RA",,,"89","29.54","OVC:08 31","29.51","8.00","35","VRB","22","10",,,,,,,,,,,,,,,,,,,,,,,,,,,,,,,,,,,,,"MET11902/08/20 04:53:02 METAR PASO 081353Z 18009G19KT 8SM -RA OVC031 02/01 A2954 RMK AO2 UPB42E48 SLP003 P0007 T00220006 TSNO","FM-15","7",,,,,,,,,,,,,,,,,,,,,,,,,,,,"2005-10-30"
"70362125516","2020-02-08T05:19:00","FM-16","6",,,,,,,,,,,,,,,,,,,,,,,,,,,,,,,,,,,,,,"29.54","34","36",,"-RA:02 |RA |RA",,,"93",,"OVC:08 27","29.51","8.00","35","170","23","8",,,,,,,,,,,,,,,,,,,,,,,,,,,,,,,,,,,,,"MET11402/08/20 05:19:02 SPECI PASO 081419Z 17007G20KT 8SM -RA OVC027 02/01 A2954 RMK AO2 UPB1358E01 P0003 T00220011 TSNO","FM-16","6",,,,,,,,,,,,,,,,,,,,,,,,,,,,"2005-10-30"
"70362125516","2020-02-08T05:46:00","FM-16","7",,,,,,,,,,,,,,,,,,,,,,,,,,,,,,,,,,,,,,"29.54","35","36","0.06","-RA:02 |RA |RA",,,"97",,"FEW:02 23 BKN:07 70 OVC:08 100","29.51","10.00","36","VRB",,"7",,,,,,,,,,,,,,,,,,,,,,,,,,,,,,,,,,,,,"MET12602/08/20 05:46:02 SPECI PASO 081446Z VRB06KT 10SM -RA FEW023 BKN070 OVC100 02/02 A2954 RMK AO2 UPB1358E01 P0006 T00220017 TSNO","FM-16","7",,,,,,,,,,,,,,,,,,,,,,,,,,,,"2005-10-30"
"70362125516","2020-02-08T05:53:00","FM-15","7",,,,,,,,,,,,,,,,,,,,,,,,,,,,,,,,,,,,,,"29.54","35","36","0.06","-RA:02 |RA |RA","+0.08","6","97","29.54","FEW:02 23 BKN:07 55 OVC:08 110","29.51","7.00","36","180","20","13",,,,,,,,,,,,,,,,,,,,,,,,,,,,,,,,,,,,,"MET14702/08/20 05:53:02 METAR PASO 081453Z 18011G17KT 7SM -RA FEW023 BKN055 OVC110 02/02 A2954 RMK AO2 UPB1358E01 SLP003 P0006 60018 T00220017 56026 TSNO","FM-15","7",,,,,,,,,,,,,,,,,,,,,,,,,,,,"2005-10-30"
"70362125516","2020-02-08T06:53:00","FM-15","7",,,,,,,,,,,,,,,,,,,,,,,,,,,,,,,,,,,,,,"29.52","33","36","0.06","-RA:02 |RA |RA",,,"89","29.52","BKN:07 41 OVC:08 60","29.49","10.00","35","150","22","14",,,,,,,,,,,,,,,,,,,,,,,,,,,,,,,,,,,,,"MET13402/08/20 06:53:02 METAR PASO 081553Z 15012G19KT 10SM -RA BKN041 OVC060 02/01 A2952 RMK AO2 UPB08E11 PRESFR SLP996 P0006 T00220006 TSNO","FM-15","7",,,,,,,,,,,,,,,,,,,,,,,,,,,,"2005-10-30"
"70362125516","2020-02-08T07:25:00","FM-16","7",,,,,,,,,,,,,,,,,,,,,,,,,,,,,,,,,,,,,,"29.48","35","36","0.03","-RA:02 |RA |RA",,,"97",,"FEW:02 18 BKN:07 24 OVC:08 120","29.45","9.00","36","170","26","16",,,,,,,,,,,,,,,,,,,,,,,,,,,,,,,,,,,,,"MET11702/08/20 07:25:02 SPECI PASO 081625Z 17014G23KT 9SM -RA FEW018 BKN024 OVC120 02/02 A2948 RMK AO2 P0003 T00220017 TSNO","FM-16","7",,,,,,,,,,,,,,,,,,,,,,,,,,,,"2005-10-30"
"70362125516","2020-02-08T07:42:00","FM-16","7",,,,,,,,,,,,,,,,,,,,,,,,,,,,,,,,,,,,,,"29.47","35","36","0.06","-RA:02 |RA |RA",,,"97",,"FEW:02 16 OVC:08 120","29.44","10.00","36","180","24","15",,,,,,,,,,,,,,,,,,,,,,,,,,,,,,,,,,,,,"MET11102/08/20 07:42:02 SPECI PASO 081642Z 18013G21KT 10SM -RA FEW016 OVC120 02/02 A2947 RMK AO2 P0006 T00220017 TSNO","FM-16","7",,,,,,,,,,,,,,,,,,,,,,,,,,,,"2005-10-30"
"70362125516","2020-02-08T07:53:00","FM-15","7",,,,,,,,,,,,,,,,,,,,,,,,,,,,,,,,,,,,,,"29.48","35","36","0.06","UP:09 ||",,,"97","29.48","FEW:02 16 OVC:08 120","29.45","10.00","36","180","29","16",,,,,,,,,,,,,,,,,,,,,,,,,,,,,,,,,,,,,"MET12802/08/20 07:53:02 METAR PASO 081653Z 18014G25KT 10SM UP FEW016 OVC120 02/02 A2948 RMK AO2 RAE47UPB52 SLP984 P0007 T00220017 TSNO","FM-15","7",,,,,,,,,,,,,,,,,,,,,,,,,,,,"2005-10-30"
"70362125516","2020-02-08T08:48:00","FM-16","7",,,,,,,,,,,,,,,,,,,,,,,,,,,,,,,,,,,,,,"29.51","36","36","0.05","-RA:02 BR:1 |RA |RA",,,"100",,"BKN:07 20 BKN:07 55 OVC:08 120","29.48","5.00","36","160",,"7",,,,,,,,,,,,,,,,,,,,,,,,,,,,,,,,,,,,,"MET11802/08/20 08:48:02 SPECI PASO 081748Z 16006KT 5SM -RA BR BKN020 BKN055 OVC120 02/02 A2951 RMK AO2 UPE02RAB02 P0005 TSNO","FM-16","7",,,,,,,,,,,,,,,,,,,,,,,,,,,,"2005-10-30"
"70362125516","2020-02-08T08:53:00","FM-15","7",,,,,,,,,,,,,,,,,,,,,,,,,,,,,,,,,,,,,,"29.50","36","36","0.08","RA:02 BR:1 |RA |RA","+0.01","6","100","29.50","BKN:07 20 BKN:07 55 OVC:08 120","29.47","5.00","36","160","16","11",,,,,,,,,,,,,,,,,,,,,,,,,,,,,,,,,,,,,"MET16102/08/20 08:53:02 METAR PASO 081753Z 16010G14KT 5SM RA BR BKN020 BKN055 OVC120 02/02 A2950 RMK AO2 UPE02RAB02 SLP991 P0007 60038 T00220022 10028 20011 56005 TSNO","FM-15","7",,,,,,,,,,,,,,,,,,,,,,,,,,,,"2005-10-30"
"70362125516","2020-02-08T09:11:00","FM-16","7",,,,,,,,,,,,,,,,,,,,,,,,,,,,,,,,,,,,,,"29.51","36","36","0.02","-RA:02 |RA |RA",,,"100",,"SCT:04 23 OVC:08 100","29.48","10.00","36","170",,"13",,,,,,,,,,,,,,,,,,,,,,,,,,,,,,,,,,,,,"MET10802/08/20 09:11:02 SPECI PASO 081811Z 17011KT 10SM -RA SCT023 OVC100 02/02 A2951 RMK AO2 P0002 T00220022 TSNO","FM-16","7",,,,,,,,,,,,,,,,,,,,,,,,,,,,"2005-10-30"
"70362125516","2020-02-08T09:53:00","FM-15","7",,,,,,,,,,,,,,,,,,,,,,,,,,,,,,,,,,,,,,"29.52","36","37","0.05","UP:09 ||",,,"96","29.52","BKN:07 40 BKN:07 48 OVC:08 110","29.49","10.00","37","180",,"6",,,,,,,,,,,,,,,,,,,,,,,,,,,,,,,,,,,,,"MET14402/08/20 09:53:02 METAR PASO 081853Z 18005KT 10SM UP BKN040 BKN048 OVC110 03/02 A2952 RMK AO2 RAE16B38E50UPB13E15B50 SLP996 P0006 T00280022 TSNO","FM-15","7",,,,,,,,,,,,,,,,,,,,,,,,,,,,"2005-10-30"
"70362125516","2020-02-08T10:31:00","FM-16","7",,,,,,,,,,,,,,,,,,,,,,,,,,,,,,,,,,,,,,"29.54","34","37","0.05","-RA:02 BR:1 |RA |RA",,,"89",,"OVC:08 29","29.51","6.00","36","170",,"10",,,,,,,,,,,,,,,,,,,,,,,,,,,,,,,,,,,,,"MET11802/08/20 10:31:02 SPECI PASO 081931Z 17009KT 6SM -RA BR OVC029 03/01 A2954 RMK AO2 UPE1857RAB1858 P0005 T00280011 TSNO","FM-16","7",,,,,,,,,,,,,,,,,,,,,,,,,,,,"2005-10-30"
"70362125516","2020-02-08T10:53:00","FM-15","7",,,,,,,,,,,,,,,,,,,,,,,,,,,,,,,,,,,,,,"29.55","35","38","0.09",,,,"89","29.55","SCT:04 27","29.52","10.00","37","190","20","10",,,,,,,,,,,,,,,,,,,,,,,,,,,,,,,,,,,,,"MET12502/08/20 10:53:02 METAR PASO 081953Z 19009G17KT 10SM SCT027 03/02 A2955 RMK AO2 UPE1857RAB1858E53 SLP006 P0008 T00330017 TSNO","FM-15","7",,,,,,,,,,,,,,,,,,,,,,,,,,,,"2005-10-30"
"70362125516","2020-02-08T11:53:00","FM-15","7",,,,,,,,,,,,,,,,,,,,,,,,,,,,,,,,,,,,,,"29.57","29","38","0.06",,"-0.07","3","70","29.57","SCT:04 32 BKN:07 43","29.54","10.00","34","190","32","16",,,,,,,,,,,,,,,,,,,,,,,,,,,,,,,,,,,,,"MET15402/08/20 11:53:02 METAR PASO 082053Z 19014G28KT 10SM SCT032 BKN043 03/M02 A2957 RMK AO2 PK WND 20029/2037 RAB24E37 SLP015 P0007 60021 T00331017 53023 TSNO","FM-15","7",,,,,,,,,,,,,,,,,,,,,,,,,,,,"2005-10-30"
"70362125516","2020-02-08T12:53:00","FM-15","7",,,,,,,,,,,,,,,,,,,,,,,,,,,,,,,,,,,,,,"29.62","28","38","0.06","-SN:03 |SN |",,,"68","29.62","SCT:04 35 BKN:07 46","29.59","5.00","34","200","30","14",,,,,,,,,,,,,,,,,,,,,,,,,,,,,,,,,,,,,"MET15602/08/20 12:53:02 METAR PASO 082153Z 20012G26KT 5SM -SN SCT035 BKN046 03/M02 A2962 RMK AO2 PK WND 22031/2103 RAB02E13B47E52SNB52 SLP031 P0005 T00331022 TSNO","FM-15","7",,,,,,,,,,,,,,,,,,,,,,,,,,,,"2005-10-30"
"70362125516","2020-02-08T13:03:00","FM-16","7",,,,,,,,,,,,,,,,,,,,,,,,,,,,,,,,,,,,,,"29.64","30","37","0.01","-SN:03 |SN |",,,"76",,"BKN:07 29 BKN:07 36 OVC:08 44","29.61","2.50","34","200","33","17",,,,,,,,,,,,,,,,,,,,,,,,,,,,,,,,,,,,,"MET14702/08/20 13:03:02 SPECI PASO 082203Z 20015G29KT 2 1/2SM -SN BKN029 BKN036 OVC044 03/M01 A2964 RMK AO2 PK WND 18029/2201 PRESRR P0001 T00281011 TSNO","FM-16","7",,,,,,,,,,,,,,,,,,,,,,,,,,,,"2005-10-30"
"70362125516","2020-02-08T13:19:00","FM-16","7",,,,,,,,,,,,,,,,,,,,,,,,,,,,,,,,,,,,,,"29.64","32","37","0.03","-SN:03 |SN |",,,"82",,"BKN:07 25 BKN:07 38 OVC:08 48","29.61","6.00","35","180","37","24",,,,,,,,,,,,,,,,,,,,,,,,,,,,,,,,,,,,,"MET13502/08/20 13:19:02 SPECI PASO 082219Z 18021G32KT 6SM -SN BKN025 BKN038 OVC048 03/00 A2964 RMK AO2 PK WND 16032/2219 P0003 T00280000 TSNO","FM-16","7",,,,,,,,,,,,,,,,,,,,,,,,,,,,"2005-10-30"
"70362125516","2020-02-08T13:34:00","FM-16","7",,,,,,,,,,,,,,,,,,,,,,,,,,,,,,,,,,,,,,"29.64","29","38","0.05",,,,"70",,"SCT:04 31 BKN:07 44 OVC:08 55","29.61","10.00","34","190","30","18",,,,,,,,,,,,,,,,,,,,,,,,,,,,,,,,,,,,,"MET14702/08/20 13:34:02 SPECI PASO 082234Z 19016G26KT 10SM SCT031 BKN044 OVC055 03/M02 A2964 RMK AO2 PK WND 16032/2219 UPB23E25SNE23 P0005 T00331017 TSNO","FM-16","7",,,,,,,,,,,,,,,,,,,,,,,,,,,,"2005-10-30"
"70362125516","2020-02-08T13:53:00","FM-15","7",,,,,,,,,,,,,,,,,,,,,,,,,,,,,,,,,,,,,,"29.63","27","39","0.06",,,,"62","29.63","BKN:07 45 OVC:08 55","29.60","10.00","34","180","40","15",,,,,,,,,,,,,,,,,,,,,,,,,,,,,,,,,,,,,"MET14702/08/20 13:53:02 METAR PASO 082253Z 18013G35KT 10SM BKN045 OVC055 04/M03 A2963 RMK AO2 PK WND 17035/2249 UPB23E25SNE23 SLP033 P0007 T00391028 TSNO","FM-15","7",,,,,,,,,,,,,,,,,,,,,,,,,,,,"2005-10-30"
"70362125516","2020-02-08T14:53:00","FM-15","7",,,,,,,,,,,,,,,,,,,,,,,,,,,,,,,,,,,,,,"29.65","28","40","0.06","-RA:02 |RA |RA","-0.08","1","63","29.65","BKN:07 42 BKN:07 49 OVC:08 65","29.62","10.00","35","VRB","39","11",,,,,,,,,,,,,,,,,,,,,,,,,,,,,,,,,,,,,"MET17402/08/20 14:53:02 METAR PASO 082353Z 20010G34KT 10SM -RA BKN042 BKN049 OVC065 04/M02 A2965 RMK AO2 PK WND 20035/2342 RAB10 SLP042 P0005 60038 T00441022 10044 20022 51027 TSNO","FM-15","7",,,,,,,,,,,,,,,,,,,,,,,,,,,,"2005-10-30"
"70362125516","2020-02-08T15:53:00","FM-15","7",,,,,,,,,,,,,,,,,,,,,,,,,,,,,,,,,,,,,,"29.66","27","41","0.06",,,,"57","29.66","BKN:07 48 OVC:08 55","29.63","10.00","35","190","30","17",,,,,,,,,,,,,,,,,,,,,,,,,,,,,,,,,,,,,"MET13902/08/20 15:53:01 METAR PASO 090053Z 19015G26KT 10SM BKN048 OVC055 05/M03 A2966 RMK AO2 PK WND 17034/0035 RAE01 SLP044 P0006 T00501028 TSNO","FM-15","7",,,,,,,,,,,,,,,,,,,,,,,,,,,,"2005-10-30"
"70362125516","2020-02-08T16:53:00","FM-15","7",,,,,,,,,,,,,,,,,,,,,,,,,,,,,,,,,,,,,,"29.68","27","41","0.01",,,,"57","29.68","OVC:08 46","29.65","10.00","35","VRB","34","16",,,,,,,,,,,,,,,,,,,,,,,,,,,,,,,,,,,,,"MET12602/08/20 16:53:01 METAR PASO 090153Z 19014G30KT 10SM OVC046 05/M03 A2968 RMK AO2 PK WND 21038/0113 SLP052 P0001 T00501028 TSNO","FM-15","7",,,,,,,,,,,,,,,,,,,,,,,,,,,,"2005-10-30"
"70362125516","2020-02-08T17:53:00","FM-15","7",,,,,,,,,,,,,,,,,,,,,,,,,,,,,,,,,,,,,,"29.72","28","41","T",,"-0.06","3","60","29.72","OVC:08 40","29.69","10.00","36","190","43","18",,,,,,,,,,,,,,,,,,,,,,,,,,,,,,,,,,,,,"MET14702/08/20 17:53:01 METAR PASO 090253Z 19016G37KT 10SM OVC040 05/M02 A2972 RMK AO2 PK WND 21044/0225 RAB00E22 SLP064 P0001 60008 T00501022 53022 TSNO","FM-15","7",,,,,,,,,,,,,,,,,,,,,,,,,,,,"2005-10-30"
"70362125516","2020-02-08T18:53:00","FM-15","7",,,,,,,,,,,,,,,,,,,,,,,,,,,,,,,,,,,,,,"29.75","30","39","0.01","-RA:02 |RA |RA",,,"70","29.75","BKN:07 34 OVC:08 42","29.72","9.00","35","190","24","16",,,,,,,,,,,,,,,,,,,,,,,,,,,,,,,,,,,,,"MET14402/08/20 18:53:01 METAR PASO 090353Z 19014G21KT 9SM -RA BKN034 OVC042 04/M01 A2975 RMK AO2 PK WND 17031/0254 RAB0254 SLP074 P0001 T00391011 TSNO","FM-15","7",,,,,,,,,,,,,,,,,,,,,,,,,,,,"2005-10-30"
"70362125516","2020-02-08T19:53:00","FM-15","7",,,,,,,,,,,,,,,,,,,,,,,,,,,,,,,,,,,,,,"29.79","28","41","T","-RA:02 |RA |RA",,,"60","29.79","BKN:07 40 OVC:08 50","29.76","10.00","36","190","37","16",,,,,,,,,,,,,,,,,,,,,,,,,,,,,,,,,,,,,"MET13702/08/20 19:53:02 METAR PASO 090453Z 19014G32KT 10SM -RA BKN040 OVC050 05/M02 A2979 RMK AO2 PK WND 19034/0434 SLP087 P0000 T00501022 TSNO","FM-15","7",,,,,,,,,,,,,,,,,,,,,,,,,,,,"2005-10-30"
"70362125516","2020-02-08T20:53:00","FM-15","7",,,,,,,,,,,,,,,,,,,,,,,,,,,,,,,,,,,,,,"29.82","27","41","T",,"-0.10","1","57","29.82","OVC:08 40","29.79","10.00","36","190","38","20",,,,,,,,,,,,,,,,,,,,,,,,,,,,,,,,,,,,,"MET15602/08/20 20:53:02 METAR PASO 090553Z 19017G33KT 10SM OVC040 05/M03 A2982 RMK AO2 PK WND 19033/0549 RAE43 SLP097 P0000 60009 T00501028 10050 20039 51033 TSNO","FM-15","7",,,,,,,,,,,,,,,,,,,,,,,,,,,,"2005-10-30"
"70362125516","2020-02-08T21:53:00","FM-15","7",,,,,,,,,,,,,,,,,,,,,,,,,,,,,,,,,,,,,,"29.85","27","40","T",,,,"60","29.85","BKN:07 42 OVC:08 50","29.82","10.00","35","180","32","23",,,,,,,,,,,,,,,,,,,,,,,,,,,,,,,,,,,,,"MET14202/08/20 21:53:02 METAR PASO 090653Z 18020G28KT 10SM BKN042 OVC050 04/M03 A2985 RMK AO2 PK WND 19033/0643 RAB02E11 SLP108 P0000 T00441028 TSNO","FM-15","7",,,,,,,,,,,,,,,,,,,,,,,,,,,,"2005-10-30"
"70362125516","2020-02-08T22:53:00","FM-15","7",,,,,,,,,,,,,,,,,,,,,,,,,,,,,,,,,,,,,,"29.88","29","40","T","-RA:02 |RA |RA",,,"65","29.88","BKN:07 38 BKN:07 49 OVC:08 100","29.85","10.00","36","200","32","17",,,,,,,,,,,,,,,,,,,,,,,,,,,,,,,,,,,,,"MET15202/08/20 22:53:02 METAR PASO 090753Z 20015G28KT 10SM -RA BKN038 BKN049 OVC100 04/M02 A2988 RMK AO2 PK WND 22030/0654 RAB0656 SLP118 P0000 T00441017 TSNO","FM-15","7",,,,,,,,,,,,,,,,,,,,,,,,,,,,"2005-10-30"
"70362125516","2020-02-08T23:53:00","FM-15","7",,,,,,,,,,,,,,,,,,,,,,,,,,,,,,,,,,,,,,"29.92","30","40","T","-RA:02 |RA |RA","-0.10","3","68","29.92","BKN:07 40 OVC:08 100","29.89","9.00","36","190","36","22",,,,,,,,,,,,,,,,,,,,,,,,,,,,,,,,,,,,,"MET15802/08/20 23:53:02 METAR PASO 090853Z 19019G31KT 9SM -RA BKN040 OVC100 04/M01 A2992 RMK AO2 PK WND 19031/0852 SLP131 P0000 60000 T00441011 400500006 53035 TSNO","FM-15","7",,,,,,,,,,,,,,,,,,,,,,,,,,,,"2005-10-30"
"70362125516","2020-02-08T23:59:00","SOD  ","6",,,,,,,,,,,,,,,,"37",,,"29.61",,"13.1","0","10.2","28","41","33","210","51","0.99",,,"190","29","RA SN BR UP",,,,,,,,,,,,,,,,,,,,,,,,,,,,,,,,,,,,,,,,,,,,,,,,,,,,,,,,"SOD72724 HR PRECIPITATION (IN):0.99  24 HR MAX TEMP (F):41 24 HR MAX TEMP TIME (LST):2241 24 HR MIN TEMP (F):33 24 HR MIN TEMP TIME (LST):0154 AVERAGE STATION PRESSURE:29.610 MINIMUM SEA LEVEL PRESSURE:29.47 TIME OF OCCURRENCE:0746 PEAK WIND SPEED (MPH):51  PEAK WIND DIR (DEG):210 PEAK WIND TIME (LST):1725  FASTEST 2MIN SPEED (MPH):29 FASTEST 2MIN DIR (DEG):190 FASTEST 2MIN TIME (LST):1613 AVERAGE WIND SPEED (MPH):13.1 24 HR AVG TEMP (F):37 HEATING DEGREE DAYS:28  COOLING DEGREE DAYS:0   LATEST DAY MAX TEMP (0700-1900 LST):41  LATEST NIGHT MIN TEMP(1900-0800 LST):31 HOURLY INCREMENTAL PRECIPITATION VALUES (IN):.04 0.05 0.06 0.05 0.07 0.06 0.06 0.06 0.08 0.05 0.09 0.06 0.06 0.06 0.06 0.06 0.01 T    0.01 T    T    T    T    T","SOD  ","6",,,,,,,,,,,,,,,,,,,,,,,,,"0901","1742",,"2005-10-30"
"70362125516","2020-02-09T00:53:00","FM-15","7",,,,,,,,,,,,,,,,,,,,,,,,,,,,,,,,,,,,,,"29.94","28","40","0.01",,,,"63","29.94","BKN:07 39 OVC:08 110","29.91","10.00","35","190","31","16",,,,,,,,,,,,,,,,,,,,,,,,,,,,,,,,,,,,,"MET13902/09/20 00:53:02 METAR PASO 090953Z 19014G27KT 10SM BKN039 OVC110 04/M02 A2994 RMK AO2 PK WND 19027/0950 RAE40 SLP139 P0001 T00441022 TSNO","FM-15","7",,,,,,,,,,,,,,,,,,,,,,,,,,,,"2005-10-30"
"70362125516","2020-02-09T01:53:00","FM-15","7",,,,,,,,,,,,,,,,,,,,,,,,,,,,,,,,,,,,,,"29.98","28","40","T","-RA:02 |RA |RA",,,"63","29.98","BKN:07 36 OVC:08 46","29.95","10.00","35","180","29","21",,,,,,,,,,,,,,,,,,,,,,,,,,,,,,,,,,,,,"MET14302/09/20 01:53:02 METAR PASO 091053Z 18018G25KT 10SM -RA BKN036 OVC046 04/M02 A2998 RMK AO2 PK WND 17026/1003 RAB39 SLP152 P0000 T00441022 TSNO","FM-15","7",,,,,,,,,,,,,,,,,,,,,,,,,,,,"2005-10-30"
"70362125516","2020-02-09T02:53:00","FM-15","7",,,,,,,,,,,,,,,,,,,,,,,,,,,,,,,,,,,,,,"30.01","28","40","T","-RA:02 |RA |RA","-0.09","3","63","30.01","OVC:08 37","29.98","10.00","35","190","29","16",,,,,,,,,,,,,,,,,,,,,,,,,,,,,,,,,,,,,"MET14202/09/20 02:53:02 METAR PASO 091153Z 19014G25KT 10SM -RA OVC037 04/M02 A3001 RMK AO2 SLP163 P0000 60001 70086 T00441022 10050 20044 53031 TSNO","FM-15","7",,,,,,,,,,,,,,,,,,,,,,,,,,,,"2005-10-30"
"70362125516","2020-02-09T03:53:00","FM-15","7",,,,,,,,,,,,,,,,,,,,,,,,,,,,,,,,,,,,,,"30.04","29","40","T",,,,"65","30.04","BKN:07 37 BKN:07 46 OVC:08 110","30.01","10.00","36","190","26","15",,,,,,,,,,,,,,,,,,,,,,,,,,,,,,,,,,,,,"MET14602/09/20 03:53:02 METAR PASO 091253Z 19013G23KT 10SM BKN037 BKN046 OVC110 04/M02 A3004 RMK AO2 PK WND 21027/1233 RAE17 SLP172 P0000 T00441017 TSNO","FM-15","7",,,,,,,,,,,,,,,,,,,,,,,,,,,,"2005-10-30"
"70362125516","2020-02-09T04:53:00","FM-15","7",,,,,,,,,,,,,,,,,,,,,,,,,,,,,,,,,,,,,,"30.06","29","40","T","-RA:02 |RA |RA",,,"65","30.06","OVC:08 35","30.03","9.00","36","190",,"9",,,,,,,,,,,,,,,,,,,,,,,,,,,,,,,,,,,,,"MET11602/09/20 04:53:02 METAR PASO 091353Z 19008KT 9SM -RA OVC035 04/M02 A3006 RMK AO2 RAB1254 SLP178 P0000 T00441017 TSNO","FM-15","7",,,,,,,,,,,,,,,,,,,,,,,,,,,,"2005-10-30"
"70362125516","2020-02-09T05:53:00","FM-15","7",,,,,,,,,,,,,,,,,,,,,,,,,,,,,,,,,,,,,,"30.07","30","39","0.01",,"-0.06","1","70","30.07","BKN:07 36 OVC:08 46","30.04","10.00","35","190",,"7",,,,,,,,,,,,,,,,,,,,,,,,,,,,,,,,,,,,,"MET13002/09/20 05:53:02 METAR PASO 091453Z 19006KT 10SM BKN036 OVC046 04/M01 A3007 RMK AO2 RAE48 SLP184 P0001 60001 T00391011 51021 TSNO","FM-15","7",,,,,,,,,,,,,,,,,,,,,,,,,,,,"2005-10-30"
"70362125516","2020-02-09T06:53:00","FM-15","7",,,,,,,,,,,,,,,,,,,,,,,,,,,,,,,,,,,,,,"30.09","31","37","T",,,,"79","30.09","FEW:02 29 OVC:08 38","30.06","10.00","35","200",,"7",,,,,,,,,,,,,,,,,,,,,,,,,,,,,,,,,,,,,"MET12302/09/20 06:53:02 METAR PASO 091553Z 20006KT 10SM FEW029 OVC038 03/M01 A3009 RMK AO2 RAB1457E46 SLP190 P0000 T00281006 TSNO","FM-15","7",,,,,,,,,,,,,,,,,,,,,,,,,,,,"2005-10-30"
"70362125516","2020-02-09T07:53:00","FM-15","7",,,,,,,,,,,,,,,,,,,,,,,,,,,,,,,,,,,,,,"30.11","30","37","T",,,,"76","30.11","SCT:04 42 SCT:04 60 BKN:07 75","30.08","10.00","34","180",,"6",,,,,,,,,,,,,,,,,,,,,,,,,,,,,,,,,,,,,"MET13602/09/20 07:53:02 METAR PASO 091653Z 18005KT 10SM SCT042 SCT060 BKN075 03/M01 A3011 RMK AO2 RAB05E06UPB06E16 SLP195 P0000 T00281011 TSNO","FM-15","7",,,,,,,,,,,,,,,,,,,,,,,,,,,,"2005-10-30"
"70362125516","2020-02-09T08:53:00","FM-15","7",,,,,,,,,,,,,,,,,,,,,,,,,,,,,,,,,,,,,,"30.13","30","36","0.00",,"-0.06","3","79","30.13","FEW:02 36 SCT:04 70","30.10","10.00","34","190",,"5",,,,,,,,,,,,,,,,,,,,,,,,,,,,,,,,,,,,,"MET13002/09/20 08:53:02 METAR PASO 091753Z 19004KT 10SM FEW036 SCT070 02/M01 A3013 RMK AO2 SLP203 60001 T00221011 10044 20022 53019 TSNO","FM-15","7",,,,,,,,,,,,,,,,,,,,,,,,,,,,"2005-10-30"
"70362125516","2020-02-09T09:53:00","FM-15","7",,,,,,,,,,,,,,,,,,,,,,,,,,,,,,,,,,,,,,"30.15","29","38","0.00",,,,"70","30.14","BKN:07 40","30.12","10.00","34","170",,"6",,,,,,,,,,,,,,,,,,,,,,,,,,,,,,,,,,,,,"MET09902/09/20 09:53:02 METAR PASO 091853Z 17005KT 10SM BKN040 03/M02 A3015 RMK AO2 SLP208 T00331017 TSNO","FM-15","7",,,,,,,,,,,,,,,,,,,,,,,,,,,,"2005-10-30"
"70362125516","2020-02-09T10:53:00","FM-15","7",,,,,,,,,,,,,,,,,,,,,,,,,,,,,,,,,,,,,,"30.17","29","39","0.00",,,,"67","30.16","BKN:07 38 OVC:08 46","30.14","10.00","35","180",,"9",,,,,,,,,,,,,,,,,,,,,,,,,,,,,,,,,,,,,"MET10602/09/20 10:53:02 METAR PASO 091953Z 18008KT 10SM BKN038 OVC046 04/M02 A3017 RMK AO2 SLP215 T00391017 TSNO","FM-15","7",,,,,,,,,,,,,,,,,,,,,,,,,,,,"2005-10-30"
"70362125516","2020-02-09T11:53:00","FM-15","7",,,,,,,,,,,,,,,,,,,,,,,,,,,,,,,,,,,,,,"30.19","30","40","0.00",,"-0.06","3","68","30.19","BKN:07 38","30.16","10.00","36","170",,"7",,,,,,,,,,,,,,,,,,,,,,,,,,,,,,,,,,,,,"MET10502/09/20 11:53:02 METAR PASO 092053Z 17006KT 10SM BKN038 04/M01 A3019 RMK AO2 SLP223 T00441011 53020 TSNO","FM-15","7",,,,,,,,,,,,,,,,,,,,,,,,,,,,"2005-10-30"
"70362125516","2020-02-09T12:53:00","FM-15","7",,,,,,,,,,,,,,,,,,,,,,,,,,,,,,,,,,,,,,"30.21","30","40","0.00",,,,"68","30.20","BKN:07 31 OVC:08 41","30.18","10.00","36","210",,"5",,,,,,,,,,,,,,,,,,,,,,,,,,,,,,,,,,,,,"MET10602/09/20 12:53:02 METAR PASO 092153Z 21004KT 10SM BKN031 OVC041 04/M01 A3021 RMK AO2 SLP228 T00441011 TSNO","FM-15","7",,,,,,,,,,,,,,,,,,,,,,,,,,,,"2005-10-30"
"70362125516","2020-02-09T13:41:00","FM-16","7",,,,,,,,,,,,,,,,,,,,,,,,,,,,,,,,,,,,,,"30.22","30","39",,,,,"70",,"BKN:07 29 BKN:07 36 OVC:08 50","30.19","10.00","35","VRB",,"6",,,,,,,,,,,,,,,,,,,,,,,,,,,,,,,,,,,,,"MET10602/09/20 13:41:02 SPECI PASO 092241Z VRB05KT 10SM BKN029 BKN036 OVC050 04/M01 A3022 RMK AO2 T00391011 TSNO","FM-16","7",,,,,,,,,,,,,,,,,,,,,,,,,,,,"2005-10-30"
"70362125516","2020-02-09T13:50:00","FM-16","7",,,,,,,,,,,,,,,,,,,,,,,,,,,,,,,,,,,,,,"30.22","30","37",,,,,"75",,"SCT:04 29 BKN:07 36 BKN:07 50","30.19","10.00","34",,,,,,,,,,,,,,,,,,,,,,,,,,,,,,,,,,,,,,,,"MET09602/09/20 13:50:02 SPECI PASO 092250Z      KT 10SM SCT029 BKN036 BKN050 03/M01 A3022 RMK AO2 TSNO","FM-16","7",,,,,,,,,,,,,,,,,,,,,,,,,,,,"2005-10-30"
"70362125516","2020-02-09T13:53:00","FM-15","7",,,,,,,,,,,,,,,,,,,,,,,,,,,,,,,,,,,,,,"30.22","30","38","0.00",,,,"73","30.22","FEW:02 28 SCT:04 36 BKN:07 50","30.19","10.00","35","050",,"7",,,,,,,,,,,,,,,,,,,,,,,,,,,,,,,,,,,,,"MET11302/09/20 13:53:02 METAR PASO 092253Z 05006KT 10SM FEW028 SCT036 BKN050 03/M01 A3022 RMK AO2 SLP234 T00331011 TSNO","FM-15","7",,,,,,,,,,,,,,,,,,,,,,,,,,,,"2005-10-30"
"70362125516","2020-02-09T14:53:00","FM-15","7",,,,,,,,,,,,,,,,,,,,,,,,,,,,,,,,,,,,,,"30.23","29","38","0.00",,"-0.03","1","70","30.23","OVC:08 46","30.20","10.00","34","000",,"0",,,,,,,,,,,,,,,,,,,,,,,,,,,,,,,,,,,,,"MET11702/09/20 14:53:02 METAR PASO 092353Z 00000KT 10SM OVC046 03/M02 A3023 RMK AO2 SLP237 T00331017 10050 20022 51009 TSNO","FM-15","7",,,,,,,,,,,,,,,,,,,,,,,,,,,,"2005-10-30"
"70362125516","2020-02-09T15:53:00","FM-15","7",,,,,,,,,,,,,,,,,,,,,,,,,,,,,,,,,,,,,,"30.23","28","38","0.00",,,,"68","30.23","OVC:08 44","30.20","10.00","34","030",,"5",,,,,,,,,,,,,,,,,,,,,,,,,,,,,,,,,,,,,"MET09902/09/20 15:53:01 METAR PASO 100053Z 03004KT 10SM OVC044 03/M02 A3023 RMK AO2 SLP237 T00331022 TSNO","FM-15","7",,,,,,,,,,,,,,,,,,,,,,,,,,,,"2005-10-30"
"70362125516","2020-02-09T16:53:00","FM-15","7",,,,,,,,,,,,,,,,,,,,,,,,,,,,,,,,,,,,,,"30.23","27","36","0.00",,,,"70","30.23","SCT:04 46","30.20","10.00","33","VRB",,"3",,,,,,,,,,,,,,,,,,,,,,,,,,,,,,,,,,,,,"MET09902/09/20 16:53:01 METAR PASO 100153Z VRB03KT 10SM SCT046 02/M03 A3023 RMK AO2 SLP236 T00221028 TSNO","FM-15","7",,,,,,,,,,,,,,,,,,,,,,,,,,,,"2005-10-30"
"70362125516","2020-02-09T17:12:00","FM-16","7",,,,,,,,,,,,,,,,,,,,,,,,,,,,,,,,,,,,,,"30.23","26","36",,,,,"67",,"BKN:07 24","30.20","10.00","32","050",,"3",,,,,,,,,,,,,,,,,,,,,,,,,,,,,,,,,,,,,"MET09202/09/20 17:12:01 SPECI PASO 100212Z 05003KT 10SM BKN024 02/M03 A3023 RMK AO2 T00221033 TSNO","FM-16","7",,,,,,,,,,,,,,,,,,,,,,,,,,,,"2005-10-30"
"70362125516","2020-02-09T17:23:00","FM-16","7",,,,,,,,,,,,,,,,,,,,,,,,,,,,,,,,,,,,,,"30.24","27","35",,,,,"72",,"SCT:04 24","30.21","10.00","32","000",,"0",,,,,,,,,,,,,,,,,,,,,,,,,,,,,,,,,,,,,"MET09202/09/20 17:23:01 SPECI PASO 100223Z 00000KT 10SM SCT024 02/M03 A3024 RMK AO2 T00171028 TSNO","FM-16","7",,,,,,,,,,,,,,,,,,,,,,,,,,,,"2005-10-30"
"70362125516","2020-02-09T17:53:00","FM-15","7",,,,,,,,,,,,,,,,,,,,,,,,,,,,,,,,,,,,,,"30.25","27","34","0.00",,"-0.01","3","75","30.24","BKN:07 28","30.22","10.00","31","000",,"0",,,,,,,,,,,,,,,,,,,,,,,,,,,,,,,,,,,,,"MET10502/09/20 17:53:01 METAR PASO 100253Z 00000KT 10SM BKN028 01/M03 A3025 RMK AO2 SLP242 T00111028 53004 TSNO","FM-15","7",,,,,,,,,,,,,,,,,,,,,,,,,,,,"2005-10-30"
"70362125516","2020-02-09T18:04:00","FM-16","7",,,,,,,,,,,,,,,,,,,,,,,,,,,,,,,,,,,,,,"30.24","27","33",,,,,"78",,"BKN:07 30","30.21","10.00","31","000",,"0",,,,,,,,,,,,,,,,,,,,,,,,,,,,,,,,,,,,,"MET09202/09/20 18:04:01 SPECI PASO 100304Z 00000KT 10SM BKN030 01/M03 A3024 RMK AO2 T00061028 TSNO","FM-16","7",,,,,,,,,,,,,,,,,,,,,,,,,,,,"2005-10-30"
"70362125516","2020-02-09T18:53:00","FM-15","7",,,,,,,,,,,,,,,,,,,,,,,,,,,,,,,,,,,,,,"30.24","27","32","0.00",,,,"82","30.24","CLR:00","30.21","10.00","30","000",,"0",,,,,,,,,,,,,,,,,,,,,,,,,,,,,,,,,,,,,"MET09602/09/20 18:53:01 METAR PASO 100353Z 00000KT 10SM CLR 00/M03 A3024 RMK AO2 SLP240 T00001028 TSNO","FM-15","7",,,,,,,,,,,,,,,,,,,,,,,,,,,,"2005-10-30"
"70362125516","2020-02-09T19:53:00","FM-15","7",,,,,,,,,,,,,,,,,,,,,,,,,,,,,,,,,,,,,,"30.24","27","31","0.00",,,,"85","30.24","CLR:00","30.21","10.00","30","000",,"0",,,,,,,,,,,,,,,,,,,,,,,,,,,,,,,,,,,,,"MET09702/09/20 19:53:02 METAR PASO 100453Z 00000KT 10SM CLR M01/M03 A3024 RMK AO2 SLP239 T10061028 TSNO","FM-15","7",,,,,,,,,,,,,,,,,,,,,,,,,,,,"2005-10-30"
"70362125516","2020-02-09T20:53:00","FM-15","7",,,,,,,,,,,,,,,,,,,,,,,,,,,,,,,,,,,,,,"30.23","27","31","0.00",,"+0.01","7","85","30.23","CLR:00","30.20","10.00","30","000",,"0",,,,,,,,,,,,,,,,,,,,,,,,,,,,,,,,,,,,,"MET11502/09/20 20:53:02 METAR PASO 100553Z 00000KT 10SM CLR M01/M03 A3023 RMK AO2 SLP238 T10061028 10033 21006 57004 TSNO","FM-15","7",,,,,,,,,,,,,,,,,,,,,,,,,,,,"2005-10-30"
"70362125516","2020-02-09T21:53:00","FM-15","7",,,,,,,,,,,,,,,,,,,,,,,,,,,,,,,,,,,,,,"30.23","27","31","0.00",,,,"85","30.23","BKN:07 37","30.20","10.00","30","000",,"0",,,,,,,,,,,,,,,,,,,,,,,,,,,,,,,,,,,,,"MET10002/09/20 21:53:02 METAR PASO 100653Z 00000KT 10SM BKN037 M01/M03 A3023 RMK AO2 SLP237 T10061028 TSNO","FM-15","7",,,,,,,,,,,,,,,,,,,,,,,,,,,,"2005-10-30"
"70362125516","2020-02-09T22:53:00","FM-15","7",,,,,,,,,,,,,,,,,,,,,,,,,,,,,,,,,,,,,,"30.22","26","30","0.00",,,,"85","30.22","FEW:02 42 BKN:07 120","30.19","10.00","29","220",,"3",,,,,,,,,,,,,,,,,,,,,,,,,,,,,,,,,,,,,"MET10702/09/20 22:53:02 METAR PASO 100753Z 22003KT 10SM FEW042 BKN120 M01/M03 A3022 RMK AO2 SLP234 T10111033 TSNO","FM-15","7",,,,,,,,,,,,,,,,,,,,,,,,,,,,"2005-10-30"
"70362125516","2020-02-09T23:53:00","FM-15","7",,,,,,,,,,,,,,,,,,,,,,,,,,,,,,,,,,,,,,"30.21","26","30","0.00",,"+0.02","8","85","30.21","CLR:00","30.18","10.00","29","200",,"3",,,,,,,,,,,,,,,,,,,,,,,,,,,,,,,,,,,,,"MET11302/09/20 23:53:02 METAR PASO 100853Z 20003KT 10SM CLR M01/M03 A3021 RMK AO2 SLP231 T10111033 400501011 58007 TSNO","FM-15","7",,,,,,,,,,,,,,,,,,,,,,,,,,,,"2005-10-30"
"70362125516","2020-02-09T23:59:00","SOD  ","6",,,,,,,,,,,,,,,,"36",,,"30.11",,"6.2","0","9.1","29","41","30","210","32","0.02",,,"180","21","RA",,,,,,,,,,,,,,,,,,,,,,,,,,,,,,,,,,,,,,,,,,,,,,,,,,,,,,,,"SOD73024 HR PRECIPITATION (IN):0.02  24 HR MAX TEMP (F):41 24 HR MAX TEMP TIME (LST):1244 24 HR MIN TEMP (F):30 24 HR MIN TEMP TIME (LST):2359 AVERAGE STATION PRESSURE:30.115 MINIMUM SEA LEVEL PRESSURE:29.92 TIME OF OCCURRENCE:0009 PEAK WIND SPEED (MPH):32  PEAK WIND DIR (DEG):210 PEAK WIND TIME (LST):0333  FASTEST 2MIN SPEED (MPH):21 FASTEST 2MIN DIR (DEG):180 FASTEST 2MIN TIME (LST):0154 AVERAGE WIND SPEED (MPH):6.2  24 HR AVG TEMP (F):36 HEATING DEGREE DAYS:29  COOLING DEGREE DAYS:0   LATEST DAY MAX TEMP (0700-1900 LST):41  LATEST NIGHT MIN TEMP(1900-0800 LST):37 HOURLY INCREMENTAL PRECIPITATION VALUES (IN):.01 T    T    T    T    0.01 T    T    0.00 0.00 0.00 0.00 0.00 0.00 0.00 0.00 0.00 0.00 0.00 0.00 0.00 0.00 0.00 0.00","SOD  ","6",,,,,,,,,,,,,,,,,,,,,,,,,"0859","1745",,"2005-10-30"
"70362125516","2020-02-10T00:53:00","FM-15","7",,,,,,,,,,,,,,,,,,,,,,,,,,,,,,,,,,,,,,"30.21","23","31",,,,,"72","30.20","CLR:00","30.18","10.00","28","000",,"0",,,,,,,,,,,,,,,,,,,,,,,,,,,,,,,,,,,,,"MET09702/10/20 00:53:02 METAR PASO 100953Z 00000KT 10SM CLR M01/M05 A3021 RMK AO2 SLP228 T10061050 TSNO","FM-15","7",,,,,,,,,,,,,,,,,,,,,,,,,,,,"2005-10-30"
"70362125516","2020-02-10T01:53:00","FM-15","7",,,,,,,,,,,,,,,,,,,,,,,,,,,,,,,,,,,,,,"30.19","22","31",,,,,"69","30.19","CLR:00","30.16","10.00","28","000",,"0",,,,,,,,,,,,,,,,,,,,,,,,,,,,,,,,,,,,,"MET09702/10/20 01:53:02 METAR PASO 101053Z 00000KT 10SM CLR M01/M06 A3019 RMK AO2 SLP222 T10061056 TSNO","FM-15","7",,,,,,,,,,,,,,,,,,,,,,,,,,,,"2005-10-30"
"70362125516","2020-02-10T02:53:00","FM-15","7",,,,,,,,,,,,,,,,,,,,,,,,,,,,,,,,,,,,,,"30.16","19","31",,,"+0.05","8","61","30.16","CLR:00","30.13","10.00","27","VRB",,"5",,,,,,,,,,,,,,,,,,,,,,,,,,,,,,,,,,,,,"MET12102/10/20 02:53:02 METAR PASO 101153Z VRB04KT 10SM CLR M01/M07 A3016 RMK AO2 SLP214 70001 T10061072 10000 21011 58017 TSNO","FM-15","7",,,,,,,,,,,,,,,,,,,,,,,,,,,,"2005-10-30"
"70362125516","2020-02-10T03:53:00","FM-15","7",,,,,,,,,,,,,,,,,,,,,,,,,,,,,,,,,,,,,,"30.15","18","30",,,,,"61","30.15","CLR:00","30.12","10.00","26","160",,"3",,,,,,,,,,,,,,,,,,,,,,,,,,,,,,,,,,,,,"MET09702/10/20 03:53:02 METAR PASO 101253Z 16003KT 10SM CLR M01/M08 A3015 RMK AO2 SLP210 T10111078 TSNO","FM-15","7",,,,,,,,,,,,,,,,,,,,,,,,,,,,"2005-10-30"
"70362125516","2020-02-10T04:53:00","FM-15","7",,,,,,,,,,,,,,,,,,,,,,,,,,,,,,,,,,,,,,"30.13","16","31",,,,,"54","30.13","CLR:00","30.10","10.00","26","VRB",,"5",,,,,,,,,,,,,,,,,,,,,,,,,,,,,,,,,,,,,"MET09702/10/20 04:53:02 METAR PASO 101353Z VRB04KT 10SM CLR M01/M09 A3013 RMK AO2 SLP203 T10061089 TSNO","FM-15","7",,,,,,,,,,,,,,,,,,,,,,,,,,,,"2005-10-30"
"70362125516","2020-02-10T05:53:00","FM-15","7",,,,,,,,,,,,,,,,,,,,,,,,,,,,,,,,,,,,,,"30.13","17","28",,,"+0.04","6","63","30.12","CLR:00","30.10","10.00","25","VRB",,"5",,,,,,,,,,,,,,,,,,,,,,,,,,,,,,,,,,,,,"MET10302/10/20 05:53:02 METAR PASO 101453Z VRB04KT 10SM CLR M02/M08 A3013 RMK AO2 SLP201 T10221083 56013 TSNO","FM-15","7",,,,,,,,,,,,,,,,,,,,,,,,,,,,"2005-10-30"
"70362125516","2020-02-10T06:53:00","FM-15","7",,,,,,,,,,,,,,,,,,,,,,,,,,,,,,,,,,,,,,"30.10","18","30",,,,,"61","30.10","CLR:00","30.07","10.00","26","180",,"7",,,,,,,,,,,,,,,,,,,,,,,,,,,,,,,,,,,,,"MET09702/10/20 06:53:02 METAR PASO 101553Z 18006KT 10SM CLR M01/M08 A3010 RMK AO2 SLP194 T10111078 TSNO","FM-15","7",,,,,,,,,,,,,,,,,,,,,,,,,,,,"2005-10-30"
"70362125516","2020-02-10T07:53:00","FM-15","7",,,,,,,,,,,,,,,,,,,,,,,,,,,,,,,,,,,,,,"30.10","13","29",,,,,"51","30.09","CLR:00","30.07","10.00","24","VRB","18","6",,,,,,,,,,,,,,,,,,,,,,,,,,,,,,,,,,,,,"MET10002/10/20 07:53:02 METAR PASO 101653Z VRB05G16KT 10SM CLR M02/M11 A3010 RMK AO2 SLP191 T10171106 TSNO","FM-15","7",,,,,,,,,,,,,,,,,,,,,,,,,,,,"2005-10-30"
"70362125516","2020-02-10T08:53:00","FM-15","7",,,,,,,,,,,,,,,,,,,,,,,,,,,,,,,,,,,,,,"30.09","12","27",,,"+0.03","6","53","30.09","CLR:00","30.06","10.00","23","VRB",,"3",,,,,,,,,,,,,,,,,,,,,,,,,,,,,,,,,,,,,"MET11502/10/20 08:53:02 METAR PASO 101753Z VRB03KT 10SM CLR M03/M11 A3009 RMK AO2 SLP191 T10281111 10000 21028 56010 TSNO","FM-15","7",,,,,,,,,,,,,,,,,,,,,,,,,,,,"2005-10-30"
"70362125516","2020-02-10T09:53:00","FM-15","7",,,,,,,,,,,,,,,,,,,,,,,,,,,,,,,,,,,,,,"30.09","12","26",,,,,"55","30.09","CLR:00","30.06","10.00","22","VRB",,"7",,,,,,,,,,,,,,,,,,,,,,,,,,,,,,,,,,,,,"MET09702/10/20 09:53:02 METAR PASO 101853Z VRB06KT 10SM CLR M03/M11 A3009 RMK AO2 SLP190 T10331111 TSNO","FM-15","7",,,,,,,,,,,,,,,,,,,,,,,,,,,,"2005-10-30"
"70362125516","2020-02-10T10:53:00","FM-15","7",,,,,,,,,,,,,,,,,,,,,,,,,,,,,,,,,,,,,,"30.11","12","26",,,,,"55","30.10","CLR:00","30.08","10.00","22","VRB",,"6",,,,,,,,,,,,,,,,,,,,,,,,,,,,,,,,,,,,,"MET09702/10/20 10:53:02 METAR PASO 101953Z VRB05KT 10SM CLR M03/M11 A3011 RMK AO2 SLP194 T10331111 TSNO","FM-15","7",,,,,,,,,,,,,,,,,,,,,,,,,,,,"2005-10-30"
"70362125516","2020-02-10T11:53:00","FM-15","7",,,,,,,,,,,,,,,,,,,,,,,,,,,,,,,,,,,,,,"30.13","11","25",,,"-0.04","3","55","30.13","CLR:00","30.10","10.00","21","VRB",,"5",,,,,,,,,,,,,,,,,,,,,,,,,,,,,,,,,,,,,"MET10302/10/20 11:53:02 METAR PASO 102053Z VRB04KT 10SM CLR M04/M12 A3013 RMK AO2 SLP203 T10391117 53013 TSNO","FM-15","7",,,,,,,,,,,,,,,,,,,,,,,,,,,,"2005-10-30"
"70362125516","2020-02-10T12:53:00","FM-15","6",,,,,,,,,,,,,,,,,,,,,,,,,,,,,,,,,,,,,,"30.14","11","24",,,,,"57","30.14","CLR:00","30.11","10.00","20","VRB","22","10",,,,,,,,,,,,,,,,,,,,,,,,,,,,,,,,,,,,,"MET10002/10/20 12:53:02 METAR PASO 102153Z 19009G19KT 10SM CLR M04/M12 A3014 RMK AO2 SLP207 T10441117 TSNO","FM-15","6",,,,,,,,,,,,,,,,,,,,,,,,,,,,"2005-10-30"
"70362125516","2020-02-10T13:53:00","FM-15","6",,,,,,,,,,,,,,,,,,,,,,,,,,,,,,,,,,,,,,"30.15","13","25",,,,,"60","30.15","CLR:00","30.12","10.00","22","VRB",,"8",,,,,,,,,,,,,,,,,,,,,,,,,,,,,,,,,,,,,"MET09702/10/20 13:53:02 METAR PASO 102253Z 19007KT 10SM CLR M04/M11 A3015 RMK AO2 SLP211 T10391106 TSNO","FM-15","6",,,,,,,,,,,,,,,,,,,,,,,,,,,,"2005-10-30"
"70362125516","2020-02-10T14:53:00","FM-15","6",,,,,,,,,,,,,,,,,,,,,,,,,,,,,,,,,,,,,,"30.16","12","25",,,"-0.03","1","58","30.16","CLR:00","30.13","10.00","21","VRB",,"9",,,,,,,,,,,,,,,,,,,,,,,,,,,,,,,,,,,,,"MET11502/10/20 14:53:02 METAR PASO 102353Z 18008KT 10SM CLR M04/M11 A3016 RMK AO2 SLP214 T10391111 11028 21044 51011 TSNO","FM-15","6",,,,,,,,,,,,,,,,,,,,,,,,,,,,"2005-10-30"
"70362125516","2020-02-10T15:53:00","FM-15","6",,,,,,,,,,,,,,,,,,,,,,,,,,,,,,,,,,,,,,"30.17","12","25",,,,,"58","30.16","CLR:00","30.14","10.00","21","190",,"7",,,,,,,,,,,,,,,,,,,,,,,,,,,,,,,,,,,,,"MET09702/10/20 15:53:01 METAR PASO 110053Z 19006KT 10SM CLR M04/M11 A3017 RMK AO2 SLP215 T10391111 TSNO","FM-15","6",,,,,,,,,,,,,,,,,,,,,,,,,,,,"2005-10-30"
"70362125516","2020-02-10T16:53:00","FM-15","6",,,,,,,,,,,,,,,,,,,,,,,,,,,,,,,,,,,,,,"30.18","11","24",,,,,"57","30.18","CLR:00","30.15","10.00","20",,,,,,,,,,,,,,,,,,,,,,,,,,,,,,,,,,,,,,,,"MET09702/10/20 16:53:01 METAR PASO 110153Z      KT 10SM CLR M04/M12 A3018 RMK AO2 SLP221 T10441117 TSNO","FM-15","6",,,,,,,,,,,,,,,,,,,,,,,,,,,,"2005-10-30"
"70362125516","2020-02-10T17:53:00","FM-15","6",,,,,,,,,,,,,,,,,,,,,,,,,,,,,,,,,,,,,,"30.20","11","22",,,"-0.04","3","63","30.20","CLR:00","30.17","10.00","19","VRB","18","8",,,,,,,,,,,,,,,,,,,,,,,,,,,,,,,,,,,,,"MET10602/10/20 17:53:01 METAR PASO 110253Z 19007G16KT 10SM CLR M06/M12 A3020 RMK AO2 SLP227 T10561117 53013 TSNO","FM-15","6",,,,,,,,,,,,,,,,,,,,,,,,,,,,"2005-10-30"
"70362125516","2020-02-10T18:53:00","FM-15","6",,,,,,,,,,,,,,,,,,,,,,,,,,,,,,,,,,,,,,"30.22","11","22",,,,,"63","30.22","BKN:07 26","30.19","10.00","19","VRB",,"7",,,,,,,,,,,,,,,,,,,,,,,,,,,,,,,,,,,,,"MET10002/10/20 18:53:01 METAR PASO 110353Z VRB06KT 10SM BKN026 M06/M12 A3022 RMK AO2 SLP233 T10561117 TSNO","FM-15","6",,,,,,,,,,,,,,,,,,,,,,,,,,,,"2005-10-30"
"70362125516","2020-02-10T19:24:00","FM-16","6",,,,,,,,,,,,,,,,,,,,,,,,,,,,,,,,,,,,,,"30.22","11","22",,,,,"63",,"SCT:04 25","30.19","10.00","19","180",,"9",,,,,,,,,,,,,,,,,,,,,,,,,,,,,,,,,,,,,"MET09302/10/20 19:24:01 SPECI PASO 110424Z 18008KT 10SM SCT025 M06/M12 A3022 RMK AO2 T10561117 TSNO","FM-16","6",,,,,,,,,,,,,,,,,,,,,,,,,,,,"2005-10-30"
"70362125516","2020-02-10T19:53:00","FM-15","6",,,,,,,,,,,,,,,,,,,,,,,,,,,,,,,,,,,,,,"30.23","12","22",,,,,"66","30.23","FEW:02 28","30.20","10.00","19","180",,"9",,,,,,,,,,,,,,,,,,,,,,,,,,,,,,,,,,,,,"MET10002/10/20 19:53:02 METAR PASO 110453Z 18008KT 10SM FEW028 M06/M11 A3023 RMK AO2 SLP236 T10561111 TSNO","FM-15","6",,,,,,,,,,,,,,,,,,,,,,,,,,,,"2005-10-30"
"70362125516","2020-02-10T20:53:00","FM-15","6",,,,,,,,,,,,,,,,,,,,,,,,,,,,,,,,,,,,,,"30.24","11","21",,,"-0.04","1","65","30.24","FEW:02 27","30.21","10.00","18","170",,"7",,,,,,,,,,,,,,,,,,,,,,,,,,,,,,,,,,,,,"MET11802/10/20 20:53:02 METAR PASO 110553Z 17006KT 10SM FEW027 M06/M12 A3024 RMK AO2 SLP239 T10611117 11039 21061 51012 TSNO","FM-15","6",,,,,,,,,,,,,,,,,,,,,,,,,,,,"2005-10-30"
"70362125516","2020-02-10T21:53:00","FM-15","6",,,,,,,,,,,,,,,,,,,,,,,,,,,,,,,,,,,,,,"30.26","11","22",,,,,"63","30.26","FEW:02 30","30.23","10.00","19","180",,"6",,,,,,,,,,,,,,,,,,,,,,,,,,,,,,,,,,,,,"MET10002/10/20 21:53:02 METAR PASO 110653Z 18005KT 10SM FEW030 M06/M12 A3026 RMK AO2 SLP247 T10561117 TSNO","FM-15","6",,,,,,,,,,,,,,,,,,,,,,,,,,,,"2005-10-30"
